{
 "type": "FeatureCollection",
 "crs": {
  "type": "name",
  "properties": {
   "name": "urn:ogc:def:crs:EPSG::32610"
  }
 },
 "georeference": {
  "rms_m": 0.4897920555996554,
  "n_labels": 12,
  "from": "vancouver_1912_MAP342a_04_georef.json"
 },
 "source_blocks": "runs/hunyuan/2026-09-15_tiles_vancouver_1912_MAP342a_04/vancouver_1912_MAP342a_04_blocks_px.geojson",
 "lot_convention": "numbered",
 "note": "traced shapes that are not blocks (inset frames, building outlines, fragments) \u2014 kept for inspection",
 "features": [
  {
   "type": "Feature",
   "geometry": {
    "type": "Polygon",
    "coordinates": [
     [
      [
       491914.443,
       5459348.656
      ],
      [
       491905.629,
       5459327.927
      ],
      [
       491906.35,
       5459326.176
      ],
      [
       491991.196,
       5459290.043
      ],
      [
       491993.441,
       5459290.227
      ],
      [
       491996.778,
       5459297.431
      ],
      [
       491996.578,
       5459299.008
      ],
      [
       491993.948,
       5459301.102
      ],
      [
       491998.779,
       5459311.995
      ],
      [
       491998.236,
       5459313.395
      ],
      [
       491916.688,
       5459348.84
      ],
      [
       491914.443,
       5459348.656
      ]
     ]
    ]
   },
   "properties": {
    "sheet": "vancouver_1912_MAP342a_04",
    "block_id": "vancouver_1912_MAP342a_04:block:fid0",
    "block_number": null,
    "block_number_inferred": false,
    "lot_numbers": [],
    "street_names": [],
    "area_source_px2": 75662,
    "centroid_source_px": [
     1865,
     1611
    ],
    "n_outlines": 1,
    "compactness": 0.516,
    "streets_through": [
     "WEST WATERFRONT RD"
    ],
    "merged_across": null,
    "streets_1895": [],
    "streets_modern": [],
    "nearby_text": [
     "Proposed",
     "Viaduct",
     "ssed"
    ],
    "centroid_map": [
     491952.641,
     5459319.699
    ],
    "is_block": false,
    "rejected_because": "only 0 lot number(s) inside and no block numeral \u2014 a building outline or a fragment"
   }
  },
  {
   "type": "Feature",
   "geometry": {
    "type": "Polygon",
    "coordinates": [
     [
      [
       491812.53,
       5459290.02
      ],
      [
       491812.378,
       5459288.792
      ],
      [
       491813.434,
       5459287.744
      ],
      [
       491827.923,
       5459279.911
      ],
      [
       491828.811,
       5459278.512
      ],
      [
       491835.78,
       5459275.559
      ],
      [
       491835.974,
       5459274.332
      ],
      [
       491833.731,
       5459273.972
      ],
      [
       491832.714,
       5459272.74
      ],
      [
       491832.625,
       5459267.83
      ],
      [
       491833.86,
       5459266.432
      ],
      [
       491835.416,
       5459266.438
      ],
      [
       491841.01,
       5459262.953
      ],
      [
       491834.468,
       5459251.002
      ],
      [
       491832.422,
       5459249.24
      ],
      [
       491832.309,
       5459245.732
      ],
      [
       491829.894,
       5459245.371
      ],
      [
       491820.54,
       5459236.039
      ],
      [
       491821.086,
       5459234.463
      ],
      [
       491926.28,
       5459130.719
      ],
      [
       491926.641,
       5459129.844
      ],
      [
       491925.621,
       5459128.787
      ],
      [
       491920.573,
       5459130.696
      ],
      [
       491917.474,
       5459129.807
      ],
      [
       491914.421,
       5459126.287
      ],
      [
       491914.478,
       5459122.955
      ],
      [
       491916.088,
       5459119.805
      ],
      [
       491918.539,
       5459118.061
      ],
      [
       491922.526,
       5459117.551
      ],
      [
       491995.358,
       5459045.419
      ],
      [
       491994.75,
       5459040.506
      ],
      [
       491997.061,
       5459036.832
      ],
      [
       492000.197,
       5459035.442
      ],
      [
       492004.336,
       5459036.16
      ],
      [
       492045.319,
       5458995.991
      ],
      [
       492046.876,
       5458995.998
      ],
      [
       492049.255,
       5458998.462
      ],
      [
       492049.061,
       5458999.689
      ],
      [
       492007.718,
       5459040.734
      ],
      [
       492007.485,
       5459044.24
      ],
      [
       492005.535,
       5459047.038
      ],
      [
       492003.439,
       5459048.257
      ],
      [
       491999.628,
       5459048.592
      ],
      [
       491944.908,
       5459103.262
      ],
      [
       491945.582,
       5459104.316
      ],
      [
       491948.37,
       5459103.1
      ],
      [
       491952.168,
       5459103.466
      ],
      [
       491955.067,
       5459105.933
      ],
      [
       491956.063,
       5459108.392
      ],
      [
       491955.833,
       5459111.724
      ],
      [
       491952.657,
       5459115.393
      ],
      [
       491948.498,
       5459115.903
      ],
      [
       491944.726,
       5459113.958
      ],
      [
       491944.025,
       5459114.482
      ],
      [
       491943.789,
       5459118.163
      ],
      [
       491948.089,
       5459119.584
      ],
      [
       491958.69,
       5459116.645
      ],
      [
       491960.112,
       5459114.371
      ],
      [
       491962.196,
       5459113.854
      ],
      [
       491964.77,
       5459115.092
      ],
      [
       491969.815,
       5459113.359
      ],
      [
       491971.58,
       5459111.261
      ],
      [
       491974.156,
       5459112.324
      ],
      [
       491976.763,
       5459111.633
      ],
      [
       491977.153,
       5459109.004
      ],
      [
       491972.355,
       5459106.354
      ],
      [
       491970.853,
       5459103.191
      ],
      [
       491971.798,
       5459098.46
      ],
      [
       491974.78,
       5459096.017
      ],
      [
       491979.795,
       5459096.037
      ],
      [
       491983.033,
       5459098.856
      ],
      [
       491983.853,
       5459101.49
      ],
      [
       491983.281,
       5459104.645
      ],
      [
       491979.586,
       5459108.312
      ],
      [
       491981.629,
       5459110.25
      ],
      [
       491987.36,
       5459108.87
      ],
      [
       491989.474,
       5459106.599
      ],
      [
       491991.037,
       5459106.254
      ],
      [
       491993.27,
       5459107.14
      ],
      [
       492001.959,
       5459104.72
      ],
      [
       492003.551,
       5459102.622
      ],
      [
       492005.114,
       5459102.278
      ],
      [
       492007.174,
       5459103.163
      ],
      [
       492016.731,
       5459100.571
      ],
      [
       492018.675,
       5459098.124
      ],
      [
       492021.428,
       5459099.012
      ],
      [
       492026.467,
       5459097.629
      ],
      [
       492027.496,
       5459098.16
      ],
      [
       492036.805,
       5459130.466
      ],
      [
       492037.094,
       5459133.799
      ],
      [
       492009.98,
       5459141.581
      ],
      [
       492008.406,
       5459142.626
      ],
      [
       492009.044,
       5459145.786
      ],
      [
       492008.501,
       5459147.186
      ],
      [
       491982.774,
       5459154.798
      ],
      [
       491981.026,
       5459155.844
      ],
      [
       491982.019,
       5459158.478
      ],
      [
       492007.574,
       5459150.865
      ],
      [
       492071.501,
       5459124.293
      ],
      [
       492087.848,
       5459119.098
      ],
      [
       492109.04,
       5459113.747
      ],
      [
       492109.398,
       5459113.047
      ],
      [
       492108.378,
       5459111.991
      ],
      [
       492104.156,
       5459095.84
      ],
      [
       492101.931,
       5459094.428
      ],
      [
       492101.788,
       5459092.674
      ],
      [
       492102.853,
       5459091.1
      ],
      [
       492098.288,
       5459074.772
      ],
      [
       492099.379,
       5459071.619
      ],
      [
       492102.823,
       5459072.51
      ],
      [
       492104.24,
       5459070.587
      ],
      [
       492105.629,
       5459070.242
      ],
      [
       492108.032,
       5459071.304
      ],
      [
       492110.817,
       5459070.263
      ],
      [
       492111.715,
       5459068.337
      ],
      [
       492115.508,
       5459069.054
      ],
      [
       492126.281,
       5459066.117
      ],
      [
       492128.392,
       5459064.021
      ],
      [
       492131.664,
       5459064.911
      ],
      [
       492133.083,
       5459062.812
      ],
      [
       492137.747,
       5459063.182
      ],
      [
       492157.904,
       5459057.652
      ],
      [
       492159.496,
       5459055.554
      ],
      [
       492162.943,
       5459056.269
      ],
      [
       492168.674,
       5459054.889
      ],
      [
       492170.615,
       5459052.617
      ],
      [
       492173.365,
       5459053.681
      ],
      [
       492175.628,
       5459052.813
      ],
      [
       492177.569,
       5459050.541
      ],
      [
       492178.953,
       5459050.547
      ],
      [
       492180.315,
       5459051.78
      ],
      [
       492185.704,
       5459050.223
      ],
      [
       492187.469,
       5459048.126
      ],
      [
       492190.394,
       5459049.015
      ],
      [
       492196.474,
       5459047.461
      ],
      [
       492198.221,
       5459046.416
      ],
      [
       492198.764,
       5459045.015
      ],
      [
       492200.154,
       5459044.67
      ],
      [
       492203.598,
       5459045.561
      ],
      [
       492207.945,
       5459044.176
      ],
      [
       492208.84,
       5459042.426
      ],
      [
       492211.255,
       5459042.786
      ],
      [
       492212.49,
       5459041.388
      ],
      [
       492221.522,
       5459039.145
      ],
      [
       492223.582,
       5459040.03
      ],
      [
       492228.102,
       5459038.645
      ],
      [
       492229.516,
       5459036.897
      ],
      [
       492232.617,
       5459037.612
      ],
      [
       492237.656,
       5459036.229
      ],
      [
       492238.894,
       5459034.656
      ],
      [
       492241.479,
       5459035.192
      ],
      [
       492246.342,
       5459033.984
      ],
      [
       492250.89,
       5459031.021
      ],
      [
       492254.319,
       5459032.789
      ],
      [
       492264.23,
       5459070.358
      ],
      [
       492253.448,
       5459073.822
      ],
      [
       492194.029,
       5459089.54
      ],
      [
       492194.002,
       5459091.118
      ],
      [
       492272.529,
       5459070.567
      ],
      [
       492311.024,
       5459064.761
      ],
      [
       492346.293,
       5459055.434
      ],
      [
       492348.581,
       5459053.163
      ],
      [
       492348.288,
       5459050.005
      ],
      [
       492347.436,
       5459049.3
      ],
      [
       492284.381,
       5459065.179
      ],
      [
       492273.617,
       5459026.905
      ],
      [
       492285.613,
       5459023.271
      ],
      [
       492286.863,
       5459020.996
      ],
      [
       492290.477,
       5459022.063
      ],
      [
       492388.12,
       5458996.153
      ],
      [
       492389.677,
       5458996.159
      ],
      [
       492391.18,
       5458999.322
      ],
      [
       492400.462,
       5459033.206
      ],
      [
       492401.479,
       5459034.438
      ],
      [
       492403.736,
       5459033.921
      ],
      [
       492404.932,
       5459034.802
      ],
      [
       492404.541,
       5459037.431
      ],
      [
       492402.776,
       5459039.529
      ],
      [
       492405.883,
       5459039.892
      ],
      [
       492406.557,
       5459040.947
      ],
      [
       492406.249,
       5459059.009
      ],
      [
       492407.102,
       5459059.714
      ],
      [
       492415.469,
       5459055.89
      ],
      [
       492416.498,
       5459056.42
      ],
      [
       492418.836,
       5459061.34
      ],
      [
       492418.287,
       5459063.091
      ],
      [
       492406.431,
       5459068.655
      ],
      [
       492406.568,
       5459080.931
      ],
      [
       492405.861,
       5459081.805
      ],
      [
       492399.43,
       5459083.708
      ],
      [
       492401.994,
       5459085.472
      ],
      [
       492401.55,
       5459091.258
      ],
      [
       492273.539,
       5459153.522
      ],
      [
       492272.304,
       5459154.919
      ],
      [
       492266.737,
       5459156.826
      ],
      [
       492227.839,
       5459176.134
      ],
      [
       492180.788,
       5459196.813
      ],
      [
       492178.537,
       5459196.979
      ],
      [
       492178.406,
       5459194.523
      ],
      [
       492177.55,
       5459193.994
      ],
      [
       491858.486,
       5459333.698
      ],
      [
       491855.71,
       5459334.213
      ],
      [
       491853.849,
       5459331.75
      ],
      [
       491853.766,
       5459326.489
      ],
      [
       491855.519,
       5459325.093
      ],
      [
       491889.643,
       5459311.903
      ],
      [
       491969.214,
       5459270.663
      ],
      [
       492204.294,
       5459167.27
      ],
      [
       492216.678,
       5459161.183
      ],
      [
       492213.956,
       5459158.541
      ],
      [
       491970.681,
       5459265.759
      ],
      [
       491891.999,
       5459305.599
      ],
      [
       491858.728,
       5459319.494
      ],
      [
       491856.998,
       5459319.487
      ],
      [
       491856.682,
       5459317.732
      ],
      [
       491866.808,
       5459312.161
      ],
      [
       491967.974,
       5459262.24
      ],
      [
       492167.161,
       5459174.31
      ],
      [
       492170.498,
       5459171.342
      ],
      [
       492168.11,
       5459169.404
      ],
      [
       491976.239,
       5459254.207
      ],
      [
       491944.334,
       5459269.159
      ],
      [
       491842.817,
       5459319.43
      ],
      [
       491841.433,
       5459319.424
      ],
      [
       491834.801,
       5459312.733
      ],
      [
       491834.482,
       5459311.154
      ],
      [
       491835.189,
       5459310.28
      ],
      [
       491962.973,
       5459251.172
      ],
      [
       492006.398,
       5459230.128
      ],
      [
       492004.683,
       5459229.244
      ],
      [
       492002.414,
       5459230.462
      ],
      [
       491998.964,
       5459229.922
      ],
      [
       491972.629,
       5459242.793
      ],
      [
       491844.161,
       5459301.372
      ],
      [
       491842.271,
       5459300.663
      ],
      [
       491843.514,
       5459298.739
      ],
      [
       491933.301,
       5459246.667
      ],
      [
       491933.662,
       5459245.792
      ],
      [
       491931.273,
       5459243.853
      ],
      [
       491929.001,
       5459245.247
      ],
      [
       491928.447,
       5459247.349
      ],
      [
       491925.507,
       5459247.337
      ],
      [
       491922.197,
       5459248.727
      ],
      [
       491826.494,
       5459302.879
      ],
      [
       491825.11,
       5459302.873
      ],
      [
       491822.221,
       5459299.88
      ],
      [
       491822.245,
       5459298.477
      ],
      [
       491842.322,
       5459287.51
      ],
      [
       491842.68,
       5459286.81
      ],
      [
       491839.101,
       5459283.639
      ],
      [
       491818.157,
       5459294.778
      ],
      [
       491815.42,
       5459293.013
      ],
      [
       491814.937,
       5459290.907
      ],
      [
       491812.53,
       5459290.02
      ]
     ]
    ]
   },
   "properties": {
    "sheet": "vancouver_1912_MAP342a_04",
    "block_id": "vancouver_1912_MAP342a_04:block:1",
    "block_number": "1",
    "block_number_inferred": false,
    "lot_numbers": [
     "1",
     "2",
     "3",
     "4",
     "5",
     "6",
     "7",
     "8",
     "9",
     "10",
     "11",
     "12",
     "66",
     "95",
     "210"
    ],
    "street_names": [
     "CAMBIE",
     "CORDOVA ST. WEST",
     "WATER ST."
    ],
    "area_source_px2": 2446454,
    "centroid_source_px": [
     2713,
     2574
    ],
    "n_outlines": 78,
    "compactness": 0.043,
    "streets_through": [],
    "merged_across": null,
    "streets_1895": [
     {
      "label_1895": "CORDOVA ST. WEST",
      "modern": [
       "WEST CORDOVA ST"
      ],
      "side": "W",
      "distance_px": 43,
      "residual_m": 0.08
     },
     {
      "label_1895": "WATER ST.",
      "modern": [
       "WATER ST"
      ],
      "side": "SE",
      "distance_px": 47,
      "residual_m": 0.34
     },
     {
      "label_1895": "CAMBIE",
      "modern": [
       "CAMBIE ST"
      ],
      "side": "S",
      "distance_px": 107,
      "residual_m": 0.53
     }
    ],
    "streets_modern": [],
    "nearby_text": [
     "219,915)Water Line",
     "Alexander",
     "BRISBERRY BLACK",
     "BRON",
     "Budweiser",
     "Building",
     "Burward",
     "Company",
     "DAT.",
     "DISTRICT",
     "DISTRICT LOT 541",
     "FRI",
     "Freight Shed",
     "Grain Shed",
     "Grand",
     "Griffin Brooke",
     "Hotel",
     "Huckay Smi",
     "IBIE ST.",
     "McClary",
     "Mercoritise",
     "OFFICIAL",
     "OFTICAL",
     "OLD GRANVILLE TOWN",
     "Original Water Line",
     "Plan No 210",
     "Proposed",
     "REP.",
     "ST.WEST",
     "Station & Offices.",
     "Stimons Wharf",
     "Stinson's Wharf.",
     "inol",
     "n Pacific Railway"
    ],
    "centroid_map": [
     492102.172,
     5459151.424
    ],
    "is_block": false,
    "rejected_because": "thin strip (compactness 0.04) \u2014 a frame or border line, not a block"
   }
  },
  {
   "type": "Feature",
   "geometry": {
    "type": "Polygon",
    "coordinates": [
     [
      [
       492027.715,
       5459298.784
      ],
      [
       492018.871,
       5459279.808
      ],
      [
       492019.413,
       5459278.407
      ],
      [
       492027.95,
       5459274.759
      ],
      [
       492029.716,
       5459272.662
      ],
      [
       492116.162,
       5459233.905
      ],
      [
       492118.059,
       5459234.263
      ],
      [
       492127.404,
       5459254.293
      ],
      [
       492126.858,
       5459255.869
      ],
      [
       492029.611,
       5459299.142
      ],
      [
       492027.715,
       5459298.784
      ]
     ]
    ]
   },
   "properties": {
    "sheet": "vancouver_1912_MAP342a_04",
    "block_id": "vancouver_1912_MAP342a_04:block:fid2",
    "block_number": null,
    "block_number_inferred": false,
    "lot_numbers": [],
    "street_names": [],
    "area_source_px2": 86821,
    "centroid_source_px": [
     2557,
     1917
    ],
    "n_outlines": 1,
    "compactness": 0.478,
    "streets_through": [
     "WEST WATERFRONT RD"
    ],
    "merged_across": null,
    "streets_1895": [],
    "streets_modern": [],
    "nearby_text": [],
    "centroid_map": [
     492073.233,
     5459266.525
    ],
    "is_block": false,
    "rejected_because": "only 0 lot number(s) inside and no block numeral \u2014 a building outline or a fragment"
   }
  },
  {
   "type": "Feature",
   "geometry": {
    "type": "Polygon",
    "coordinates": [
     [
      [
       492396.971,
       5459248.546
      ],
      [
       492386.743,
       5459239.736
      ],
      [
       492384.209,
       5459236.218
      ],
      [
       492383.386,
       5459223.589
      ],
      [
       492384.612,
       5459222.717
      ],
      [
       492388.762,
       5459222.733
      ],
      [
       492389.469,
       5459221.859
      ],
      [
       492383.646,
       5459147.304
      ],
      [
       492385.048,
       5459146.257
      ],
      [
       492403.228,
       5459145.103
      ],
      [
       492404.427,
       5459145.81
      ],
      [
       492408.332,
       5459221.234
      ],
      [
       492411.26,
       5459221.948
      ],
      [
       492411.937,
       5459222.827
      ],
      [
       492412.28,
       5459233.176
      ],
      [
       492408.096,
       5459235.088
      ],
      [
       492398.191,
       5459248.025
      ],
      [
       492396.971,
       5459248.546
      ]
     ]
    ]
   },
   "properties": {
    "sheet": "vancouver_1912_MAP342a_04",
    "block_id": "vancouver_1912_MAP342a_04:block:fid3",
    "block_number": null,
    "block_number_inferred": false,
    "lot_numbers": [],
    "street_names": [],
    "area_source_px2": 67964,
    "centroid_source_px": [
     4420,
     2326
    ],
    "n_outlines": 0,
    "compactness": 0.432,
    "streets_through": [],
    "merged_across": null,
    "streets_1895": [],
    "streets_modern": [],
    "nearby_text": [
     "Union S.S.Cbs Wharf",
     "Union SS Cos Wharf."
    ],
    "centroid_map": [
     492396.653,
     5459196.109
    ],
    "is_block": false,
    "rejected_because": "only 0 lot number(s) inside and no block numeral \u2014 a building outline or a fragment"
   }
  },
  {
   "type": "Feature",
   "geometry": {
    "type": "Polygon",
    "coordinates": [
     [
      [
       492236.924,
       5459180.906
      ],
      [
       492236.042,
       5459181.955
      ],
      [
       492235.004,
       5459181.951
      ],
      [
       492233.949,
       5459182.999
      ],
      [
       492233.084,
       5459182.995
      ],
      [
       492232.031,
       5459183.868
      ],
      [
       492228.053,
       5459183.852
      ],
      [
       492226.998,
       5459184.899
      ],
      [
       492225.96,
       5459184.895
      ],
      [
       492225.078,
       5459185.944
      ],
      [
       492224.04,
       5459185.94
      ],
      [
       492222.984,
       5459186.988
      ],
      [
       492221.082,
       5459186.98
      ],
      [
       492220.029,
       5459187.853
      ],
      [
       492218.992,
       5459187.848
      ],
      [
       492217.936,
       5459188.896
      ],
      [
       492217.071,
       5459188.893
      ],
      [
       492216.016,
       5459189.941
      ],
      [
       492213.94,
       5459189.932
      ],
      [
       492213.058,
       5459190.981
      ],
      [
       492212.02,
       5459190.977
      ],
      [
       492210.967,
       5459191.849
      ],
      [
       492209.93,
       5459191.845
      ],
      [
       492209.047,
       5459192.894
      ],
      [
       492208.009,
       5459192.89
      ],
      [
       492206.954,
       5459193.938
      ],
      [
       492205.051,
       5459193.93
      ],
      [
       492203.996,
       5459194.978
      ],
      [
       492202.958,
       5459194.974
      ],
      [
       492202.079,
       5459195.847
      ],
      [
       492201.041,
       5459195.843
      ],
      [
       492199.985,
       5459196.891
      ],
      [
       492198.083,
       5459196.883
      ],
      [
       492197.027,
       5459197.931
      ],
      [
       492195.99,
       5459197.927
      ],
      [
       492194.934,
       5459198.975
      ],
      [
       492194.069,
       5459198.971
      ],
      [
       492193.017,
       5459199.844
      ],
      [
       492190.941,
       5459199.835
      ],
      [
       492190.059,
       5459200.884
      ],
      [
       492189.021,
       5459200.88
      ],
      [
       492187.965,
       5459201.928
      ],
      [
       492186.928,
       5459201.923
      ],
      [
       492186.045,
       5459202.972
      ],
      [
       492185.007,
       5459202.968
      ],
      [
       492183.988,
       5459201.911
      ],
      [
       492184.006,
       5459200.859
      ],
      [
       492182.983,
       5459199.978
      ],
      [
       492181.08,
       5459199.971
      ],
      [
       492180.028,
       5459200.843
      ],
      [
       492177.088,
       5459200.831
      ],
      [
       492176.032,
       5459201.879
      ],
      [
       492174.994,
       5459201.875
      ],
      [
       492173.939,
       5459202.923
      ],
      [
       492173.074,
       5459202.919
      ],
      [
       492172.019,
       5459203.967
      ],
      [
       492170.981,
       5459203.963
      ],
      [
       492170.948,
       5459205.892
      ],
      [
       492171.968,
       5459206.948
      ],
      [
       492171.953,
       5459207.825
      ],
      [
       492170.015,
       5459209.922
      ],
      [
       492168.977,
       5459209.918
      ],
      [
       492167.921,
       5459210.966
      ],
      [
       492167.057,
       5459210.962
      ],
      [
       492166.004,
       5459211.835
      ],
      [
       492164.966,
       5459211.83
      ],
      [
       492164.084,
       5459212.879
      ],
      [
       492163.046,
       5459212.875
      ],
      [
       492161.991,
       5459213.923
      ],
      [
       492160.088,
       5459213.915
      ],
      [
       492159.033,
       5459214.963
      ],
      [
       492157.995,
       5459214.959
      ],
      [
       492156.942,
       5459215.831
      ],
      [
       492156.078,
       5459215.828
      ],
      [
       492155.022,
       5459216.876
      ],
      [
       492153.984,
       5459216.872
      ],
      [
       492152.929,
       5459217.92
      ],
      [
       492152.064,
       5459217.916
      ],
      [
       492151.008,
       5459218.964
      ],
      [
       492150.993,
       5459219.841
      ],
      [
       492152.013,
       5459220.897
      ],
      [
       492154.089,
       5459220.906
      ],
      [
       492154.971,
       5459219.857
      ],
      [
       492156.009,
       5459219.861
      ],
      [
       492157.062,
       5459218.989
      ],
      [
       492158.964,
       5459218.996
      ],
      [
       492160.02,
       5459217.948
      ],
      [
       492161.057,
       5459217.953
      ],
      [
       492161.94,
       5459216.904
      ],
      [
       492162.978,
       5459216.908
      ],
      [
       492164.033,
       5459215.86
      ],
      [
       492165.936,
       5459215.868
      ],
      [
       492166.988,
       5459214.995
      ],
      [
       492168.026,
       5459215.0
      ],
      [
       492169.081,
       5459213.952
      ],
      [
       492169.946,
       5459213.955
      ],
      [
       492171.002,
       5459212.907
      ],
      [
       492173.077,
       5459212.916
      ],
      [
       492173.96,
       5459211.867
      ],
      [
       492174.997,
       5459211.871
      ],
      [
       492176.05,
       5459210.999
      ],
      [
       492176.918,
       5459210.827
      ],
      [
       492177.97,
       5459209.954
      ],
      [
       492180.046,
       5459209.962
      ],
      [
       492180.928,
       5459208.914
      ],
      [
       492181.966,
       5459208.918
      ],
      [
       492183.022,
       5459207.87
      ],
      [
       492184.059,
       5459207.874
      ],
      [
       492184.942,
       5459206.826
      ],
      [
       492185.98,
       5459206.83
      ],
      [
       492187.032,
       5459205.957
      ],
      [
       492188.935,
       5459205.965
      ],
      [
       492189.99,
       5459204.917
      ],
      [
       492191.028,
       5459204.921
      ],
      [
       492192.083,
       5459203.873
      ],
      [
       492192.948,
       5459203.877
      ],
      [
       492194.004,
       5459202.829
      ],
      [
       492196.079,
       5459202.837
      ],
      [
       492196.959,
       5459201.964
      ],
      [
       492197.996,
       5459201.968
      ],
      [
       492199.052,
       5459200.92
      ],
      [
       492199.917,
       5459200.924
      ],
      [
       492200.972,
       5459199.876
      ],
      [
       492203.048,
       5459199.884
      ],
      [
       492203.93,
       5459198.836
      ],
      [
       492204.968,
       5459198.84
      ],
      [
       492206.021,
       5459197.967
      ],
      [
       492207.058,
       5459197.971
      ],
      [
       492207.941,
       5459196.923
      ],
      [
       492210.016,
       5459196.931
      ],
      [
       492211.072,
       5459195.883
      ],
      [
       492211.937,
       5459195.887
      ],
      [
       492212.992,
       5459194.839
      ],
      [
       492214.03,
       5459194.843
      ],
      [
       492215.082,
       5459193.97
      ],
      [
       492215.947,
       5459193.974
      ],
      [
       492217.003,
       5459192.926
      ],
      [
       492218.04,
       5459192.93
      ],
      [
       492218.923,
       5459191.882
      ],
      [
       492220.998,
       5459191.89
      ],
      [
       492222.054,
       5459190.842
      ],
      [
       492222.919,
       5459190.846
      ],
      [
       492223.971,
       5459189.973
      ],
      [
       492225.009,
       5459189.977
      ],
      [
       492226.065,
       5459188.929
      ],
      [
       492226.929,
       5459188.933
      ],
      [
       492227.985,
       5459187.885
      ],
      [
       492229.023,
       5459187.889
      ],
      [
       492230.078,
       5459186.841
      ],
      [
       492230.943,
       5459186.845
      ],
      [
       492231.995,
       5459185.972
      ],
      [
       492234.071,
       5459185.98
      ],
      [
       492234.953,
       5459184.932
      ],
      [
       492235.991,
       5459184.936
      ],
      [
       492237.047,
       5459183.888
      ],
      [
       492238.084,
       5459183.892
      ],
      [
       492238.967,
       5459182.844
      ],
      [
       492240.005,
       5459182.848
      ],
      [
       492240.038,
       5459180.919
      ],
      [
       492236.924,
       5459180.906
      ]
     ]
    ]
   },
   "properties": {
    "sheet": "vancouver_1912_MAP342a_04",
    "block_id": "vancouver_1912_MAP342a_04:block:fid4",
    "block_number": null,
    "block_number_inferred": false,
    "lot_numbers": [],
    "street_names": [
     "Raiway",
     "n Pacific Railway",
     "tway"
    ],
    "area_source_px2": 13531,
    "centroid_source_px": [
     3279,
     2243
    ],
    "n_outlines": 1,
    "is_block": false,
    "rejected_because": "sliver (17% of the parent) left after cutting along ['WEST WATERFRONT RD'] \u2014 a street widened or realigned into the 1895 block"
   }
  },
  {
   "type": "Feature",
   "geometry": {
    "type": "Polygon",
    "coordinates": [
     [
      [
       492247.03,
       5459196.906
      ],
      [
       492245.974,
       5459197.954
      ],
      [
       492244.072,
       5459197.946
      ],
      [
       492243.016,
       5459198.994
      ],
      [
       492241.979,
       5459198.99
      ],
      [
       492240.926,
       5459199.862
      ],
      [
       492240.061,
       5459199.859
      ],
      [
       492239.006,
       5459200.907
      ],
      [
       492237.968,
       5459200.903
      ],
      [
       492237.085,
       5459201.951
      ],
      [
       492236.048,
       5459201.947
      ],
      [
       492234.992,
       5459202.995
      ],
      [
       492233.954,
       5459202.991
      ],
      [
       492233.075,
       5459203.864
      ],
      [
       492230.999,
       5459203.856
      ],
      [
       492229.944,
       5459204.904
      ],
      [
       492229.079,
       5459204.9
      ],
      [
       492228.023,
       5459205.948
      ],
      [
       492226.986,
       5459205.944
      ],
      [
       492225.93,
       5459206.992
      ],
      [
       492225.065,
       5459206.988
      ],
      [
       492224.013,
       5459207.861
      ],
      [
       492222.975,
       5459207.857
      ],
      [
       492221.92,
       5459208.905
      ],
      [
       492221.055,
       5459208.901
      ],
      [
       492219.999,
       5459209.949
      ],
      [
       492217.924,
       5459209.941
      ],
      [
       492217.041,
       5459210.989
      ],
      [
       492216.004,
       5459210.985
      ],
      [
       492214.951,
       5459211.858
      ],
      [
       492214.086,
       5459211.854
      ],
      [
       492213.031,
       5459212.902
      ],
      [
       492211.993,
       5459212.898
      ],
      [
       492210.937,
       5459213.946
      ],
      [
       492209.035,
       5459213.938
      ],
      [
       492207.979,
       5459214.986
      ],
      [
       492206.942,
       5459214.982
      ],
      [
       492206.062,
       5459215.855
      ],
      [
       492205.024,
       5459215.851
      ],
      [
       492203.969,
       5459216.899
      ],
      [
       492202.066,
       5459216.891
      ],
      [
       492201.011,
       5459217.939
      ],
      [
       492199.973,
       5459217.935
      ],
      [
       492198.918,
       5459218.983
      ],
      [
       492198.053,
       5459218.979
      ],
      [
       492197.0,
       5459219.852
      ],
      [
       492194.925,
       5459219.844
      ],
      [
       492194.042,
       5459220.892
      ],
      [
       492193.005,
       5459220.888
      ],
      [
       492191.949,
       5459221.936
      ],
      [
       492191.084,
       5459221.932
      ],
      [
       492190.029,
       5459222.98
      ],
      [
       492188.991,
       5459222.976
      ],
      [
       492187.938,
       5459223.849
      ],
      [
       492186.036,
       5459223.841
      ],
      [
       492184.98,
       5459224.889
      ],
      [
       492183.943,
       5459224.885
      ],
      [
       492183.06,
       5459225.933
      ],
      [
       492182.022,
       5459225.929
      ],
      [
       492180.967,
       5459226.977
      ],
      [
       492179.064,
       5459226.969
      ],
      [
       492178.012,
       5459227.842
      ],
      [
       492176.974,
       5459227.838
      ],
      [
       492175.919,
       5459228.886
      ],
      [
       492175.054,
       5459228.882
      ],
      [
       492173.998,
       5459229.93
      ],
      [
       492171.923,
       5459229.922
      ],
      [
       492171.04,
       5459230.97
      ],
      [
       492170.003,
       5459230.966
      ],
      [
       492168.95,
       5459231.839
      ],
      [
       492168.085,
       5459231.835
      ],
      [
       492167.03,
       5459232.883
      ],
      [
       492164.954,
       5459232.875
      ],
      [
       492164.072,
       5459233.923
      ],
      [
       492163.034,
       5459233.919
      ],
      [
       492161.978,
       5459234.967
      ],
      [
       492160.076,
       5459234.959
      ],
      [
       492159.023,
       5459235.832
      ],
      [
       492157.986,
       5459235.828
      ],
      [
       492159.006,
       5459236.884
      ],
      [
       492158.988,
       5459237.936
      ],
      [
       492160.007,
       5459238.993
      ],
      [
       492159.992,
       5459239.869
      ],
      [
       492162.933,
       5459239.881
      ],
      [
       492163.988,
       5459238.833
      ],
      [
       492165.026,
       5459238.838
      ],
      [
       492166.078,
       5459237.965
      ],
      [
       492166.943,
       5459237.969
      ],
      [
       492167.999,
       5459236.921
      ],
      [
       492170.074,
       5459236.929
      ],
      [
       492170.957,
       5459235.88
      ],
      [
       492171.994,
       5459235.885
      ],
      [
       492173.05,
       5459234.837
      ],
      [
       492174.088,
       5459234.841
      ],
      [
       492174.967,
       5459233.968
      ],
      [
       492176.005,
       5459233.972
      ],
      [
       492177.061,
       5459232.924
      ],
      [
       492178.963,
       5459232.932
      ],
      [
       492180.019,
       5459231.884
      ],
      [
       492181.056,
       5459231.888
      ],
      [
       492181.939,
       5459230.839
      ],
      [
       492182.977,
       5459230.843
      ],
      [
       492184.029,
       5459229.971
      ],
      [
       492185.932,
       5459229.979
      ],
      [
       492186.987,
       5459228.931
      ],
      [
       492188.025,
       5459228.935
      ],
      [
       492189.08,
       5459227.887
      ],
      [
       492189.945,
       5459227.89
      ],
      [
       492191.001,
       5459226.842
      ],
      [
       492192.038,
       5459226.847
      ],
      [
       492192.918,
       5459225.973
      ],
      [
       492194.993,
       5459225.982
      ],
      [
       492196.049,
       5459224.934
      ],
      [
       492197.087,
       5459224.938
      ],
      [
       492197.969,
       5459223.889
      ],
      [
       492199.007,
       5459223.894
      ],
      [
       492200.063,
       5459222.846
      ],
      [
       492201.965,
       5459222.853
      ],
      [
       492203.018,
       5459221.981
      ],
      [
       492204.055,
       5459221.985
      ],
      [
       492204.938,
       5459220.936
      ],
      [
       492205.976,
       5459220.941
      ],
      [
       492207.031,
       5459219.893
      ],
      [
       492208.069,
       5459219.897
      ],
      [
       492208.951,
       5459218.848
      ],
      [
       492211.027,
       5459218.857
      ],
      [
       492212.079,
       5459217.984
      ],
      [
       492212.944,
       5459217.987
      ],
      [
       492214.0,
       5459216.94
      ],
      [
       492215.037,
       5459216.944
      ],
      [
       492215.92,
       5459215.895
      ],
      [
       492217.995,
       5459215.903
      ],
      [
       492219.051,
       5459214.856
      ],
      [
       492220.089,
       5459214.86
      ],
      [
       492220.968,
       5459213.986
      ],
      [
       492222.006,
       5459213.991
      ],
      [
       492223.062,
       5459212.943
      ],
      [
       492223.926,
       5459212.946
      ],
      [
       492224.982,
       5459211.898
      ],
      [
       492227.057,
       5459211.907
      ],
      [
       492227.94,
       5459210.858
      ],
      [
       492228.978,
       5459210.862
      ],
      [
       492230.03,
       5459209.99
      ],
      [
       492231.068,
       5459209.994
      ],
      [
       492231.951,
       5459208.945
      ],
      [
       492234.026,
       5459208.954
      ],
      [
       492235.081,
       5459207.906
      ],
      [
       492235.946,
       5459207.909
      ],
      [
       492237.002,
       5459206.861
      ],
      [
       492238.039,
       5459206.865
      ],
      [
       492238.919,
       5459205.992
      ],
      [
       492239.957,
       5459205.996
      ],
      [
       492241.012,
       5459204.948
      ],
      [
       492243.088,
       5459204.957
      ],
      [
       492243.97,
       5459203.908
      ],
      [
       492245.008,
       5459203.912
      ],
      [
       492246.064,
       5459202.864
      ],
      [
       492246.928,
       5459202.868
      ],
      [
       492247.981,
       5459201.995
      ],
      [
       492249.019,
       5459202.0
      ],
      [
       492249.072,
       5459198.843
      ],
      [
       492248.05,
       5459197.962
      ],
      [
       492248.067,
       5459196.91
      ],
      [
       492247.03,
       5459196.906
      ]
     ]
    ]
   },
   "properties": {
    "sheet": "vancouver_1912_MAP342a_04",
    "block_id": "vancouver_1912_MAP342a_04:block:fid4",
    "block_number": null,
    "block_number_inferred": false,
    "lot_numbers": [],
    "street_names": [
     "Raiway",
     "n Pacific Railway",
     "tway"
    ],
    "area_source_px2": 15439,
    "centroid_source_px": [
     3279,
     2243
    ],
    "n_outlines": 1,
    "is_block": false,
    "rejected_because": "sliver (19% of the parent) left after cutting along ['WEST WATERFRONT RD'] \u2014 a street widened or realigned into the 1895 block"
   }
  },
  {
   "type": "Feature",
   "geometry": {
    "type": "Polygon",
    "coordinates": [
     [
      [
       492308.077,
       5459156.643
      ],
      [
       492304.064,
       5459148.559
      ],
      [
       492304.616,
       5459146.633
      ],
      [
       492326.404,
       5459136.725
      ],
      [
       492355.888,
       5459121.763
      ],
      [
       492357.955,
       5459122.297
      ],
      [
       492361.113,
       5459129.851
      ],
      [
       492362.529,
       5459127.927
      ],
      [
       492359.523,
       5459121.602
      ],
      [
       492360.072,
       5459119.85
      ],
      [
       492406.634,
       5459097.416
      ],
      [
       492408.169,
       5459098.65
      ],
      [
       492410.838,
       5459104.448
      ],
      [
       492408.533,
       5459107.771
      ],
      [
       492411.652,
       5459117.604
      ],
      [
       492410.933,
       5459119.18
      ],
      [
       492406.249,
       5459120.038
      ],
      [
       492402.948,
       5459110.73
      ],
      [
       492401.749,
       5459110.023
      ],
      [
       492390.239,
       5459115.588
      ],
      [
       492390.362,
       5459118.57
      ],
      [
       492389.13,
       5459119.793
      ],
      [
       492386.008,
       5459120.306
      ],
      [
       492384.481,
       5459118.546
      ],
      [
       492380.996,
       5459120.111
      ],
      [
       492380.459,
       5459121.161
      ],
      [
       492381.786,
       5459124.498
      ],
      [
       492380.381,
       5459125.72
      ],
      [
       492378.652,
       5459125.713
      ],
      [
       492376.287,
       5459122.371
      ],
      [
       492374.886,
       5459123.418
      ],
      [
       492375.196,
       5459125.524
      ],
      [
       492374.489,
       5459126.398
      ],
      [
       492371.704,
       5459127.438
      ],
      [
       492369.486,
       5459125.676
      ],
      [
       492365.997,
       5459127.415
      ],
      [
       492365.952,
       5459130.046
      ],
      [
       492361.584,
       5459132.659
      ],
      [
       492364.056,
       5459139.859
      ],
      [
       492363.504,
       5459141.786
      ],
      [
       492356.407,
       5459142.108
      ],
      [
       492350.488,
       5459144.363
      ],
      [
       492347.605,
       5459141.02
      ],
      [
       492343.937,
       5459143.109
      ],
      [
       492344.569,
       5459146.619
      ],
      [
       492340.38,
       5459148.882
      ],
      [
       492338.823,
       5459148.876
      ],
      [
       492336.289,
       5459145.358
      ],
      [
       492309.616,
       5459157.701
      ],
      [
       492308.077,
       5459156.643
      ]
     ]
    ]
   },
   "properties": {
    "sheet": "vancouver_1912_MAP342a_04",
    "block_id": "vancouver_1912_MAP342a_04:block:fid7",
    "block_number": null,
    "block_number_inferred": false,
    "lot_numbers": [],
    "street_names": [],
    "area_source_px2": 49307,
    "centroid_source_px": [
     4187,
     2707
    ],
    "n_outlines": 3,
    "compactness": 0.183,
    "streets_through": [],
    "merged_across": null,
    "streets_1895": [],
    "streets_modern": [],
    "nearby_text": [
     "Stimons Wharf",
     "Stinson's Wharf.",
     "Union S.S.Cbs Wharf",
     "Union SS Cos Wharf."
    ],
    "centroid_map": [
     492357.493,
     5459129.135
    ],
    "is_block": false,
    "rejected_because": "only 0 lot number(s) inside and no block numeral \u2014 a building outline or a fragment"
   }
  },
  {
   "type": "Feature",
   "geometry": {
    "type": "Polygon",
    "coordinates": [
     [
      [
       492043.016,
       5459131.368
      ],
      [
       492034.527,
       5459101.696
      ],
      [
       492033.185,
       5459099.235
      ],
      [
       492033.233,
       5459096.429
      ],
      [
       492034.464,
       5459095.207
      ],
      [
       492034.664,
       5459093.629
      ],
      [
       492036.405,
       5459092.935
      ],
      [
       492039.322,
       5459094.35
      ],
      [
       492048.536,
       5459091.581
      ],
      [
       492049.785,
       5459089.306
      ],
      [
       492052.707,
       5459090.37
      ],
      [
       492058.441,
       5459088.815
      ],
      [
       492059.867,
       5459086.366
      ],
      [
       492061.769,
       5459086.373
      ],
      [
       492063.135,
       5459087.431
      ],
      [
       492068.523,
       5459085.875
      ],
      [
       492070.81,
       5459083.604
      ],
      [
       492074.433,
       5459084.145
      ],
      [
       492078.426,
       5459083.284
      ],
      [
       492085.764,
       5459109.444
      ],
      [
       492086.372,
       5459114.357
      ],
      [
       492064.792,
       5459122.161
      ],
      [
       492046.314,
       5459130.679
      ],
      [
       492043.016,
       5459131.368
      ]
     ]
    ]
   },
   "properties": {
    "sheet": "vancouver_1912_MAP342a_04",
    "block_id": "vancouver_1912_MAP342a_04:block:fid8",
    "block_number": null,
    "block_number_inferred": false,
    "lot_numbers": [],
    "street_names": [],
    "area_source_px2": 54054,
    "centroid_source_px": [
     2463,
     2832
    ],
    "n_outlines": 6,
    "compactness": 0.73,
    "streets_through": [],
    "merged_across": null,
    "streets_1895": [],
    "streets_modern": [],
    "nearby_text": [
     "FRI",
     "Johnston Bros.",
     "Loray Post",
     "OLD GRANVILLE TOWN"
    ],
    "centroid_map": [
     492059.705,
     5459106.007
    ],
    "is_block": false,
    "rejected_because": "only 0 lot number(s) inside and no block numeral \u2014 a building outline or a fragment"
   }
  }
 ]
}