{
 "type": "FeatureCollection",
 "crs": {
  "type": "name",
  "properties": {
   "name": "urn:ogc:def:crs:EPSG::32610"
  }
 },
 "features": [
  {
   "type": "Feature",
   "properties": {
    "sheet": "vancouver_1912_MAP342a_04",
    "source_image": "data/example/vancouver_1912_MAP342a_04/vancouver_1912_MAP342a_04.tif",
    "source_size_px": [
     5991,
     5719
    ],
    "epsg_fit": 32610,
    "rms_m": 0.49,
    "n_labels": 12,
    "scale_m_per_px": [
     0.17295,
     0.17538
    ],
    "rotation_deg": 0.23,
    "shear_deg": -0.74,
    "transform": "affine",
    "what": "scan",
    "note": "outline of the whole scanned page incl. margins, colour bar and ruler"
   },
   "geometry": {
    "type": "Polygon",
    "coordinates": [
     [
      [
       491625.289,
       5459600.894
      ],
      [
       492661.412,
       5459605.093
      ],
      [
       492678.474,
       5458602.221
      ],
      [
       491642.351,
       5458598.022
      ],
      [
       491625.289,
       5459600.894
      ]
     ]
    ]
   }
  },
  {
   "type": "Feature",
   "properties": {
    "sheet": "vancouver_1912_MAP342a_04",
    "source_image": "data/example/vancouver_1912_MAP342a_04/vancouver_1912_MAP342a_04.tif",
    "source_size_px": [
     5991,
     5719
    ],
    "epsg_fit": 32610,
    "rms_m": 0.49,
    "n_labels": 12,
    "scale_m_per_px": [
     0.17295,
     0.17538
    ],
    "rotation_deg": 0.23,
    "shear_deg": -0.74,
    "transform": "affine",
    "what": "content",
    "crop_source_px": [
     0,
     0,
     5991,
     5719
    ],
    "note": "the map content box that was tiled and OCR'd"
   },
   "geometry": {
    "type": "Polygon",
    "coordinates": [
     [
      [
       491625.289,
       5459600.894
      ],
      [
       492661.412,
       5459605.093
      ],
      [
       492678.474,
       5458602.221
      ],
      [
       491642.351,
       5458598.022
      ],
      [
       491625.289,
       5459600.894
      ]
     ]
    ]
   }
  }
 ]
}