{
 "type": "FeatureCollection",
 "georeference": {
  "rms_m": 0.4897920555996554,
  "n_labels": 12,
  "from": "vancouver_1912_MAP342a_04_georef.json"
 },
 "source_blocks": "runs/hunyuan/2026-09-15_tiles_vancouver_1912_MAP342a_04/vancouver_1912_MAP342a_04_blocks_px.geojson",
 "lot_convention": "numbered",
 "note": "traced shapes that are not blocks (inset frames, building outlines, fragments) \u2014 kept for inspection",
 "features": [
  {
   "type": "Feature",
   "geometry": {
    "type": "Polygon",
    "coordinates": [
     [
      [
       -123.1111851,
       49.2868354
      ],
      [
       -123.1113059,
       49.2866488
      ],
      [
       -123.1112959,
       49.2866331
      ],
      [
       -123.1101285,
       49.2863092
      ],
      [
       -123.1100976,
       49.2863109
      ],
      [
       -123.1100519,
       49.2863757
      ],
      [
       -123.1100547,
       49.2863899
      ],
      [
       -123.1100909,
       49.2864087
      ],
      [
       -123.1100247,
       49.2865068
      ],
      [
       -123.1100322,
       49.2865193
      ],
      [
       -123.1111542,
       49.2868371
      ],
      [
       -123.1111851,
       49.2868354
      ]
     ]
    ]
   },
   "properties": {
    "sheet": "vancouver_1912_MAP342a_04",
    "block_id": "vancouver_1912_MAP342a_04:block:fid0",
    "block_number": null,
    "block_number_inferred": false,
    "lot_numbers": [],
    "street_names": [],
    "area_source_px2": 75662,
    "centroid_source_px": [
     1865,
     1611
    ],
    "n_enclosed": 1,
    "compactness": 0.516,
    "streets_through": [
     "WEST WATERFRONT RD"
    ],
    "merged_across": null,
    "streets_1895": [],
    "streets_modern": [],
    "nearby_text": [
     "Proposed",
     "Viaduct",
     "ssed"
    ],
    "centroid_map": [
     491952.641,
     5459319.699
    ],
    "is_block": false,
    "rejected_because": "only 0 lot number(s) inside and no block numeral \u2014 a building outline or a fragment"
   }
  },
  {
   "type": "Feature",
   "geometry": {
    "type": "Polygon",
    "coordinates": [
     [
      [
       -123.1125853,
       49.2863066
      ],
      [
       -123.1125874,
       49.2862956
      ],
      [
       -123.1125728,
       49.2862862
      ],
      [
       -123.1123734,
       49.2862159
      ],
      [
       -123.1123612,
       49.2862033
      ],
      [
       -123.1122653,
       49.2861768
      ],
      [
       -123.1122626,
       49.2861658
      ],
      [
       -123.1122934,
       49.2861625
      ],
      [
       -123.1123074,
       49.2861515
      ],
      [
       -123.1123085,
       49.2861073
      ],
      [
       -123.1122915,
       49.2860947
      ],
      [
       -123.1122701,
       49.2860948
      ],
      [
       -123.1121931,
       49.2860635
      ],
      [
       -123.1122828,
       49.2859559
      ],
      [
       -123.1123109,
       49.2859401
      ],
      [
       -123.1123124,
       49.2859085
      ],
      [
       -123.1123456,
       49.2859052
      ],
      [
       -123.1124741,
       49.2858212
      ],
      [
       -123.1124665,
       49.285807
      ],
      [
       -123.1110179,
       49.2848752
      ],
      [
       -123.111013,
       49.2848673
      ],
      [
       -123.111027,
       49.2848578
      ],
      [
       -123.1110964,
       49.2848749
      ],
      [
       -123.111139,
       49.2848669
      ],
      [
       -123.1111809,
       49.2848352
      ],
      [
       -123.1111801,
       49.2848052
      ],
      [
       -123.1111579,
       49.2847769
      ],
      [
       -123.1111241,
       49.2847612
      ],
      [
       -123.1110693,
       49.2847567
      ],
      [
       -123.1100664,
       49.2841088
      ],
      [
       -123.1100746,
       49.2840646
      ],
      [
       -123.1100428,
       49.2840316
      ],
      [
       -123.1099996,
       49.2840191
      ],
      [
       -123.1099427,
       49.2840257
      ],
      [
       -123.1093784,
       49.2836649
      ],
      [
       -123.109357,
       49.2836649
      ],
      [
       -123.1093243,
       49.2836871
      ],
      [
       -123.109327,
       49.2836982
      ],
      [
       -123.1098963,
       49.2840668
      ],
      [
       -123.1098996,
       49.2840984
      ],
      [
       -123.1099265,
       49.2841235
      ],
      [
       -123.1099553,
       49.2841345
      ],
      [
       -123.1100077,
       49.2841374
      ],
      [
       -123.1107612,
       49.2846285
      ],
      [
       -123.110752,
       49.284638
      ],
      [
       -123.1107136,
       49.2846271
      ],
      [
       -123.1106614,
       49.2846304
      ],
      [
       -123.1106216,
       49.2846526
      ],
      [
       -123.110608,
       49.2846748
      ],
      [
       -123.1106112,
       49.2847047
      ],
      [
       -123.1106549,
       49.2847377
      ],
      [
       -123.1107121,
       49.2847422
      ],
      [
       -123.110764,
       49.2847247
      ],
      [
       -123.1107736,
       49.2847294
      ],
      [
       -123.1107769,
       49.2847625
      ],
      [
       -123.1107178,
       49.2847753
      ],
      [
       -123.110572,
       49.284749
      ],
      [
       -123.1105524,
       49.2847286
      ],
      [
       -123.1105237,
       49.284724
      ],
      [
       -123.1104884,
       49.2847351
      ],
      [
       -123.110419,
       49.2847196
      ],
      [
       -123.1103946,
       49.2847008
      ],
      [
       -123.1103592,
       49.2847104
      ],
      [
       -123.1103234,
       49.2847042
      ],
      [
       -123.110318,
       49.2846805
      ],
      [
       -123.1103839,
       49.2846566
      ],
      [
       -123.1104045,
       49.2846282
      ],
      [
       -123.1103914,
       49.2845856
      ],
      [
       -123.1103503,
       49.2845637
      ],
      [
       -123.1102814,
       49.2845639
      ],
      [
       -123.1102369,
       49.2845893
      ],
      [
       -123.1102257,
       49.284613
      ],
      [
       -123.1102336,
       49.2846414
      ],
      [
       -123.1102845,
       49.2846743
      ],
      [
       -123.1102564,
       49.2846918
      ],
      [
       -123.1101776,
       49.2846795
      ],
      [
       -123.1101485,
       49.2846591
      ],
      [
       -123.110127,
       49.284656
      ],
      [
       -123.1100963,
       49.284664
      ],
      [
       -123.1099768,
       49.2846423
      ],
      [
       -123.1099548,
       49.2846235
      ],
      [
       -123.1099334,
       49.2846204
      ],
      [
       -123.109905,
       49.2846284
      ],
      [
       -123.1097736,
       49.2846052
      ],
      [
       -123.1097468,
       49.2845832
      ],
      [
       -123.109709,
       49.2845912
      ],
      [
       -123.1096396,
       49.2845789
      ],
      [
       -123.1096255,
       49.2845836
      ],
      [
       -123.1094982,
       49.2848744
      ],
      [
       -123.1094942,
       49.2849044
      ],
      [
       -123.1098672,
       49.284974
      ],
      [
       -123.1098889,
       49.2849834
      ],
      [
       -123.1098802,
       49.2850118
      ],
      [
       -123.1098877,
       49.2850244
      ],
      [
       -123.1102416,
       49.2850925
      ],
      [
       -123.1102656,
       49.2851019
      ],
      [
       -123.110252,
       49.2851256
      ],
      [
       -123.1099005,
       49.2850575
      ],
      [
       -123.1090209,
       49.2848193
      ],
      [
       -123.1087961,
       49.2847728
      ],
      [
       -123.1085046,
       49.2847249
      ],
      [
       -123.1084996,
       49.2847186
      ],
      [
       -123.1085136,
       49.2847091
      ],
      [
       -123.1085714,
       49.2845638
      ],
      [
       -123.1086019,
       49.284551
      ],
      [
       -123.1086039,
       49.2845353
      ],
      [
       -123.1085892,
       49.2845211
      ],
      [
       -123.1086516,
       49.2843742
      ],
      [
       -123.1086366,
       49.2843458
      ],
      [
       -123.1085892,
       49.2843539
      ],
      [
       -123.1085697,
       49.2843366
      ],
      [
       -123.1085506,
       49.2843335
      ],
      [
       -123.1085176,
       49.2843431
      ],
      [
       -123.1084793,
       49.2843338
      ],
      [
       -123.1084669,
       49.2843165
      ],
      [
       -123.1084147,
       49.284323
      ],
      [
       -123.1082665,
       49.2842967
      ],
      [
       -123.1082375,
       49.2842779
      ],
      [
       -123.1081925,
       49.2842859
      ],
      [
       -123.1081729,
       49.2842671
      ],
      [
       -123.1081088,
       49.2842704
      ],
      [
       -123.1078316,
       49.284221
      ],
      [
       -123.1078096,
       49.2842021
      ],
      [
       -123.1077622,
       49.2842086
      ],
      [
       -123.1076834,
       49.2841963
      ],
      [
       -123.1076567,
       49.2841758
      ],
      [
       -123.1076189,
       49.2841854
      ],
      [
       -123.1075877,
       49.2841777
      ],
      [
       -123.107561,
       49.2841573
      ],
      [
       -123.107542,
       49.2841573
      ],
      [
       -123.1075233,
       49.2841684
      ],
      [
       -123.1074492,
       49.2841545
      ],
      [
       -123.1074248,
       49.2841357
      ],
      [
       -123.1073846,
       49.2841437
      ],
      [
       -123.107301,
       49.2841298
      ],
      [
       -123.107277,
       49.2841204
      ],
      [
       -123.1072695,
       49.2841078
      ],
      [
       -123.1072504,
       49.2841047
      ],
      [
       -123.107203,
       49.2841128
      ],
      [
       -123.1071432,
       49.2841004
      ],
      [
       -123.1071309,
       49.2840846
      ],
      [
       -123.1070977,
       49.2840879
      ],
      [
       -123.1070807,
       49.2840754
      ],
      [
       -123.1069564,
       49.2840553
      ],
      [
       -123.1069281,
       49.2840633
      ],
      [
       -123.1068659,
       49.2840509
      ],
      [
       -123.1068465,
       49.2840352
      ],
      [
       -123.1068038,
       49.2840416
      ],
      [
       -123.1067345,
       49.2840293
      ],
      [
       -123.1067175,
       49.2840151
      ],
      [
       -123.1066819,
       49.28402
      ],
      [
       -123.106615,
       49.2840092
      ],
      [
       -123.1065525,
       49.2839826
      ],
      [
       -123.1065053,
       49.2839985
      ],
      [
       -123.1063698,
       49.2843366
      ],
      [
       -123.1065181,
       49.2843676
      ],
      [
       -123.1073354,
       49.2845083
      ],
      [
       -123.1073358,
       49.2845225
      ],
      [
       -123.1062557,
       49.2843386
      ],
      [
       -123.1057262,
       49.2842869
      ],
      [
       -123.1052411,
       49.2842034
      ],
      [
       -123.1052096,
       49.284183
      ],
      [
       -123.1052136,
       49.2841546
      ],
      [
       -123.1052253,
       49.2841482
      ],
      [
       -123.1060926,
       49.2842903
      ],
      [
       -123.1062399,
       49.2839459
      ],
      [
       -123.1060748,
       49.2839133
      ],
      [
       -123.1060576,
       49.2838929
      ],
      [
       -123.1060079,
       49.2839025
      ],
      [
       -123.1046648,
       49.2836707
      ],
      [
       -123.1046434,
       49.2836708
      ],
      [
       -123.1046228,
       49.2836992
      ],
      [
       -123.1044958,
       49.2840041
      ],
      [
       -123.1044819,
       49.2840152
      ],
      [
       -123.1044508,
       49.2840106
      ],
      [
       -123.1044344,
       49.2840185
      ],
      [
       -123.1044398,
       49.2840422
      ],
      [
       -123.1044641,
       49.284061
      ],
      [
       -123.1044214,
       49.2840643
      ],
      [
       -123.1044122,
       49.2840738
      ],
      [
       -123.1044167,
       49.2842363
      ],
      [
       -123.104405,
       49.2842427
      ],
      [
       -123.1042899,
       49.2842084
      ],
      [
       -123.1042758,
       49.2842131
      ],
      [
       -123.1042437,
       49.2842574
      ],
      [
       -123.1042513,
       49.2842732
      ],
      [
       -123.1044144,
       49.2843231
      ],
      [
       -123.1044128,
       49.2844335
      ],
      [
       -123.1044225,
       49.2844414
      ],
      [
       -123.104511,
       49.2844584
      ],
      [
       -123.1044758,
       49.2844743
      ],
      [
       -123.104482,
       49.2845263
      ],
      [
       -123.1062434,
       49.2850848
      ],
      [
       -123.1062604,
       49.2850974
      ],
      [
       -123.106337,
       49.2851144
      ],
      [
       -123.1068722,
       49.2852876
      ],
      [
       -123.1075196,
       49.285473
      ],
      [
       -123.1075506,
       49.2854745
      ],
      [
       -123.1075523,
       49.2854524
      ],
      [
       -123.1075641,
       49.2854476
      ],
      [
       -123.1119543,
       49.2867001
      ],
      [
       -123.1119925,
       49.2867047
      ],
      [
       -123.112018,
       49.2866825
      ],
      [
       -123.112019,
       49.2866352
      ],
      [
       -123.1119949,
       49.2866227
      ],
      [
       -123.1115254,
       49.2865045
      ],
      [
       -123.1104304,
       49.2861346
      ],
      [
       -123.1071958,
       49.2852076
      ],
      [
       -123.1070254,
       49.285153
      ],
      [
       -123.1070628,
       49.2851292
      ],
      [
       -123.1104101,
       49.2860905
      ],
      [
       -123.1114929,
       49.2864478
      ],
      [
       -123.1119507,
       49.2865724
      ],
      [
       -123.1119744,
       49.2865723
      ],
      [
       -123.1119787,
       49.2865565
      ],
      [
       -123.1118394,
       49.2865065
      ],
      [
       -123.1104473,
       49.2860588
      ],
      [
       -123.1077065,
       49.2852704
      ],
      [
       -123.1076606,
       49.2852438
      ],
      [
       -123.1076934,
       49.2852263
      ],
      [
       -123.1103334,
       49.2859866
      ],
      [
       -123.1107725,
       49.2861207
      ],
      [
       -123.1121694,
       49.2865716
      ],
      [
       -123.1121885,
       49.2865715
      ],
      [
       -123.1122795,
       49.2865112
      ],
      [
       -123.1122839,
       49.286497
      ],
      [
       -123.1122741,
       49.2864892
      ],
      [
       -123.1105158,
       49.2859592
      ],
      [
       -123.1099183,
       49.2857704
      ],
      [
       -123.1099418,
       49.2857625
      ],
      [
       -123.109973,
       49.2857734
      ],
      [
       -123.1100205,
       49.2857685
      ],
      [
       -123.1103829,
       49.2858839
      ],
      [
       -123.1121506,
       49.2864092
      ],
      [
       -123.1121766,
       49.2864028
      ],
      [
       -123.1121594,
       49.2863855
      ],
      [
       -123.1109237,
       49.2859183
      ],
      [
       -123.1109187,
       49.2859104
      ],
      [
       -123.1109516,
       49.2858929
      ],
      [
       -123.1109828,
       49.2859054
      ],
      [
       -123.1109905,
       49.2859243
      ],
      [
       -123.1110309,
       49.2859242
      ],
      [
       -123.1110765,
       49.2859366
      ],
      [
       -123.1123936,
       49.2864225
      ],
      [
       -123.1124126,
       49.2864224
      ],
      [
       -123.1124523,
       49.2863954
      ],
      [
       -123.1124519,
       49.2863828
      ],
      [
       -123.1121756,
       49.2862844
      ],
      [
       -123.1121707,
       49.2862782
      ],
      [
       -123.1122198,
       49.2862496
      ],
      [
       -123.112508,
       49.2863495
      ],
      [
       -123.1125456,
       49.2863336
      ],
      [
       -123.1125522,
       49.2863146
      ],
      [
       -123.1125853,
       49.2863066
      ]
     ]
    ]
   },
   "properties": {
    "sheet": "vancouver_1912_MAP342a_04",
    "block_id": "vancouver_1912_MAP342a_04:block:1",
    "block_number": "1",
    "block_number_inferred": false,
    "lot_numbers": [
     "1",
     "2",
     "3",
     "4",
     "5",
     "6",
     "7",
     "8",
     "9",
     "10",
     "11",
     "12",
     "66",
     "95",
     "210"
    ],
    "street_names": [
     "CAMBIE",
     "CORDOVA ST. WEST",
     "WATER ST."
    ],
    "area_source_px2": 2446454,
    "centroid_source_px": [
     2713,
     2574
    ],
    "n_enclosed": 78,
    "compactness": 0.043,
    "streets_through": [],
    "merged_across": null,
    "streets_1895": [
     {
      "label_1895": "CORDOVA ST. WEST",
      "modern": [
       "WEST CORDOVA ST"
      ],
      "side": "W",
      "distance_px": 43,
      "residual_m": 0.08
     },
     {
      "label_1895": "WATER ST.",
      "modern": [
       "WATER ST"
      ],
      "side": "SE",
      "distance_px": 47,
      "residual_m": 0.34
     },
     {
      "label_1895": "CAMBIE",
      "modern": [
       "CAMBIE ST"
      ],
      "side": "S",
      "distance_px": 107,
      "residual_m": 0.53
     }
    ],
    "streets_modern": [],
    "nearby_text": [
     "219,915)Water Line",
     "Alexander",
     "BRISBERRY BLACK",
     "BRON",
     "Budweiser",
     "Building",
     "Burward",
     "Company",
     "DAT.",
     "DISTRICT",
     "DISTRICT LOT 541",
     "FRI",
     "Freight Shed",
     "Grain Shed",
     "Grand",
     "Griffin Brooke",
     "Hotel",
     "Huckay Smi",
     "IBIE ST.",
     "McClary",
     "Mercoritise",
     "OFFICIAL",
     "OFTICAL",
     "OLD GRANVILLE TOWN",
     "Original Water Line",
     "Plan No 210",
     "Proposed",
     "REP.",
     "ST.WEST",
     "Station & Offices.",
     "Stimons Wharf",
     "Stinson's Wharf.",
     "inol",
     "n Pacific Railway"
    ],
    "centroid_map": [
     492102.172,
     5459151.424
    ],
    "is_block": false,
    "rejected_because": "thin strip (compactness 0.04) \u2014 a frame or border line, not a block"
   }
  },
  {
   "type": "Feature",
   "geometry": {
    "type": "Polygon",
    "coordinates": [
     [
      [
       -123.1096265,
       49.2863883
      ],
      [
       -123.1097477,
       49.2862175
      ],
      [
       -123.1097402,
       49.2862049
      ],
      [
       -123.1096228,
       49.2861722
      ],
      [
       -123.1095985,
       49.2861534
      ],
      [
       -123.108409,
       49.2858058
      ],
      [
       -123.1083829,
       49.2858091
      ],
      [
       -123.1082548,
       49.2859894
      ],
      [
       -123.1082623,
       49.2860036
      ],
      [
       -123.1096004,
       49.2863915
      ],
      [
       -123.1096265,
       49.2863883
      ]
     ]
    ]
   },
   "properties": {
    "sheet": "vancouver_1912_MAP342a_04",
    "block_id": "vancouver_1912_MAP342a_04:block:fid2",
    "block_number": null,
    "block_number_inferred": false,
    "lot_numbers": [],
    "street_names": [],
    "area_source_px2": 86821,
    "centroid_source_px": [
     2557,
     1917
    ],
    "n_enclosed": 1,
    "compactness": 0.478,
    "streets_through": [
     "WEST WATERFRONT RD"
    ],
    "merged_across": null,
    "streets_1895": [],
    "streets_modern": [],
    "nearby_text": [],
    "centroid_map": [
     492073.233,
     5459266.525
    ],
    "is_block": false,
    "rejected_because": "only 0 lot number(s) inside and no block numeral \u2014 a building outline or a fragment"
   }
  },
  {
   "type": "Feature",
   "geometry": {
    "type": "Polygon",
    "coordinates": [
     [
      [
       -123.1045479,
       49.2859411
      ],
      [
       -123.1046884,
       49.2858617
      ],
      [
       -123.1047232,
       49.2858301
      ],
      [
       -123.1047343,
       49.2857164
      ],
      [
       -123.1047174,
       49.2857086
      ],
      [
       -123.1046603,
       49.2857088
      ],
      [
       -123.1046506,
       49.285701
      ],
      [
       -123.1047292,
       49.2850302
      ],
      [
       -123.1047099,
       49.2850209
      ],
      [
       -123.1044599,
       49.2850107
      ],
      [
       -123.1044435,
       49.2850171
      ],
      [
       -123.1043912,
       49.2856956
      ],
      [
       -123.1043509,
       49.285702
      ],
      [
       -123.1043416,
       49.2857099
      ],
      [
       -123.1043371,
       49.285803
      ],
      [
       -123.1043947,
       49.2858202
      ],
      [
       -123.1045312,
       49.2859364
      ],
      [
       -123.1045479,
       49.2859411
      ]
     ]
    ]
   },
   "properties": {
    "sheet": "vancouver_1912_MAP342a_04",
    "block_id": "vancouver_1912_MAP342a_04:block:fid3",
    "block_number": null,
    "block_number_inferred": false,
    "lot_numbers": [],
    "street_names": [],
    "area_source_px2": 67964,
    "centroid_source_px": [
     4420,
     2326
    ],
    "n_enclosed": 0,
    "compactness": 0.432,
    "streets_through": [],
    "merged_across": null,
    "streets_1895": [],
    "streets_modern": [],
    "nearby_text": [
     "Union S.S.Cbs Wharf",
     "Union SS Cos Wharf."
    ],
    "centroid_map": [
     492396.653,
     5459196.109
    ],
    "is_block": false,
    "rejected_because": "only 0 lot number(s) inside and no block numeral \u2014 a building outline or a fragment"
   }
  },
  {
   "type": "Feature",
   "geometry": {
    "type": "Polygon",
    "coordinates": [
     [
      [
       -123.1067474,
       49.2853307
      ],
      [
       -123.1067595,
       49.2853401
      ],
      [
       -123.1067738,
       49.28534
      ],
      [
       -123.1067883,
       49.2853494
      ],
      [
       -123.1068002,
       49.2853494
      ],
      [
       -123.1068147,
       49.2853572
      ],
      [
       -123.1068694,
       49.285357
      ],
      [
       -123.106884,
       49.2853665
      ],
      [
       -123.1068982,
       49.2853664
      ],
      [
       -123.1069104,
       49.2853758
      ],
      [
       -123.1069247,
       49.2853758
      ],
      [
       -123.1069392,
       49.2853852
      ],
      [
       -123.1069654,
       49.2853851
      ],
      [
       -123.1069798,
       49.2853929
      ],
      [
       -123.1069941,
       49.2853929
      ],
      [
       -123.1070086,
       49.2854023
      ],
      [
       -123.1070205,
       49.2854022
      ],
      [
       -123.1070351,
       49.2854117
      ],
      [
       -123.1070636,
       49.2854116
      ],
      [
       -123.1070758,
       49.285421
      ],
      [
       -123.10709,
       49.2854209
      ],
      [
       -123.1071045,
       49.2854288
      ],
      [
       -123.1071188,
       49.2854287
      ],
      [
       -123.107131,
       49.2854381
      ],
      [
       -123.1071452,
       49.2854381
      ],
      [
       -123.1071598,
       49.2854475
      ],
      [
       -123.1071859,
       49.2854474
      ],
      [
       -123.1072004,
       49.2854568
      ],
      [
       -123.1072147,
       49.2854568
      ],
      [
       -123.1072268,
       49.2854646
      ],
      [
       -123.1072411,
       49.2854646
      ],
      [
       -123.1072556,
       49.285474
      ],
      [
       -123.1072818,
       49.2854739
      ],
      [
       -123.1072963,
       49.2854833
      ],
      [
       -123.1073106,
       49.2854832
      ],
      [
       -123.1073251,
       49.2854927
      ],
      [
       -123.107337,
       49.2854926
      ],
      [
       -123.1073515,
       49.2855004
      ],
      [
       -123.1073801,
       49.2855003
      ],
      [
       -123.1073922,
       49.2855098
      ],
      [
       -123.1074065,
       49.2855097
      ],
      [
       -123.107421,
       49.2855191
      ],
      [
       -123.1074353,
       49.2855191
      ],
      [
       -123.1074474,
       49.2855285
      ],
      [
       -123.1074617,
       49.2855284
      ],
      [
       -123.1074757,
       49.2855189
      ],
      [
       -123.1074754,
       49.2855095
      ],
      [
       -123.1074895,
       49.2855015
      ],
      [
       -123.1075157,
       49.2855014
      ],
      [
       -123.1075301,
       49.2855093
      ],
      [
       -123.1075706,
       49.2855091
      ],
      [
       -123.1075851,
       49.2855185
      ],
      [
       -123.1075994,
       49.2855185
      ],
      [
       -123.1076139,
       49.2855279
      ],
      [
       -123.1076258,
       49.2855279
      ],
      [
       -123.1076403,
       49.2855373
      ],
      [
       -123.1076546,
       49.2855372
      ],
      [
       -123.1076551,
       49.2855546
      ],
      [
       -123.1076411,
       49.2855641
      ],
      [
       -123.1076413,
       49.285572
      ],
      [
       -123.107668,
       49.2855908
      ],
      [
       -123.1076823,
       49.2855908
      ],
      [
       -123.1076968,
       49.2856002
      ],
      [
       -123.1077087,
       49.2856001
      ],
      [
       -123.1077232,
       49.285608
      ],
      [
       -123.1077375,
       49.2856079
      ],
      [
       -123.1077496,
       49.2856173
      ],
      [
       -123.1077639,
       49.2856173
      ],
      [
       -123.1077784,
       49.2856267
      ],
      [
       -123.1078046,
       49.2856266
      ],
      [
       -123.1078191,
       49.285636
      ],
      [
       -123.1078334,
       49.285636
      ],
      [
       -123.1078479,
       49.2856438
      ],
      [
       -123.1078598,
       49.2856438
      ],
      [
       -123.1078743,
       49.2856532
      ],
      [
       -123.1078886,
       49.2856531
      ],
      [
       -123.1079031,
       49.2856625
      ],
      [
       -123.107915,
       49.2856625
      ],
      [
       -123.1079295,
       49.2856719
      ],
      [
       -123.1079298,
       49.2856798
      ],
      [
       -123.1079158,
       49.2856893
      ],
      [
       -123.1078872,
       49.2856894
      ],
      [
       -123.1078751,
       49.28568
      ],
      [
       -123.1078608,
       49.28568
      ],
      [
       -123.1078463,
       49.2856722
      ],
      [
       -123.1078201,
       49.2856723
      ],
      [
       -123.1078056,
       49.2856629
      ],
      [
       -123.1077913,
       49.2856629
      ],
      [
       -123.1077792,
       49.2856535
      ],
      [
       -123.1077649,
       49.2856536
      ],
      [
       -123.1077504,
       49.2856441
      ],
      [
       -123.1077242,
       49.2856442
      ],
      [
       -123.1077097,
       49.2856364
      ],
      [
       -123.1076955,
       49.2856365
      ],
      [
       -123.1076809,
       49.285627
      ],
      [
       -123.107669,
       49.2856271
      ],
      [
       -123.1076545,
       49.2856177
      ],
      [
       -123.107626,
       49.2856178
      ],
      [
       -123.1076138,
       49.2856084
      ],
      [
       -123.1075995,
       49.2856084
      ],
      [
       -123.107585,
       49.2856006
      ],
      [
       -123.1075731,
       49.285599
      ],
      [
       -123.1075586,
       49.2855912
      ],
      [
       -123.1075301,
       49.2855913
      ],
      [
       -123.1075179,
       49.2855819
      ],
      [
       -123.1075036,
       49.2855819
      ],
      [
       -123.1074891,
       49.2855725
      ],
      [
       -123.1074748,
       49.2855726
      ],
      [
       -123.1074627,
       49.2855631
      ],
      [
       -123.1074484,
       49.2855632
      ],
      [
       -123.1074339,
       49.2855554
      ],
      [
       -123.1074078,
       49.2855555
      ],
      [
       -123.1073932,
       49.285546
      ],
      [
       -123.107379,
       49.2855461
      ],
      [
       -123.1073644,
       49.2855367
      ],
      [
       -123.1073525,
       49.2855367
      ],
      [
       -123.107338,
       49.2855273
      ],
      [
       -123.1073095,
       49.2855274
      ],
      [
       -123.1072974,
       49.2855196
      ],
      [
       -123.1072831,
       49.2855196
      ],
      [
       -123.1072685,
       49.2855102
      ],
      [
       -123.1072567,
       49.2855103
      ],
      [
       -123.1072421,
       49.2855008
      ],
      [
       -123.1072136,
       49.2855009
      ],
      [
       -123.1072014,
       49.2854915
      ],
      [
       -123.1071872,
       49.2854916
      ],
      [
       -123.1071727,
       49.2854837
      ],
      [
       -123.1071584,
       49.2854838
      ],
      [
       -123.1071462,
       49.2854744
      ],
      [
       -123.1071177,
       49.2854745
      ],
      [
       -123.1071032,
       49.2854651
      ],
      [
       -123.1070913,
       49.2854651
      ],
      [
       -123.1070767,
       49.2854557
      ],
      [
       -123.1070625,
       49.2854557
      ],
      [
       -123.107048,
       49.2854479
      ],
      [
       -123.1070361,
       49.2854479
      ],
      [
       -123.1070216,
       49.2854385
      ],
      [
       -123.1070073,
       49.2854386
      ],
      [
       -123.1069951,
       49.2854292
      ],
      [
       -123.1069666,
       49.2854293
      ],
      [
       -123.1069521,
       49.2854198
      ],
      [
       -123.1069402,
       49.2854199
      ],
      [
       -123.1069257,
       49.2854121
      ],
      [
       -123.1069114,
       49.2854121
      ],
      [
       -123.1068969,
       49.2854027
      ],
      [
       -123.106885,
       49.2854027
      ],
      [
       -123.1068704,
       49.2853933
      ],
      [
       -123.1068562,
       49.2853934
      ],
      [
       -123.1068416,
       49.285384
      ],
      [
       -123.1068298,
       49.285384
      ],
      [
       -123.1068153,
       49.2853762
      ],
      [
       -123.1067867,
       49.2853763
      ],
      [
       -123.1067746,
       49.2853668
      ],
      [
       -123.1067603,
       49.2853669
      ],
      [
       -123.1067458,
       49.2853575
      ],
      [
       -123.1067315,
       49.2853575
      ],
      [
       -123.1067193,
       49.2853481
      ],
      [
       -123.1067051,
       49.2853482
      ],
      [
       -123.1067046,
       49.2853308
      ],
      [
       -123.1067474,
       49.2853307
      ]
     ]
    ]
   },
   "properties": {
    "sheet": "vancouver_1912_MAP342a_04",
    "block_id": "vancouver_1912_MAP342a_04:block:fid4",
    "block_number": null,
    "block_number_inferred": false,
    "lot_numbers": [],
    "street_names": [
     "Raiway",
     "n Pacific Railway",
     "tway"
    ],
    "area_source_px2": 13531,
    "centroid_source_px": [
     3279,
     2243
    ],
    "n_enclosed": 1,
    "is_block": false,
    "rejected_because": "sliver (17% of the parent) left after cutting along ['WEST WATERFRONT RD'] \u2014 a street widened or realigned into the 1895 block"
   }
  },
  {
   "type": "Feature",
   "geometry": {
    "type": "Polygon",
    "coordinates": [
     [
      [
       -123.1066087,
       49.2854747
      ],
      [
       -123.1066233,
       49.2854841
      ],
      [
       -123.1066494,
       49.285484
      ],
      [
       -123.106664,
       49.2854934
      ],
      [
       -123.1066782,
       49.2854934
      ],
      [
       -123.1066927,
       49.2855012
      ],
      [
       -123.1067046,
       49.2855012
      ],
      [
       -123.1067192,
       49.2855106
      ],
      [
       -123.1067334,
       49.2855105
      ],
      [
       -123.1067456,
       49.28552
      ],
      [
       -123.1067599,
       49.2855199
      ],
      [
       -123.1067744,
       49.2855293
      ],
      [
       -123.1067887,
       49.2855293
      ],
      [
       -123.1068008,
       49.2855371
      ],
      [
       -123.1068293,
       49.285537
      ],
      [
       -123.1068438,
       49.2855464
      ],
      [
       -123.1068557,
       49.2855464
      ],
      [
       -123.1068703,
       49.2855558
      ],
      [
       -123.1068845,
       49.2855558
      ],
      [
       -123.1068991,
       49.2855652
      ],
      [
       -123.106911,
       49.2855651
      ],
      [
       -123.1069255,
       49.285573
      ],
      [
       -123.1069397,
       49.2855729
      ],
      [
       -123.1069543,
       49.2855823
      ],
      [
       -123.1069661,
       49.2855823
      ],
      [
       -123.1069807,
       49.2855917
      ],
      [
       -123.1070092,
       49.2855916
      ],
      [
       -123.1070214,
       49.285601
      ],
      [
       -123.1070356,
       49.285601
      ],
      [
       -123.1070501,
       49.2856088
      ],
      [
       -123.107062,
       49.2856088
      ],
      [
       -123.1070766,
       49.2856182
      ],
      [
       -123.1070908,
       49.2856181
      ],
      [
       -123.1071054,
       49.2856275
      ],
      [
       -123.1071315,
       49.2856274
      ],
      [
       -123.1071461,
       49.2856368
      ],
      [
       -123.1071603,
       49.2856368
      ],
      [
       -123.1071724,
       49.2856446
      ],
      [
       -123.1071867,
       49.2856446
      ],
      [
       -123.1072012,
       49.285654
      ],
      [
       -123.1072274,
       49.2856539
      ],
      [
       -123.1072419,
       49.2856633
      ],
      [
       -123.1072562,
       49.2856633
      ],
      [
       -123.1072707,
       49.2856727
      ],
      [
       -123.1072826,
       49.2856726
      ],
      [
       -123.1072971,
       49.2856805
      ],
      [
       -123.1073257,
       49.2856804
      ],
      [
       -123.1073378,
       49.2856898
      ],
      [
       -123.1073521,
       49.2856897
      ],
      [
       -123.1073666,
       49.2856992
      ],
      [
       -123.1073785,
       49.2856991
      ],
      [
       -123.1073931,
       49.2857085
      ],
      [
       -123.1074073,
       49.2857085
      ],
      [
       -123.1074218,
       49.2857163
      ],
      [
       -123.107448,
       49.2857162
      ],
      [
       -123.1074625,
       49.2857256
      ],
      [
       -123.1074768,
       49.2857256
      ],
      [
       -123.1074889,
       49.285735
      ],
      [
       -123.1075032,
       49.285735
      ],
      [
       -123.1075177,
       49.2857444
      ],
      [
       -123.1075439,
       49.2857443
      ],
      [
       -123.1075584,
       49.2857521
      ],
      [
       -123.1075727,
       49.2857521
      ],
      [
       -123.1075872,
       49.2857615
      ],
      [
       -123.1075991,
       49.2857614
      ],
      [
       -123.1076136,
       49.2857708
      ],
      [
       -123.1076422,
       49.2857707
      ],
      [
       -123.1076543,
       49.2857802
      ],
      [
       -123.1076686,
       49.2857801
      ],
      [
       -123.1076831,
       49.2857879
      ],
      [
       -123.107695,
       49.2857879
      ],
      [
       -123.1077095,
       49.2857973
      ],
      [
       -123.107738,
       49.2857972
      ],
      [
       -123.1077502,
       49.2858066
      ],
      [
       -123.1077645,
       49.2858066
      ],
      [
       -123.107779,
       49.285816
      ],
      [
       -123.1078052,
       49.2858159
      ],
      [
       -123.1078197,
       49.2858237
      ],
      [
       -123.1078339,
       49.2858237
      ],
      [
       -123.1078199,
       49.2858332
      ],
      [
       -123.1078202,
       49.2858427
      ],
      [
       -123.1078062,
       49.2858522
      ],
      [
       -123.1078064,
       49.2858601
      ],
      [
       -123.107766,
       49.2858602
      ],
      [
       -123.1077514,
       49.2858508
      ],
      [
       -123.1077372,
       49.2858508
      ],
      [
       -123.1077227,
       49.285843
      ],
      [
       -123.1077108,
       49.2858431
      ],
      [
       -123.1076963,
       49.2858336
      ],
      [
       -123.1076677,
       49.2858337
      ],
      [
       -123.1076556,
       49.2858243
      ],
      [
       -123.1076413,
       49.2858244
      ],
      [
       -123.1076268,
       49.285815
      ],
      [
       -123.1076125,
       49.285815
      ],
      [
       -123.1076004,
       49.2858072
      ],
      [
       -123.1075861,
       49.2858072
      ],
      [
       -123.1075716,
       49.2857978
      ],
      [
       -123.1075454,
       49.2857979
      ],
      [
       -123.1075309,
       49.2857885
      ],
      [
       -123.1075166,
       49.2857885
      ],
      [
       -123.1075044,
       49.2857791
      ],
      [
       -123.1074902,
       49.2857792
      ],
      [
       -123.1074757,
       49.2857713
      ],
      [
       -123.1074495,
       49.2857714
      ],
      [
       -123.107435,
       49.285762
      ],
      [
       -123.1074207,
       49.2857621
      ],
      [
       -123.1074062,
       49.2857527
      ],
      [
       -123.1073943,
       49.2857527
      ],
      [
       -123.1073798,
       49.2857433
      ],
      [
       -123.1073655,
       49.2857433
      ],
      [
       -123.1073534,
       49.2857355
      ],
      [
       -123.1073248,
       49.2857356
      ],
      [
       -123.1073103,
       49.2857262
      ],
      [
       -123.107296,
       49.2857262
      ],
      [
       -123.1072839,
       49.2857168
      ],
      [
       -123.1072696,
       49.2857169
      ],
      [
       -123.1072551,
       49.2857074
      ],
      [
       -123.1072289,
       49.2857075
      ],
      [
       -123.1072144,
       49.2856997
      ],
      [
       -123.1072002,
       49.2856998
      ],
      [
       -123.107188,
       49.2856903
      ],
      [
       -123.1071737,
       49.2856904
      ],
      [
       -123.1071592,
       49.285681
      ],
      [
       -123.1071449,
       49.285681
      ],
      [
       -123.1071328,
       49.2856716
      ],
      [
       -123.1071042,
       49.2856717
      ],
      [
       -123.1070897,
       49.2856639
      ],
      [
       -123.1070779,
       49.2856639
      ],
      [
       -123.1070633,
       49.2856545
      ],
      [
       -123.107049,
       49.2856545
      ],
      [
       -123.1070369,
       49.2856451
      ],
      [
       -123.1070084,
       49.2856452
      ],
      [
       -123.1069938,
       49.2856358
      ],
      [
       -123.1069795,
       49.2856359
      ],
      [
       -123.1069674,
       49.285628
      ],
      [
       -123.1069532,
       49.2856281
      ],
      [
       -123.1069386,
       49.2856187
      ],
      [
       -123.1069267,
       49.2856187
      ],
      [
       -123.1069122,
       49.2856093
      ],
      [
       -123.1068837,
       49.2856094
      ],
      [
       -123.1068715,
       49.2856
      ],
      [
       -123.1068572,
       49.2856
      ],
      [
       -123.1068428,
       49.2855922
      ],
      [
       -123.1068285,
       49.2855922
      ],
      [
       -123.1068163,
       49.2855828
      ],
      [
       -123.1067878,
       49.2855829
      ],
      [
       -123.1067733,
       49.2855735
      ],
      [
       -123.1067614,
       49.2855735
      ],
      [
       -123.1067468,
       49.2855641
      ],
      [
       -123.1067326,
       49.2855642
      ],
      [
       -123.1067204,
       49.2855563
      ],
      [
       -123.1067062,
       49.2855564
      ],
      [
       -123.1066916,
       49.285547
      ],
      [
       -123.1066631,
       49.2855471
      ],
      [
       -123.1066509,
       49.2855377
      ],
      [
       -123.1066367,
       49.2855377
      ],
      [
       -123.1066221,
       49.2855283
      ],
      [
       -123.1066103,
       49.2855283
      ],
      [
       -123.1065958,
       49.2855205
      ],
      [
       -123.1065815,
       49.2855206
      ],
      [
       -123.1065807,
       49.2854922
      ],
      [
       -123.1065947,
       49.2854842
      ],
      [
       -123.1065945,
       49.2854748
      ],
      [
       -123.1066087,
       49.2854747
      ]
     ]
    ]
   },
   "properties": {
    "sheet": "vancouver_1912_MAP342a_04",
    "block_id": "vancouver_1912_MAP342a_04:block:fid4",
    "block_number": null,
    "block_number_inferred": false,
    "lot_numbers": [],
    "street_names": [
     "Raiway",
     "n Pacific Railway",
     "tway"
    ],
    "area_source_px2": 15439,
    "centroid_source_px": [
     3279,
     2243
    ],
    "n_enclosed": 1,
    "is_block": false,
    "rejected_because": "sliver (19% of the parent) left after cutting along ['WEST WATERFRONT RD'] \u2014 a street widened or realigned into the 1895 block"
   }
  },
  {
   "type": "Feature",
   "geometry": {
    "type": "Polygon",
    "coordinates": [
     [
      [
       -123.1057685,
       49.2851133
      ],
      [
       -123.1058236,
       49.2850405
      ],
      [
       -123.1058159,
       49.2850232
      ],
      [
       -123.1055161,
       49.2849344
      ],
      [
       -123.1051104,
       49.2848002
      ],
      [
       -123.105082,
       49.284805
      ],
      [
       -123.1050387,
       49.284873
      ],
      [
       -123.1050192,
       49.2848557
      ],
      [
       -123.1050604,
       49.2847988
      ],
      [
       -123.1050529,
       49.284783
      ],
      [
       -123.1044122,
       49.2845818
      ],
      [
       -123.1043911,
       49.2845929
      ],
      [
       -123.1043545,
       49.2846451
      ],
      [
       -123.1043863,
       49.284675
      ],
      [
       -123.1043436,
       49.2847634
      ],
      [
       -123.1043535,
       49.2847776
      ],
      [
       -123.1044179,
       49.2847853
      ],
      [
       -123.1044631,
       49.2847015
      ],
      [
       -123.1044796,
       49.2846951
      ],
      [
       -123.104638,
       49.284745
      ],
      [
       -123.1046363,
       49.2847719
      ],
      [
       -123.1046533,
       49.2847829
      ],
      [
       -123.1046962,
       49.2847874
      ],
      [
       -123.1047172,
       49.2847716
      ],
      [
       -123.1047652,
       49.2847856
      ],
      [
       -123.1047726,
       49.284795
      ],
      [
       -123.1047544,
       49.2848251
      ],
      [
       -123.1047737,
       49.2848361
      ],
      [
       -123.1047975,
       49.284836
      ],
      [
       -123.1048299,
       49.2848059
      ],
      [
       -123.1048492,
       49.2848153
      ],
      [
       -123.104845,
       49.2848342
      ],
      [
       -123.1048547,
       49.2848421
      ],
      [
       -123.1048931,
       49.2848514
      ],
      [
       -123.1049235,
       49.2848355
      ],
      [
       -123.1049715,
       49.2848511
      ],
      [
       -123.1049722,
       49.2848748
      ],
      [
       -123.1050323,
       49.2848982
      ],
      [
       -123.1049985,
       49.284963
      ],
      [
       -123.1050061,
       49.2849804
      ],
      [
       -123.1051037,
       49.2849832
      ],
      [
       -123.1051851,
       49.2850034
      ],
      [
       -123.1052247,
       49.2849733
      ],
      [
       -123.1052752,
       49.284992
      ],
      [
       -123.1052665,
       49.2850236
      ],
      [
       -123.1053242,
       49.2850439
      ],
      [
       -123.1053456,
       49.2850438
      ],
      [
       -123.1053804,
       49.2850122
      ],
      [
       -123.1057474,
       49.2851228
      ],
      [
       -123.1057685,
       49.2851133
      ]
     ]
    ]
   },
   "properties": {
    "sheet": "vancouver_1912_MAP342a_04",
    "block_id": "vancouver_1912_MAP342a_04:block:fid7",
    "block_number": null,
    "block_number_inferred": false,
    "lot_numbers": [],
    "street_names": [],
    "area_source_px2": 49307,
    "centroid_source_px": [
     4187,
     2707
    ],
    "n_enclosed": 3,
    "compactness": 0.183,
    "streets_through": [],
    "merged_across": null,
    "streets_1895": [],
    "streets_modern": [],
    "nearby_text": [
     "Stimons Wharf",
     "Stinson's Wharf.",
     "Union S.S.Cbs Wharf",
     "Union SS Cos Wharf."
    ],
    "centroid_map": [
     492357.493,
     5459129.135
    ],
    "is_block": false,
    "rejected_because": "only 0 lot number(s) inside and no block numeral \u2014 a building outline or a fragment"
   }
  },
  {
   "type": "Feature",
   "geometry": {
    "type": "Polygon",
    "coordinates": [
     [
      [
       -123.1094128,
       49.2848826
      ],
      [
       -123.1095289,
       49.2846155
      ],
      [
       -123.1095473,
       49.2845934
      ],
      [
       -123.1095466,
       49.2845682
      ],
      [
       -123.1095296,
       49.2845572
      ],
      [
       -123.1095269,
       49.284543
      ],
      [
       -123.1095029,
       49.2845368
      ],
      [
       -123.1094628,
       49.2845495
      ],
      [
       -123.1093361,
       49.2845247
      ],
      [
       -123.1093189,
       49.2845043
      ],
      [
       -123.1092787,
       49.2845139
      ],
      [
       -123.1091998,
       49.2845
      ],
      [
       -123.1091802,
       49.284478
      ],
      [
       -123.109154,
       49.2844781
      ],
      [
       -123.1091352,
       49.2844876
      ],
      [
       -123.1090611,
       49.2844737
      ],
      [
       -123.1090296,
       49.2844533
      ],
      [
       -123.1089798,
       49.2844582
      ],
      [
       -123.1089249,
       49.2844505
      ],
      [
       -123.1088245,
       49.2846859
      ],
      [
       -123.1088163,
       49.2847301
      ],
      [
       -123.1091131,
       49.2848
      ],
      [
       -123.1093674,
       49.2848764
      ],
      [
       -123.1094128,
       49.2848826
      ]
     ]
    ]
   },
   "properties": {
    "sheet": "vancouver_1912_MAP342a_04",
    "block_id": "vancouver_1912_MAP342a_04:block:fid8",
    "block_number": null,
    "block_number_inferred": false,
    "lot_numbers": [],
    "street_names": [],
    "area_source_px2": 54054,
    "centroid_source_px": [
     2463,
     2832
    ],
    "n_enclosed": 6,
    "compactness": 0.73,
    "streets_through": [],
    "merged_across": null,
    "streets_1895": [],
    "streets_modern": [],
    "nearby_text": [
     "FRI",
     "Johnston Bros.",
     "Loray Post",
     "OLD GRANVILLE TOWN"
    ],
    "centroid_map": [
     492059.705,
     5459106.007
    ],
    "is_block": false,
    "rejected_because": "only 0 lot number(s) inside and no block numeral \u2014 a building outline or a fragment"
   }
  }
 ]
}