{
 "type": "FeatureCollection",
 "features": [
  {
   "type": "Feature",
   "properties": {
    "sheet": "01352_1889-0003",
    "source_image": "data/Sanborn_Hillsborough-County/1889/01352_1889-0003.png",
    "source_size_px": [
     6450,
     7650
    ],
    "epsg_fit": 32617,
    "rms_m": 63.73,
    "n_labels": 6,
    "scale_m_per_px": [
     0.05153,
     0.05153
    ],
    "rotation_deg": 20.73,
    "shear_deg": 0.0,
    "transform": "similarity",
    "what": "scan",
    "note": "outline of the whole scanned page incl. margins, colour bar and ruler"
   },
   "geometry": {
    "type": "Polygon",
    "coordinates": [
     [
      [
       -82.4611873,
       27.9476494
      ],
      [
       -82.4580427,
       27.9487445
      ],
      [
       -82.45658,
       27.9454325
      ],
      [
       -82.4597246,
       27.9443373
      ],
      [
       -82.4611873,
       27.9476494
      ]
     ]
    ]
   }
  },
  {
   "type": "Feature",
   "properties": {
    "sheet": "01352_1889-0003",
    "source_image": "data/Sanborn_Hillsborough-County/1889/01352_1889-0003.png",
    "source_size_px": [
     6450,
     7650
    ],
    "epsg_fit": 32617,
    "rms_m": 63.73,
    "n_labels": 6,
    "scale_m_per_px": [
     0.05153,
     0.05153
    ],
    "rotation_deg": 20.73,
    "shear_deg": 0.0,
    "transform": "similarity",
    "what": "content",
    "crop_source_px": [
     0,
     0,
     6450,
     7650
    ],
    "note": "the map content box that was tiled and OCR'd"
   },
   "geometry": {
    "type": "Polygon",
    "coordinates": [
     [
      [
       -82.4611873,
       27.9476494
      ],
      [
       -82.4580427,
       27.9487445
      ],
      [
       -82.45658,
       27.9454325
      ],
      [
       -82.4597246,
       27.9443373
      ],
      [
       -82.4611873,
       27.9476494
      ]
     ]
    ]
   }
  }
 ]
}