{
 "type": "FeatureCollection",
 "crs_note": "Coordinates are pixels on the source scan (origin top-left, y down). Not georeferenced: apply the sheet's GCP transform to get geographic coordinates.",
 "source_image": "data/Sanborn_Hillsborough-County/1889/01352_1889-0003.png",
 "source_size": {
  "w": 6450,
  "h": 7650
 },
 "from_run": "runs/hunyuan/Sanborn_Hillsborough-County/1889/0003",
 "params": {
  "bold_stroke_px": 9.0,
  "number_reach_px": 80.0,
  "seal_px": 3,
  "neck_px": 16,
  "open_max": 0.1,
  "seed_px": 20,
  "lot_max_frac": 0.05,
  "open_px": 10,
  "dark": 160,
  "min_area_frac": 0.0015,
  "max_area_frac": 0.2,
  "street_reach_work_px": 170.0
 },
 "street_seeds": "modern centrelines of the sheet's georeference",
 "white_space": {
  "white_regions": 1298,
  "street_regions": 1,
  "after_necks": 2763,
  "enclosed": 1957,
  "street": 806,
  "seeds_border_or_oversize": 30,
  "seeds_centreline": 49,
  "spread": 727,
  "recovered": 71,
  "recovered_area_frac": 0.0148
 },
 "frontage_lines_added": [],
 "manual_close_lines": [],
 "generated_utc": "2026-09-18T16:03:31.838276+00:00",
 "features": [
  {
   "type": "Feature",
   "id": 0,
   "geometry": {
    "type": "Polygon",
    "coordinates": [
     [
      [
       5287,
       336
      ],
      [
       5304,
       385
      ],
      [
       5358,
       435
      ],
      [
       5478,
       465
      ],
      [
       5618,
       476
      ],
      [
       5754,
       461
      ],
      [
       5883,
       426
      ],
      [
       5935,
       381
      ],
      [
       5956,
       318
      ],
      [
       5954,
       280
      ],
      [
       5939,
       243
      ],
      [
       5889,
       196
      ],
      [
       5751,
       159
      ],
      [
       5575,
       155
      ],
      [
       5398,
       196
      ],
      [
       5314,
       245
      ],
      [
       5293,
       271
      ],
      [
       5287,
       336
      ]
     ]
    ]
   },
   "properties": {
    "sheet": "01352_1889-0003",
    "block_id": "01352_1889-0003:block:fid0",
    "block_number": null,
    "block_number_inferred": false,
    "lot_numbers": [],
    "streets": [
     {
      "name": "Tobac.",
      "distance_px": 168,
      "bearing_deg": 193,
      "side": "S",
      "label_bbox_source": [
       5458,
       766,
       5570,
       799
      ],
      "rotation_view": 0
     }
    ],
    "street_names": [
     "Tobac."
    ],
    "area_source_px2": 173078,
    "centroid_source_px": [
     5623,
     315
    ],
    "n_outlines": 1
   }
  },
  {
   "type": "Feature",
   "id": 1,
   "geometry": {
    "type": "Polygon",
    "coordinates": [
     [
      [
       5581,
       734
      ],
      [
       5401,
       734
      ],
      [
       5381,
       706
      ],
      [
       5364,
       704
      ],
      [
       5334,
       736
      ],
      [
       4933,
       741
      ],
      [
       4925,
       719
      ],
      [
       4914,
       713
      ],
      [
       4888,
       743
      ],
      [
       4580,
       747
      ],
      [
       4559,
       721
      ],
      [
       4537,
       749
      ],
      [
       4425,
       747
      ],
      [
       4385,
       755
      ],
      [
       4389,
       1253
      ],
      [
       4363,
       1272
      ],
      [
       4361,
       1311
      ],
      [
       4391,
       1335
      ],
      [
       4393,
       1642
      ],
      [
       4368,
       1651
      ],
      [
       4365,
       1675
      ],
      [
       4395,
       1701
      ],
      [
       4400,
       1985
      ],
      [
       4527,
       1985
      ],
      [
       4540,
       2011
      ],
      [
       4570,
       2015
      ],
      [
       4594,
       1983
      ],
      [
       4736,
       1987
      ],
      [
       4751,
       1980
      ],
      [
       4809,
       1980
      ],
      [
       4824,
       2002
      ],
      [
       4847,
       2006
      ],
      [
       4875,
       1978
      ],
      [
       4949,
       1976
      ],
      [
       4959,
       1995
      ],
      [
       4972,
       2000
      ],
      [
       4998,
       1997
      ],
      [
       5017,
       1974
      ],
      [
       5222,
       1970
      ],
      [
       5237,
       1978
      ],
      [
       5252,
       1970
      ],
      [
       5597,
       1957
      ],
      [
       5599,
       1920
      ],
      [
       5618,
       1907
      ],
      [
       5614,
       1873
      ],
      [
       5597,
       1856
      ],
      [
       5597,
       1763
      ],
      [
       5620,
       1754
      ],
      [
       5622,
       1724
      ],
      [
       5596,
       1701
      ],
      [
       5596,
       1629
      ],
      [
       5616,
       1617
      ],
      [
       5622,
       1580
      ],
      [
       5596,
       1561
      ],
      [
       5596,
       1455
      ],
      [
       5622,
       1446
      ],
      [
       5625,
       1419
      ],
      [
       5620,
       1395
      ],
      [
       5594,
       1380
      ],
      [
       5592,
       1179
      ],
      [
       5618,
       1167
      ],
      [
       5622,
       1147
      ],
      [
       5618,
       1132
      ],
      [
       5592,
       1113
      ],
      [
       5586,
       820
      ],
      [
       5614,
       809
      ],
      [
       5618,
       786
      ],
      [
       5614,
       769
      ],
      [
       5586,
       753
      ],
      [
       5581,
       734
      ]
     ]
    ]
   },
   "properties": {
    "sheet": "01352_1889-0003",
    "block_id": "01352_1889-0003:block:3",
    "block_number": "3",
    "block_number_inferred": false,
    "lot_numbers": [
     "1",
     "2",
     "7",
     "18",
     "19",
     "2\u00bd",
     "106",
     "321",
     "418",
     "419",
     "420",
     "421",
     "477",
     "321\u00bd"
    ],
    "streets": [],
    "street_names": [],
    "area_source_px2": 1499937,
    "centroid_source_px": [
     4993,
     1359
    ],
    "n_outlines": 13
   }
  },
  {
   "type": "Feature",
   "id": 2,
   "geometry": {
    "type": "Polygon",
    "coordinates": [
     [
      [
       3920,
       758
      ],
      [
       3578,
       756
      ],
      [
       3558,
       734
      ],
      [
       3536,
       756
      ],
      [
       3308,
       760
      ],
      [
       3287,
       736
      ],
      [
       3265,
       760
      ],
      [
       2701,
       768
      ],
      [
       2686,
       740
      ],
      [
       2671,
       740
      ],
      [
       2665,
       768
      ],
      [
       2699,
       775
      ],
      [
       2699,
       1332
      ],
      [
       2689,
       1347
      ],
      [
       2673,
       1339
      ],
      [
       2660,
       1348
      ],
      [
       2669,
       1989
      ],
      [
       2835,
       1993
      ],
      [
       2843,
       2015
      ],
      [
       2854,
       2021
      ],
      [
       2878,
       2019
      ],
      [
       2899,
       1993
      ],
      [
       3166,
       1991
      ],
      [
       3179,
       2015
      ],
      [
       3205,
       2021
      ],
      [
       3216,
       2015
      ],
      [
       3227,
       1989
      ],
      [
       3530,
       1989
      ],
      [
       3543,
       2013
      ],
      [
       3569,
       2015
      ],
      [
       3595,
       1989
      ],
      [
       3926,
       1985
      ],
      [
       3931,
       1899
      ],
      [
       3950,
       1894
      ],
      [
       3958,
       1881
      ],
      [
       3958,
       1847
      ],
      [
       3930,
       1823
      ],
      [
       3930,
       1698
      ],
      [
       3946,
       1692
      ],
      [
       3958,
       1673
      ],
      [
       3958,
       1640
      ],
      [
       3950,
       1614
      ],
      [
       3933,
       1606
      ],
      [
       3928,
       1593
      ],
      [
       3928,
       1393
      ],
      [
       3950,
       1384
      ],
      [
       3958,
       1339
      ],
      [
       3928,
       1319
      ],
      [
       3924,
       1010
      ],
      [
       3945,
       1001
      ],
      [
       3952,
       966
      ],
      [
       3924,
       949
      ],
      [
       3920,
       758
      ]
     ]
    ]
   },
   "properties": {
    "sheet": "01352_1889-0003",
    "block_id": "01352_1889-0003:block:2",
    "block_number": "2",
    "block_number_inferred": false,
    "lot_numbers": [
     "0",
     "1",
     "2",
     "10",
     "30",
     "102",
     "103",
     "104",
     "308",
     "309"
    ],
    "streets": [
     {
      "name": "LAFAYETTE",
      "distance_px": 111,
      "bearing_deg": 166,
      "side": "S",
      "label_bbox_source": [
       3220,
       2177,
       3799,
       2259
      ],
      "rotation_view": 0
     },
     {
      "name": "MADISON",
      "distance_px": 129,
      "bearing_deg": 17,
      "side": "N",
      "label_bbox_source": [
       3329,
       450,
       3812,
       538
      ],
      "rotation_view": 0
     }
    ],
    "street_names": [
     "LAFAYETTE",
     "MADISON"
    ],
    "area_source_px2": 1543817,
    "centroid_source_px": [
     3306,
     1381
    ],
    "n_outlines": 6
   }
  },
  {
   "type": "Feature",
   "id": 3,
   "geometry": {
    "type": "Polygon",
    "coordinates": [
     [
      [
       1976,
       831
      ],
      [
       1959,
       850
      ],
      [
       1937,
       850
      ],
      [
       1931,
       857
      ],
      [
       1935,
       1873
      ],
      [
       1950,
       1886
      ],
      [
       2196,
       1890
      ],
      [
       2211,
       1879
      ],
      [
       2213,
       1199
      ],
      [
       2228,
       1182
      ],
      [
       2247,
       1190
      ],
      [
       2260,
       1180
      ],
      [
       2247,
       1164
      ],
      [
       2223,
       1179
      ],
      [
       2215,
       1173
      ],
      [
       2215,
       842
      ],
      [
       2202,
       833
      ],
      [
       1976,
       831
      ]
     ]
    ]
   },
   "properties": {
    "sheet": "01352_1889-0003",
    "block_id": "01352_1889-0003:block:fid3",
    "block_number": null,
    "block_number_inferred": false,
    "lot_numbers": [
     "1"
    ],
    "streets": [
     {
      "name": "PLATFORM.",
      "distance_px": 130,
      "bearing_deg": 1,
      "side": "N",
      "label_bbox_source": [
       2057,
       426,
       2105,
       750
      ],
      "rotation_view": 0
     }
    ],
    "street_names": [
     "PLATFORM."
    ],
    "area_source_px2": 295682,
    "centroid_source_px": [
     2074,
     1358
    ],
    "n_outlines": 3
   }
  },
  {
   "type": "Feature",
   "id": 4,
   "geometry": {
    "type": "Polygon",
    "coordinates": [
     [
      [
       5820,
       2109
      ],
      [
       5790,
       2118
      ],
      [
       5736,
       2176
      ],
      [
       5627,
       2241
      ],
      [
       5540,
       2271
      ],
      [
       5439,
       2290
      ],
      [
       5274,
       2299
      ],
      [
       4428,
       2308
      ],
      [
       4411,
       2282
      ],
      [
       4389,
       2275
      ],
      [
       4376,
       2280
      ],
      [
       4363,
       2322
      ],
      [
       4378,
       2329
      ],
      [
       4415,
       2325
      ],
      [
       4425,
       2333
      ],
      [
       4425,
       2379
      ],
      [
       4400,
       2389
      ],
      [
       4389,
       2409
      ],
      [
       4400,
       2430
      ],
      [
       4400,
       2452
      ],
      [
       4391,
       2463
      ],
      [
       4393,
       2562
      ],
      [
       4367,
       2581
      ],
      [
       4367,
       2630
      ],
      [
       4395,
       2650
      ],
      [
       4395,
       2729
      ],
      [
       4406,
       2740
      ],
      [
       4410,
       2910
      ],
      [
       4387,
       2919
      ],
      [
       4382,
       2951
      ],
      [
       4411,
       2975
      ],
      [
       4415,
       3216
      ],
      [
       4391,
       3225
      ],
      [
       4387,
       3257
      ],
      [
       4415,
       3283
      ],
      [
       4419,
       3550
      ],
      [
       4397,
       3560
      ],
      [
       4393,
       3588
      ],
      [
       4419,
       3612
      ],
      [
       4426,
       3666
      ],
      [
       4837,
       3663
      ],
      [
       4858,
       3676
      ],
      [
       4877,
       3663
      ],
      [
       5063,
       3661
      ],
      [
       5089,
       3687
      ],
      [
       5114,
       3659
      ],
      [
       5254,
       3657
      ],
      [
       5295,
       3664
      ],
      [
       5618,
       3657
      ],
      [
       5631,
       3649
      ],
      [
       5642,
       3610
      ],
      [
       5668,
       3597
      ],
      [
       5655,
       3577
      ],
      [
       5655,
       3558
      ],
      [
       5642,
       3549
      ],
      [
       5640,
       3494
      ],
      [
       5665,
       3485
      ],
      [
       5667,
       3455
      ],
      [
       5640,
       3437
      ],
      [
       5653,
       3405
      ],
      [
       5639,
       3388
      ],
      [
       5639,
       3373
      ],
      [
       5667,
       3360
      ],
      [
       5667,
       3330
      ],
      [
       5639,
       3310
      ],
      [
       5637,
       3274
      ],
      [
       5661,
       3263
      ],
      [
       5667,
       3237
      ],
      [
       5637,
       3218
      ],
      [
       5637,
       3197
      ],
      [
       5663,
       3179
      ],
      [
       5652,
       3160
      ],
      [
       5659,
       3147
      ],
      [
       5657,
       3117
      ],
      [
       5633,
       3097
      ],
      [
       5631,
       3056
      ],
      [
       5633,
       3041
      ],
      [
       5652,
       3035
      ],
      [
       5659,
       3018
      ],
      [
       5657,
       3005
      ],
      [
       5633,
       2988
      ],
      [
       5633,
       2970
      ],
      [
       5659,
       2951
      ],
      [
       5661,
       2891
      ],
      [
       5644,
       2740
      ],
      [
       5655,
       2708
      ],
      [
       5627,
       2693
      ],
      [
       5627,
       2661
      ],
      [
       5644,
       2652
      ],
      [
       5650,
       2620
      ],
      [
       5633,
       2605
      ],
      [
       5624,
       2570
      ],
      [
       5624,
       2534
      ],
      [
       5644,
       2525
      ],
      [
       5650,
       2495
      ],
      [
       5624,
       2475
      ],
      [
       5622,
       2441
      ],
      [
       5680,
       2409
      ],
      [
       5696,
       2434
      ],
      [
       5721,
       2434
      ],
      [
       5730,
       2422
      ],
      [
       5723,
       2392
      ],
      [
       5762,
       2385
      ],
      [
       5786,
       2353
      ],
      [
       5797,
       2327
      ],
      [
       5795,
       2286
      ],
      [
       5788,
       2277
      ],
      [
       5795,
       2204
      ],
      [
       5786,
       2176
      ],
      [
       5797,
       2150
      ],
      [
       5823,
       2131
      ],
      [
       5820,
       2109
      ]
     ]
    ]
   },
   "properties": {
    "sheet": "01352_1889-0003",
    "block_id": "01352_1889-0003:block:4",
    "block_number": "4",
    "block_number_inferred": false,
    "lot_numbers": [
     "0",
     "1",
     "2",
     "3",
     "4",
     "7",
     "8",
     "12",
     "19",
     "30",
     "108",
     "112",
     "113",
     "116",
     "117",
     "118",
     "119",
     "317",
     "319",
     "411"
    ],
    "streets": [
     {
      "name": "FRANK",
      "distance_px": 111,
      "bearing_deg": 114,
      "side": "SE",
      "label_bbox_source": [
       5829,
       3108,
       5917,
       3545
      ],
      "rotation_view": 0
     },
     {
      "name": "TAMPA STEAM STREET RY.",
      "distance_px": 112,
      "bearing_deg": 307,
      "side": "NW",
      "label_bbox_source": [
       3881,
       2273,
       4430,
       2305
      ],
      "rotation_view": 0
     },
     {
      "name": "TAMPA",
      "distance_px": 133,
      "bearing_deg": 246,
      "side": "SW",
      "label_bbox_source": [
       4115,
       3154,
       4199,
       3544
      ],
      "rotation_view": 0
     },
     {
      "name": "Creek.",
      "distance_px": 144,
      "bearing_deg": 186,
      "side": "S",
      "label_bbox_source": [
       4848,
       3904,
       5033,
       3957
      ],
      "rotation_view": 0
     }
    ],
    "street_names": [
     "FRANK",
     "TAMPA STEAM STREET RY.",
     "TAMPA",
     "Creek."
    ],
    "area_source_px2": 1730783,
    "centroid_source_px": [
     5041,
     2964
    ],
    "n_outlines": 14
   }
  },
  {
   "type": "Feature",
   "id": 5,
   "geometry": {
    "type": "Polygon",
    "coordinates": [
     [
      [
       1929,
       2942
      ],
      [
       1931,
       2699
      ],
      [
       1922,
       2544
      ],
      [
       1709,
       2540
      ],
      [
       1683,
       2533
      ],
      [
       1703,
       2521
      ],
      [
       1886,
       2505
      ],
      [
       1892,
       2488
      ],
      [
       1883,
       2421
      ],
      [
       1898,
       2400
      ],
      [
       1892,
       2385
      ],
      [
       1673,
       2406
      ],
      [
       1664,
       2383
      ],
      [
       1645,
       2378
      ],
      [
       1490,
       2398
      ],
      [
       1339,
       2471
      ],
      [
       891,
       2477
      ],
      [
       878,
       2486
      ],
      [
       874,
       2546
      ],
      [
       807,
       2546
      ],
      [
       794,
       2555
      ],
      [
       1025,
       2983
      ],
      [
       1416,
       2985
      ],
      [
       1427,
       2979
      ],
      [
       1436,
       2949
      ],
      [
       1909,
       2953
      ],
      [
       1929,
       2942
      ]
     ]
    ]
   },
   "properties": {
    "sheet": "01352_1889-0003",
    "block_id": "01352_1889-0003:block:fid5",
    "block_number": null,
    "block_number_inferred": false,
    "lot_numbers": [
     "2\u00bd"
    ],
    "streets": [],
    "street_names": [],
    "area_source_px2": 536843,
    "centroid_source_px": [
     1417,
     2696
    ],
    "n_outlines": 2
   }
  },
  {
   "type": "Feature",
   "id": 6,
   "geometry": {
    "type": "Polygon",
    "coordinates": [
     [
      [
       2695,
       2462
      ],
      [
       2740,
       2828
      ],
      [
       2721,
       2844
      ],
      [
       2716,
       2869
      ],
      [
       2723,
       2891
      ],
      [
       2751,
       2914
      ],
      [
       2807,
       3377
      ],
      [
       2788,
       3390
      ],
      [
       2790,
       3427
      ],
      [
       2818,
       3450
      ],
      [
       2844,
       3668
      ],
      [
       2852,
       3677
      ],
      [
       3028,
       3679
      ],
      [
       3048,
       3698
      ],
      [
       3095,
       3677
      ],
      [
       3349,
       3679
      ],
      [
       3366,
       3702
      ],
      [
       3403,
       3676
      ],
      [
       3754,
       3674
      ],
      [
       3786,
       3689
      ],
      [
       3806,
       3674
      ],
      [
       3948,
       3668
      ],
      [
       3946,
       3250
      ],
      [
       3971,
       3237
      ],
      [
       3973,
       3196
      ],
      [
       3945,
       3175
      ],
      [
       3933,
       2576
      ],
      [
       3956,
       2570
      ],
      [
       3961,
       2548
      ],
      [
       3956,
       2519
      ],
      [
       3933,
       2505
      ],
      [
       3933,
       2458
      ],
      [
       3926,
       2447
      ],
      [
       3494,
       2450
      ],
      [
       3474,
       2428
      ],
      [
       3451,
       2450
      ],
      [
       3390,
       2450
      ],
      [
       3380,
       2430
      ],
      [
       3366,
       2424
      ],
      [
       3352,
       2428
      ],
      [
       3341,
       2449
      ],
      [
       2943,
       2454
      ],
      [
       2936,
       2430
      ],
      [
       2915,
       2422
      ],
      [
       2895,
       2434
      ],
      [
       2886,
       2454
      ],
      [
       2695,
       2462
      ]
     ]
    ]
   },
   "properties": {
    "sheet": "01352_1889-0003",
    "block_id": "01352_1889-0003:block:5",
    "block_number": "5",
    "block_number_inferred": false,
    "lot_numbers": [
     "0",
     "1",
     "2",
     "15",
     "109",
     "110",
     "219",
     "220",
     "307"
    ],
    "streets": [
     {
      "name": "JACKSON",
      "distance_px": 82,
      "bearing_deg": 166,
      "side": "S",
      "label_bbox_source": [
       3324,
       3785,
       3783,
       3871
      ],
      "rotation_view": 0
     },
     {
      "name": "ASHLEY",
      "distance_px": 87,
      "bearing_deg": 271,
      "side": "W",
      "label_bbox_source": [
       2537,
       2833,
       2669,
       3239
      ],
      "rotation_view": 0
     },
     {
      "name": "TAMPA",
      "distance_px": 112,
      "bearing_deg": 110,
      "side": "E",
      "label_bbox_source": [
       4115,
       3154,
       4199,
       3544
      ],
      "rotation_view": 0
     },
     {
      "name": "LAFAYETTE",
      "distance_px": 114,
      "bearing_deg": 11,
      "side": "N",
      "label_bbox_source": [
       3220,
       2177,
       3799,
       2259
      ],
      "rotation_view": 0
     },
     {
      "name": "TAMPA STEAM STREET RY.",
      "distance_px": 149,
      "bearing_deg": 46,
      "side": "NE",
      "label_bbox_source": [
       3881,
       2273,
       4430,
       2305
      ],
      "rotation_view": 0
     }
    ],
    "street_names": [
     "JACKSON",
     "ASHLEY",
     "TAMPA",
     "LAFAYETTE",
     "TAMPA STEAM STREET RY."
    ],
    "area_source_px2": 1445889,
    "centroid_source_px": [
     3355,
     3051
    ],
    "n_outlines": 2
   }
  },
  {
   "type": "Feature",
   "id": 7,
   "geometry": {
    "type": "Polygon",
    "coordinates": [
     [
      [
       2318,
       3586
      ],
      [
       2299,
       3577
      ],
      [
       1886,
       3610
      ],
      [
       1860,
       3599
      ],
      [
       1515,
       3627
      ],
      [
       1509,
       3644
      ],
      [
       1531,
       3945
      ],
      [
       1550,
       3954
      ],
      [
       1593,
       3937
      ],
      [
       1769,
       3902
      ],
      [
       1776,
       3892
      ],
      [
       1771,
       3825
      ],
      [
       1778,
       3819
      ],
      [
       2322,
       3780
      ],
      [
       2325,
       3711
      ],
      [
       2338,
       3702
      ],
      [
       2348,
       3668
      ],
      [
       2320,
       3648
      ],
      [
       2318,
       3586
      ]
     ]
    ]
   },
   "properties": {
    "sheet": "01352_1889-0003",
    "block_id": "01352_1889-0003:block:fid7",
    "block_number": null,
    "block_number_inferred": false,
    "lot_numbers": [
     "2",
     "213"
    ],
    "streets": [
     {
      "name": "Gen't Storage.",
      "distance_px": 130,
      "bearing_deg": 124,
      "side": "SE",
      "label_bbox_source": [
       2169,
       3997,
       2472,
       4052
      ],
      "rotation_view": 0
     }
    ],
    "street_names": [
     "Gen't Storage."
    ],
    "area_source_px2": 192115,
    "centroid_source_px": [
     1883,
     3727
    ],
    "n_outlines": 1
   }
  },
  {
   "type": "Feature",
   "id": 8,
   "geometry": {
    "type": "Polygon",
    "coordinates": [
     [
      [
       3950,
       3902
      ],
      [
       3930,
       3890
      ],
      [
       3786,
       3879
      ],
      [
       3560,
       3877
      ],
      [
       3552,
       3868
      ],
      [
       3564,
       3847
      ],
      [
       3552,
       3816
      ],
      [
       3487,
       3791
      ],
      [
       3463,
       3793
      ],
      [
       3440,
       3834
      ],
      [
       3420,
       3803
      ],
      [
       3405,
       3803
      ],
      [
       3379,
       3875
      ],
      [
       3347,
       3859
      ],
      [
       3326,
       3874
      ],
      [
       3162,
       3868
      ],
      [
       3018,
       3879
      ],
      [
       2968,
       3872
      ],
      [
       2902,
       3881
      ],
      [
       2889,
       3890
      ],
      [
       2901,
       3958
      ],
      [
       2914,
       3967
      ],
      [
       3134,
       3956
      ],
      [
       3700,
       3956
      ],
      [
       3937,
       3965
      ],
      [
       3950,
       3956
      ],
      [
       3950,
       3902
      ]
     ]
    ]
   },
   "properties": {
    "sheet": "01352_1889-0003",
    "block_id": "01352_1889-0003:block:fid8",
    "block_number": null,
    "block_number_inferred": false,
    "lot_numbers": [],
    "streets": [
     {
      "name": "WOODEN BRIDGE.",
      "distance_px": 114,
      "bearing_deg": 93,
      "side": "E",
      "label_bbox_source": [
       3973,
       3920,
       4353,
       3963
      ],
      "rotation_view": 0
     }
    ],
    "street_names": [
     "WOODEN BRIDGE."
    ],
    "area_source_px2": 97855,
    "centroid_source_px": [
     3416,
     3908
    ],
    "n_outlines": 1
   }
  },
  {
   "type": "Feature",
   "id": 9,
   "geometry": {
    "type": "Polygon",
    "coordinates": [
     [
      [
       5642,
       3859
      ],
      [
       5629,
       3849
      ],
      [
       5523,
       3862
      ],
      [
       5465,
       3859
      ],
      [
       4707,
       3896
      ],
      [
       4594,
       3892
      ],
      [
       4434,
       3870
      ],
      [
       4419,
       3881
      ],
      [
       4419,
       3984
      ],
      [
       4434,
       3993
      ],
      [
       4538,
       3969
      ],
      [
       4647,
       3991
      ],
      [
       4738,
       3999
      ],
      [
       4815,
       3993
      ],
      [
       4966,
       3965
      ],
      [
       5121,
       3974
      ],
      [
       5269,
       3961
      ],
      [
       5418,
       3969
      ],
      [
       5554,
       3952
      ],
      [
       5633,
       3989
      ],
      [
       5646,
       3980
      ],
      [
       5642,
       3859
      ]
     ]
    ]
   },
   "properties": {
    "sheet": "01352_1889-0003",
    "block_id": "01352_1889-0003:block:fid9",
    "block_number": null,
    "block_number_inferred": false,
    "lot_numbers": [],
    "streets": [
     {
      "name": "WOODEN BRIDGE.",
      "distance_px": 117,
      "bearing_deg": 90,
      "side": "E",
      "label_bbox_source": [
       5660,
       3890,
       6066,
       3947
      ],
      "rotation_view": 0
     },
     {
      "name": "Paint",
      "distance_px": 128,
      "bearing_deg": 202,
      "side": "S",
      "label_bbox_source": [
       4904,
       4152,
       4941,
       4281
      ],
      "rotation_view": 0
     },
     {
      "name": "Storge",
      "distance_px": 129,
      "bearing_deg": 211,
      "side": "SW",
      "label_bbox_source": [
       4832,
       4176,
       4878,
       4284
      ],
      "rotation_view": 0
     },
     {
      "name": "STREET",
      "distance_px": 134,
      "bearing_deg": 102,
      "side": "E",
      "label_bbox_source": [
       5847,
       4043,
       5880,
       4169
      ],
      "rotation_view": 0
     },
     {
      "name": "HAND POWER.",
      "distance_px": 142,
      "bearing_deg": 301,
      "side": "NW",
      "label_bbox_source": [
       4435,
       3603,
       4634,
       3631
      ],
      "rotation_view": 0
     },
     {
      "name": "Oils",
      "distance_px": 143,
      "bearing_deg": 194,
      "side": "S",
      "label_bbox_source": [
       4947,
       4198,
       4979,
       4277
      ],
      "rotation_view": 0
     },
     {
      "name": "BEING",
      "distance_px": 151,
      "bearing_deg": 49,
      "side": "NE",
      "label_bbox_source": [
       5419,
       3509,
       5467,
       3646
      ],
      "rotation_view": 0
     }
    ],
    "street_names": [
     "WOODEN BRIDGE.",
     "Paint",
     "Storge",
     "STREET",
     "HAND POWER.",
     "Oils",
     "BEING"
    ],
    "area_source_px2": 120703,
    "centroid_source_px": [
     5041,
     3926
    ],
    "n_outlines": 2
   }
  },
  {
   "type": "Feature",
   "id": 10,
   "geometry": {
    "type": "Polygon",
    "coordinates": [
     [
      [
       2469,
       3887
      ],
      [
       2058,
       3918
      ],
      [
       2011,
       3930
      ],
      [
       2026,
       4154
      ],
      [
       1957,
       4163
      ],
      [
       1955,
       4200
      ],
      [
       1918,
       4262
      ],
      [
       1903,
       4335
      ],
      [
       1912,
       4391
      ],
      [
       1950,
       4441
      ],
      [
       1991,
       4462
      ],
      [
       2054,
       4471
      ],
      [
       2133,
       4467
      ],
      [
       2181,
       4484
      ],
      [
       2193,
       4479
      ],
      [
       2193,
       4462
      ],
      [
       2206,
       4451
      ],
      [
       2221,
       4458
      ],
      [
       2620,
       4421
      ],
      [
       2620,
       4389
      ],
      [
       2639,
       4370
      ],
      [
       2637,
       4326
      ],
      [
       2613,
       4312
      ],
      [
       2607,
       4234
      ],
      [
       2628,
       4219
      ],
      [
       2626,
       4176
      ],
      [
       2602,
       4159
      ],
      [
       2594,
       4131
      ],
      [
       2491,
       4139
      ],
      [
       2480,
       4131
      ],
      [
       2488,
       4118
      ],
      [
       2482,
       4032
      ],
      [
       2503,
       4021
      ],
      [
       2506,
       3999
      ],
      [
       2478,
       3978
      ],
      [
       2469,
       3887
      ]
     ]
    ]
   },
   "properties": {
    "sheet": "01352_1889-0003",
    "block_id": "01352_1889-0003:block:fid10",
    "block_number": null,
    "block_number_inferred": false,
    "lot_numbers": [
     "2",
     "3",
     "211",
     "9104",
     "9105"
    ],
    "streets": [
     {
      "name": "DOCK.",
      "distance_px": 136,
      "bearing_deg": 190,
      "side": "S",
      "label_bbox_source": [
       2086,
       4702,
       2251,
       4771
      ],
      "rotation_view": 0
     }
    ],
    "street_names": [
     "DOCK."
    ],
    "area_source_px2": 323647,
    "centroid_source_px": [
     2264,
     4204
    ],
    "n_outlines": 2
   }
  },
  {
   "type": "Feature",
   "id": 11,
   "geometry": {
    "type": "Polygon",
    "coordinates": [
     [
      [
       5635,
       4124
      ],
      [
       5504,
       4124
      ],
      [
       5465,
       4096
      ],
      [
       5435,
       4124
      ],
      [
       5162,
       4131
      ],
      [
       5117,
       4120
      ],
      [
       5099,
       4133
      ],
      [
       4970,
       4135
      ],
      [
       4961,
       4114
      ],
      [
       4946,
       4109
      ],
      [
       4919,
       4133
      ],
      [
       4690,
       4139
      ],
      [
       4667,
       4109
      ],
      [
       4639,
       4139
      ],
      [
       4423,
       4146
      ],
      [
       4430,
       4636
      ],
      [
       4404,
       4645
      ],
      [
       4400,
       4669
      ],
      [
       4430,
       4693
      ],
      [
       4434,
       4992
      ],
      [
       4410,
       5002
      ],
      [
       4408,
       5032
      ],
      [
       4436,
       5054
      ],
      [
       4443,
       5366
      ],
      [
       4512,
       5368
      ],
      [
       4522,
       5390
      ],
      [
       4533,
       5396
      ],
      [
       4559,
       5394
      ],
      [
       4576,
       5368
      ],
      [
       4714,
       5366
      ],
      [
       4729,
       5388
      ],
      [
       4757,
       5392
      ],
      [
       4789,
       5364
      ],
      [
       4931,
       5362
      ],
      [
       4946,
       5381
      ],
      [
       4961,
       5383
      ],
      [
       4987,
       5360
      ],
      [
       5032,
       5360
      ],
      [
       5054,
       5381
      ],
      [
       5102,
       5358
      ],
      [
       5162,
       5358
      ],
      [
       5177,
       5377
      ],
      [
       5203,
       5379
      ],
      [
       5229,
       5356
      ],
      [
       5642,
       5351
      ],
      [
       5661,
       5343
      ],
      [
       5663,
       5278
      ],
      [
       5691,
       5265
      ],
      [
       5689,
       5233
      ],
      [
       5661,
       5220
      ],
      [
       5653,
       4753
      ],
      [
       5678,
       4744
      ],
      [
       5681,
       4705
      ],
      [
       5652,
       4671
      ],
      [
       5644,
       4322
      ],
      [
       5665,
       4316
      ],
      [
       5672,
       4296
      ],
      [
       5668,
       4268
      ],
      [
       5642,
       4247
      ],
      [
       5635,
       4124
      ]
     ]
    ]
   },
   "properties": {
    "sheet": "01352_1889-0003",
    "block_id": "01352_1889-0003:block:7",
    "block_number": "7",
    "block_number_inferred": false,
    "lot_numbers": [
     "1",
     "2",
     "12",
     "22",
     "23",
     "25",
     "36",
     "104",
     "105",
     "108",
     "406"
    ],
    "streets": [
     {
      "name": "Creek.",
      "distance_px": 96,
      "bearing_deg": 353,
      "side": "N",
      "label_bbox_source": [
       4848,
       3904,
       5033,
       3957
      ],
      "rotation_view": 0
     },
     {
      "name": "TAMPA STERM S",
      "distance_px": 105,
      "bearing_deg": 62,
      "side": "NE",
      "label_bbox_source": [
       5851,
       4144,
       5883,
       4463
      ],
      "rotation_view": 0
     },
     {
      "name": "STREET",
      "distance_px": 122,
      "bearing_deg": 52,
      "side": "NE",
      "label_bbox_source": [
       5847,
       4043,
       5880,
       4169
      ],
      "rotation_view": 0
     },
     {
      "name": "WOODEN BRIDGE.",
      "distance_px": 165,
      "bearing_deg": 45,
      "side": "NE",
      "label_bbox_source": [
       5660,
       3890,
       6066,
       3947
      ],
      "rotation_view": 0
     }
    ],
    "street_names": [
     "Creek.",
     "TAMPA STERM S",
     "STREET",
     "WOODEN BRIDGE."
    ],
    "area_source_px2": 1512234,
    "centroid_source_px": [
     5042,
     4748
    ],
    "n_outlines": 10
   }
  },
  {
   "type": "Feature",
   "id": 12,
   "geometry": {
    "type": "Polygon",
    "coordinates": [
     [
      [
       2970,
       4135
      ],
      [
       2968,
       4387
      ],
      [
       2947,
       4393
      ],
      [
       2942,
       4423
      ],
      [
       2970,
       4441
      ],
      [
       2970,
       4594
      ],
      [
       2990,
       4714
      ],
      [
       2970,
       4720
      ],
      [
       2964,
       4735
      ],
      [
       2970,
       4755
      ],
      [
       3003,
       4778
      ],
      [
       3035,
       4972
      ],
      [
       3016,
       4985
      ],
      [
       3016,
       5013
      ],
      [
       3048,
       5035
      ],
      [
       3106,
       5379
      ],
      [
       3134,
       5385
      ],
      [
       3151,
       5407
      ],
      [
       3171,
       5403
      ],
      [
       3188,
       5383
      ],
      [
       3416,
       5379
      ],
      [
       3444,
       5399
      ],
      [
       3476,
       5394
      ],
      [
       3491,
       5379
      ],
      [
       3829,
       5375
      ],
      [
       3842,
       5398
      ],
      [
       3872,
       5401
      ],
      [
       3894,
       5375
      ],
      [
       3967,
       5373
      ],
      [
       3974,
       5364
      ],
      [
       3971,
       4916
      ],
      [
       3989,
       4910
      ],
      [
       3999,
       4895
      ],
      [
       3995,
       4858
      ],
      [
       3969,
       4843
      ],
      [
       3967,
       4738
      ],
      [
       3993,
       4729
      ],
      [
       3999,
       4690
      ],
      [
       3967,
       4658
      ],
      [
       3959,
       4150
      ],
      [
       3663,
       4146
      ],
      [
       3644,
       4133
      ],
      [
       3623,
       4146
      ],
      [
       3386,
       4146
      ],
      [
       3360,
       4129
      ],
      [
       3181,
       4133
      ],
      [
       3160,
       4116
      ],
      [
       3136,
       4133
      ],
      [
       2970,
       4135
      ]
     ]
    ]
   },
   "properties": {
    "sheet": "01352_1889-0003",
    "block_id": "01352_1889-0003:block:6",
    "block_number": "6",
    "block_number_inferred": false,
    "lot_numbers": [
     "1",
     "12",
     "1\u00bd",
     "2\u00bd",
     "101",
     "102",
     "103",
     "207",
     "210",
     "216",
     "304",
     "305"
    ],
    "streets": [
     {
      "name": "WASHINGTON",
      "distance_px": 132,
      "bearing_deg": 169,
      "side": "S",
      "label_bbox_source": [
       3307,
       5578,
       3999,
       5668
      ],
      "rotation_view": 0
     },
     {
      "name": "WOODEN BRIDGE.",
      "distance_px": 156,
      "bearing_deg": 40,
      "side": "NE",
      "label_bbox_source": [
       3973,
       3920,
       4353,
       3963
      ],
      "rotation_view": 0
     }
    ],
    "street_names": [
     "WASHINGTON",
     "WOODEN BRIDGE."
    ],
    "area_source_px2": 1191530,
    "centroid_source_px": [
     3487,
     4746
    ],
    "n_outlines": 15
   }
  },
  {
   "type": "Feature",
   "id": 13,
   "geometry": {
    "type": "Polygon",
    "coordinates": [
     [
      [
       1582,
       4580
      ],
      [
       1629,
       4899
      ],
      [
       1810,
       4871
      ],
      [
       1815,
       4852
      ],
      [
       1802,
       4738
      ],
      [
       1978,
       4705
      ],
      [
       1993,
       4710
      ],
      [
       2026,
       4891
      ],
      [
       2361,
       4845
      ],
      [
       2374,
       4835
      ],
      [
       2346,
       4693
      ],
      [
       2361,
       4671
      ],
      [
       2363,
       4639
      ],
      [
       2335,
       4622
      ],
      [
       2320,
       4570
      ],
      [
       2204,
       4587
      ],
      [
       2183,
       4574
      ],
      [
       2163,
       4587
      ],
      [
       1800,
       4647
      ],
      [
       1784,
       4636
      ],
      [
       1763,
       4540
      ],
      [
       1612,
       4566
      ],
      [
       1582,
       4580
      ]
     ]
    ]
   },
   "properties": {
    "sheet": "01352_1889-0003",
    "block_id": "01352_1889-0003:block:fid13",
    "block_number": null,
    "block_number_inferred": false,
    "lot_numbers": [
     "210"
    ],
    "streets": [],
    "street_names": [],
    "area_source_px2": 179967,
    "centroid_source_px": [
     1981,
     4721
    ],
    "n_outlines": 0
   }
  },
  {
   "type": "Feature",
   "id": 14,
   "geometry": {
    "type": "Polygon",
    "coordinates": [
     [
      [
       2691,
       4675
      ],
      [
       2465,
       4714
      ],
      [
       2439,
       4701
      ],
      [
       2422,
       4710
      ],
      [
       2432,
       4776
      ],
      [
       2409,
       4785
      ],
      [
       2404,
       4802
      ],
      [
       2439,
       4985
      ],
      [
       2422,
       5009
      ],
      [
       2426,
       5032
      ],
      [
       2439,
       5041
      ],
      [
       2508,
       5028
      ],
      [
       2516,
       5018
      ],
      [
       2508,
       4989
      ],
      [
       2484,
       4990
      ],
      [
       2475,
       4983
      ],
      [
       2463,
       4893
      ],
      [
       2529,
       4880
      ],
      [
       2598,
       4910
      ],
      [
       2641,
       4961
      ],
      [
       2656,
       5015
      ],
      [
       2656,
       5078
      ],
      [
       2635,
       5157
      ],
      [
       2635,
       5222
      ],
      [
       2648,
       5282
      ],
      [
       2635,
       5338
      ],
      [
       2615,
       5375
      ],
      [
       2452,
       5407
      ],
      [
       2374,
       5351
      ],
      [
       2348,
       5342
      ],
      [
       2327,
       5282
      ],
      [
       2284,
       5289
      ],
      [
       2284,
       5319
      ],
      [
       2256,
       5373
      ],
      [
       2243,
       5439
      ],
      [
       2223,
       5454
      ],
      [
       2258,
       5838
      ],
      [
       2265,
       5855
      ],
      [
       2514,
       5816
      ],
      [
       2534,
       5801
      ],
      [
       2693,
       5771
      ],
      [
       2706,
       5777
      ],
      [
       2714,
       5894
      ],
      [
       2846,
       5894
      ],
      [
       2852,
       5863
      ],
      [
       2880,
       5840
      ],
      [
       2876,
       5808
      ],
      [
       2856,
       5803
      ],
      [
       2844,
       5777
      ],
      [
       2725,
       5773
      ],
      [
       2736,
       5758
      ],
      [
       2734,
       5743
      ],
      [
       2755,
       5737
      ],
      [
       2762,
       5726
      ],
      [
       2760,
       5698
      ],
      [
       2732,
       5676
      ],
      [
       2732,
       5665
      ],
      [
       2843,
       5640
      ],
      [
       2844,
       5597
      ],
      [
       2861,
       5586
      ],
      [
       2865,
       5568
      ],
      [
       2830,
       5519
      ],
      [
       2770,
       5149
      ],
      [
       2788,
       5108
      ],
      [
       2783,
       5084
      ],
      [
       2757,
       5067
      ],
      [
       2716,
       4807
      ],
      [
       2732,
       4787
      ],
      [
       2734,
       4764
      ],
      [
       2727,
       4733
      ],
      [
       2703,
       4723
      ],
      [
       2691,
       4675
      ]
     ]
    ]
   },
   "properties": {
    "sheet": "01352_1889-0003",
    "block_id": "01352_1889-0003:block:fid14",
    "block_number": null,
    "block_number_inferred": false,
    "lot_numbers": [
     "1",
     "205",
     "206",
     "207",
     "208",
     "209"
    ],
    "streets": [
     {
      "name": "DOCKS.",
      "distance_px": 109,
      "bearing_deg": 201,
      "side": "S",
      "label_bbox_source": [
       2293,
       5954,
       2333,
       6152
      ],
      "rotation_view": 0
     },
     {
      "name": "DOCK.",
      "distance_px": 131,
      "bearing_deg": 329,
      "side": "NW",
      "label_bbox_source": [
       2086,
       4702,
       2251,
       4771
      ],
      "rotation_view": 0
     }
    ],
    "street_names": [
     "DOCKS.",
     "DOCK."
    ],
    "area_source_px2": 397011,
    "centroid_source_px": [
     2562,
     5396
    ],
    "n_outlines": 7
   }
  },
  {
   "type": "Feature",
   "id": 15,
   "geometry": {
    "type": "Polygon",
    "coordinates": [
     [
      [
       5663,
       5823
      ],
      [
       5646,
       5823
      ],
      [
       5631,
       5808
      ],
      [
       5601,
       5807
      ],
      [
       5596,
       5788
      ],
      [
       5584,
       5782
      ],
      [
       5569,
       5786
      ],
      [
       5553,
       5808
      ],
      [
       5472,
       5810
      ],
      [
       5463,
       5790
      ],
      [
       5450,
       5784
      ],
      [
       5435,
       5788
      ],
      [
       5418,
       5812
      ],
      [
       5336,
       5814
      ],
      [
       5327,
       5794
      ],
      [
       5314,
       5788
      ],
      [
       5300,
       5792
      ],
      [
       5287,
       5814
      ],
      [
       5250,
       5823
      ],
      [
       5187,
       5823
      ],
      [
       5166,
       5797
      ],
      [
       5151,
       5801
      ],
      [
       5134,
       5825
      ],
      [
       5015,
       5827
      ],
      [
       5002,
       5805
      ],
      [
       4983,
       5803
      ],
      [
       4957,
       5829
      ],
      [
       4796,
       5831
      ],
      [
       4787,
       5810
      ],
      [
       4770,
       5805
      ],
      [
       4735,
       5833
      ],
      [
       4606,
       5835
      ],
      [
       4578,
       5808
      ],
      [
       4552,
       5835
      ],
      [
       4451,
       5840
      ],
      [
       4451,
       5939
      ],
      [
       4428,
       5952
      ],
      [
       4425,
       5975
      ],
      [
       4453,
       6012
      ],
      [
       4456,
       6277
      ],
      [
       4434,
       6287
      ],
      [
       4426,
       6318
      ],
      [
       4456,
       6343
      ],
      [
       4460,
       6595
      ],
      [
       4436,
       6598
      ],
      [
       4428,
       6627
      ],
      [
       4460,
       6653
      ],
      [
       4462,
       6916
      ],
      [
       4443,
       6927
      ],
      [
       4441,
       6938
      ],
      [
       4464,
       6959
      ],
      [
       4469,
       7067
      ],
      [
       4626,
       7067
      ],
      [
       4652,
       7082
      ],
      [
       4688,
       7065
      ],
      [
       4835,
       7064
      ],
      [
       4858,
       7088
      ],
      [
       4880,
       7062
      ],
      [
       5088,
       7058
      ],
      [
       5095,
       7064
      ],
      [
       5091,
       7084
      ],
      [
       5104,
       7093
      ],
      [
       5119,
       7084
      ],
      [
       5132,
       7058
      ],
      [
       5360,
       7052
      ],
      [
       5368,
       7058
      ],
      [
       5368,
       7084
      ],
      [
       5381,
       7090
      ],
      [
       5398,
       7080
      ],
      [
       5398,
       7058
      ],
      [
       5413,
       7050
      ],
      [
       5659,
       7049
      ],
      [
       5683,
       7041
      ],
      [
       5691,
       6974
      ],
      [
       5683,
       6912
      ],
      [
       5680,
       6533
      ],
      [
       5687,
       6516
      ],
      [
       5680,
       6507
      ],
      [
       5672,
       6124
      ],
      [
       5680,
       6021
      ],
      [
       5676,
       5850
      ],
      [
       5663,
       5823
      ]
     ]
    ]
   },
   "properties": {
    "sheet": "01352_1889-0003",
    "block_id": "01352_1889-0003:block:8",
    "block_number": "8",
    "block_number_inferred": false,
    "lot_numbers": [
     "2",
     "01",
     "18",
     "19",
     "113",
     "114",
     "115",
     "116",
     "117",
     "118",
     "311",
     "312"
    ],
    "streets": [],
    "street_names": [],
    "area_source_px2": 1520789,
    "centroid_source_px": [
     5068,
     6439
    ],
    "n_outlines": 3
   }
  },
  {
   "type": "Feature",
   "id": 16,
   "geometry": {
    "type": "Polygon",
    "coordinates": [
     [
      [
       3973,
       5844
      ],
      [
       3797,
       5842
      ],
      [
       3791,
       5823
      ],
      [
       3780,
       5818
      ],
      [
       3752,
       5846
      ],
      [
       3526,
       5848
      ],
      [
       3517,
       5829
      ],
      [
       3500,
       5822
      ],
      [
       3485,
       5825
      ],
      [
       3470,
       5848
      ],
      [
       3324,
       5850
      ],
      [
       3300,
       5825
      ],
      [
       3274,
       5831
      ],
      [
       3259,
       5850
      ],
      [
       3225,
       5850
      ],
      [
       3212,
       5859
      ],
      [
       3212,
       6154
      ],
      [
       3192,
       6171
      ],
      [
       3188,
       6195
      ],
      [
       3212,
       6223
      ],
      [
       3296,
       6593
      ],
      [
       3282,
       6615
      ],
      [
       3283,
       6655
      ],
      [
       3313,
       6669
      ],
      [
       3409,
       7078
      ],
      [
       3446,
       7082
      ],
      [
       3453,
       7110
      ],
      [
       3468,
       7110
      ],
      [
       3474,
       7086
      ],
      [
       3494,
       7078
      ],
      [
       3790,
       7078
      ],
      [
       3810,
       7092
      ],
      [
       3829,
       7078
      ],
      [
       3984,
       7078
      ],
      [
       3997,
       7069
      ],
      [
       3995,
       6843
      ],
      [
       4017,
       6838
      ],
      [
       4023,
       6819
      ],
      [
       4019,
       6796
      ],
      [
       3993,
       6780
      ],
      [
       3987,
       6468
      ],
      [
       4010,
       6458
      ],
      [
       4012,
       6438
      ],
      [
       3987,
       6417
      ],
      [
       3984,
       6167
      ],
      [
       4002,
       6152
      ],
      [
       4006,
       6113
      ],
      [
       3982,
       6087
      ],
      [
       3980,
       5885
      ],
      [
       3973,
       5844
      ]
     ]
    ]
   },
   "properties": {
    "sheet": "01352_1889-0003",
    "block_id": "01352_1889-0003:block:9",
    "block_number": "9",
    "block_number_inferred": false,
    "lot_numbers": [
     "0",
     "1",
     "9",
     "16",
     "1\u00bd",
     "2\u00bd",
     "109",
     "110",
     "111",
     "265",
     "301",
     "309"
    ],
    "streets": [
     {
      "name": "WHITING",
      "distance_px": 84,
      "bearing_deg": 172,
      "side": "S",
      "label_bbox_source": [
       3519,
       7194,
       3961,
       7278
      ],
      "rotation_view": 0
     },
     {
      "name": "WASHINGTON",
      "distance_px": 119,
      "bearing_deg": 2,
      "side": "N",
      "label_bbox_source": [
       3307,
       5578,
       3999,
       5668
      ],
      "rotation_view": 0
     }
    ],
    "street_names": [
     "WHITING",
     "WASHINGTON"
    ],
    "area_source_px2": 881717,
    "centroid_source_px": [
     3631,
     6433
    ],
    "n_outlines": 8
   }
  },
  {
   "type": "Feature",
   "id": 17,
   "geometry": {
    "type": "Polygon",
    "coordinates": [
     [
      [
       2714,
       6113
      ],
      [
       2303,
       6193
      ],
      [
       2303,
       6223
      ],
      [
       2294,
       6238
      ],
      [
       2247,
       6246
      ],
      [
       2236,
       6255
      ],
      [
       2239,
       6783
      ],
      [
       2280,
       6804
      ],
      [
       2295,
       6796
      ],
      [
       2308,
       6806
      ],
      [
       2338,
       6808
      ],
      [
       2338,
       6845
      ],
      [
       2316,
       6851
      ],
      [
       2301,
       6881
      ],
      [
       2308,
       6899
      ],
      [
       2301,
       6966
      ],
      [
       2308,
       6976
      ],
      [
       2342,
       6965
      ],
      [
       2488,
       6959
      ],
      [
       2488,
       6864
      ],
      [
       2508,
       6858
      ],
      [
       2516,
       6847
      ],
      [
       2512,
       6815
      ],
      [
       2488,
       6800
      ],
      [
       2490,
       6662
      ],
      [
       2811,
       6658
      ],
      [
       2824,
       6649
      ],
      [
       2822,
       6563
      ],
      [
       2843,
       6554
      ],
      [
       2854,
       6513
      ],
      [
       2822,
       6494
      ],
      [
       2815,
       6371
      ],
      [
       2471,
       6367
      ],
      [
       2478,
       6343
      ],
      [
       2519,
       6352
      ],
      [
       2671,
       6326
      ],
      [
       2704,
       6294
      ],
      [
       2719,
       6264
      ],
      [
       2727,
       6203
      ],
      [
       2714,
       6113
      ]
     ]
    ]
   },
   "properties": {
    "sheet": "01352_1889-0003",
    "block_id": "01352_1889-0003:block:fid17",
    "block_number": null,
    "block_number_inferred": false,
    "lot_numbers": [
     "0",
     "1"
    ],
    "streets": [
     {
      "name": "DOCKS.",
      "distance_px": 73,
      "bearing_deg": 338,
      "side": "N",
      "label_bbox_source": [
       2293,
       5954,
       2333,
       6152
      ],
      "rotation_view": 0
     },
     {
      "name": "OFF",
      "distance_px": 160,
      "bearing_deg": 25,
      "side": "NE",
      "label_bbox_source": [
       2782,
       5813,
       2839,
       5847
      ],
      "rotation_view": 0
     }
    ],
    "street_names": [
     "DOCKS.",
     "OFF"
    ],
    "area_source_px2": 325823,
    "centroid_source_px": [
     2491,
     6499
    ],
    "n_outlines": 3
   }
  }
 ]
}