{
 "type": "FeatureCollection",
 "georeference": {
  "rms_m": 63.725038183982456,
  "n_labels": 6,
  "from": "01352_1889-0003_georef.json"
 },
 "source_areas": "runs/hunyuan/Sanborn_Hillsborough-County/1889/0003/01352_1889-0003_areas_px.geojson",
 "note": "colour-wash areas traced by fim_areas.py (tints, not outlines); block_number is the big numeral inside (a key plan's sheet number)",
 "features": [
  {
   "type": "Feature",
   "geometry": {
    "type": "Polygon",
    "coordinates": [
     [
      [
       -82.4601712,
       27.9478654
      ],
      [
       -82.4601802,
       27.9478502
      ],
      [
       -82.4601772,
       27.9478333
      ],
      [
       -82.4601676,
       27.9478167
      ],
      [
       -82.4601692,
       27.9478101
      ],
      [
       -82.4601183,
       27.94771
      ],
      [
       -82.4600808,
       27.9476251
      ],
      [
       -82.4600805,
       27.9476092
      ],
      [
       -82.4598931,
       27.9471849
      ],
      [
       -82.4598762,
       27.9471669
      ],
      [
       -82.4598521,
       27.9471633
      ],
      [
       -82.4598359,
       27.9471469
      ],
      [
       -82.4598246,
       27.9471469
      ],
      [
       -82.4597485,
       27.9471733
      ],
      [
       -82.4597422,
       27.9471895
      ],
      [
       -82.4597908,
       27.9472945
      ],
      [
       -82.4597852,
       27.9473124
      ],
      [
       -82.4597719,
       27.9473231
      ],
      [
       -82.4597741,
       27.9473383
      ],
      [
       -82.459817,
       27.9474252
      ],
      [
       -82.4600246,
       27.9479004
      ],
      [
       -82.4600363,
       27.9479064
      ],
      [
       -82.4601712,
       27.9478654
      ]
     ]
    ]
   },
   "properties": {
    "sheet": "01352_1889-0003",
    "kind": "wash_area",
    "colour": "yellow",
    "lab_angle_deg": 98,
    "median_lab": [
     226,
     125,
     145
    ],
    "block_number": null,
    "block_number_inferred": false,
    "number_is_big_numeral": false,
    "lot_numbers": [
     "0",
     "2",
     "1",
     "1"
    ],
    "numbers_inside": [
     "0",
     "2",
     "1",
     "1"
    ],
    "street_names": [],
    "area_source_px2": 519152,
    "compactness": 0.433,
    "touches_content_border": false,
    "centroid_source_px": [
     2073,
     1180
    ],
    "split_by_numerals": false,
    "streets_matched": [],
    "nearby_text": [
     "Freight M.Ho.",
     "H.R.Offs.",
     "PLATFORM."
    ],
    "centroid_map": [
     356375.631,
     3092243.341
    ]
   }
  },
  {
   "type": "Feature",
   "geometry": {
    "type": "Polygon",
    "coordinates": [
     [
      [
       -82.459506,
       27.9478673
      ],
      [
       -82.4595153,
       27.947868
      ],
      [
       -82.4597368,
       27.9477889
      ],
      [
       -82.4597462,
       27.9477796
      ],
      [
       -82.4597341,
       27.9477419
      ],
      [
       -82.4596397,
       27.947523
      ],
      [
       -82.4596265,
       27.9475136
      ],
      [
       -82.4595005,
       27.9475594
      ],
      [
       -82.4595061,
       27.9475875
      ],
      [
       -82.4595006,
       27.9476054
      ],
      [
       -82.4594514,
       27.9476265
      ],
      [
       -82.4594342,
       27.9476385
      ],
      [
       -82.4594575,
       27.9476963
      ],
      [
       -82.4594698,
       27.947714
      ],
      [
       -82.4594642,
       27.9477319
      ],
      [
       -82.4594364,
       27.9477556
      ],
      [
       -82.4594119,
       27.9477562
      ],
      [
       -82.4593865,
       27.947765
      ],
      [
       -82.4593822,
       27.9477705
      ],
      [
       -82.4593879,
       27.9477885
      ],
      [
       -82.4593968,
       27.9477934
      ],
      [
       -82.459421,
       27.947787
      ],
      [
       -82.4594331,
       27.9477787
      ],
      [
       -82.4594483,
       27.9477774
      ],
      [
       -82.4594661,
       27.9477872
      ],
      [
       -82.459506,
       27.9478673
      ]
     ]
    ]
   },
   "properties": {
    "sheet": "01352_1889-0003",
    "kind": "wash_area",
    "colour": "yellow",
    "lab_angle_deg": 98,
    "median_lab": [
     226,
     125,
     144
    ],
    "block_number": null,
    "block_number_inferred": false,
    "number_is_big_numeral": false,
    "lot_numbers": [
     "10",
     "0",
     "1",
     "1",
     "1",
     "2",
     "2"
    ],
    "numbers_inside": [
     "10",
     "0",
     "1",
     "1",
     "1",
     "2",
     "2"
    ],
    "street_names": [],
    "area_source_px2": 293728,
    "compactness": 0.627,
    "touches_content_border": false,
    "centroid_source_px": [
     3058,
     1036
    ],
    "split_by_numerals": false,
    "streets_matched": [],
    "nearby_text": [
     "KITCHEN.",
     "THE PLANT HO."
    ],
    "centroid_map": [
     356420.475,
     3092268.247
    ]
   }
  },
  {
   "type": "Feature",
   "geometry": {
    "type": "Polygon",
    "coordinates": [
     [
      [
       -82.4591114,
       27.9479267
      ],
      [
       -82.4591223,
       27.9479309
      ],
      [
       -82.4591321,
       27.9479275
      ],
      [
       -82.4591411,
       27.9479124
      ],
      [
       -82.4592083,
       27.947881
      ],
      [
       -82.4592099,
       27.9478745
      ],
      [
       -82.4591888,
       27.9478319
      ],
      [
       -82.4591944,
       27.9478139
      ],
      [
       -82.4592065,
       27.9478057
      ],
      [
       -82.4592287,
       27.9478
      ],
      [
       -82.4592442,
       27.9478045
      ],
      [
       -82.4592735,
       27.9478503
      ],
      [
       -82.4592808,
       27.9478517
      ],
      [
       -82.4593015,
       27.9478425
      ],
      [
       -82.4593031,
       27.947836
      ],
      [
       -82.459294,
       27.9478152
      ],
      [
       -82.459275,
       27.9477978
      ],
      [
       -82.4592704,
       27.9477874
      ],
      [
       -82.459276,
       27.9477695
      ],
      [
       -82.4592707,
       27.9477574
      ],
      [
       -82.4592606,
       27.9477549
      ],
      [
       -82.4592204,
       27.9477709
      ],
      [
       -82.4591948,
       27.9477638
      ],
      [
       -82.4591733,
       27.9477713
      ],
      [
       -82.4591682,
       27.9477851
      ],
      [
       -82.4591715,
       27.9478079
      ],
      [
       -82.4591636,
       27.9478206
      ],
      [
       -82.4590813,
       27.9478533
      ],
      [
       -82.4590792,
       27.947864
      ],
      [
       -82.4591114,
       27.9479267
      ]
     ]
    ]
   },
   "properties": {
    "sheet": "01352_1889-0003",
    "kind": "wash_area",
    "colour": "yellow",
    "lab_angle_deg": 98,
    "median_lab": [
     223,
     125,
     142
    ],
    "block_number": null,
    "block_number_inferred": false,
    "number_is_big_numeral": false,
    "lot_numbers": [
     "1",
     "1"
    ],
    "numbers_inside": [
     "1",
     "1"
    ],
    "street_names": [],
    "area_source_px2": 61256,
    "compactness": 0.335,
    "touches_content_border": false,
    "centroid_source_px": [
     3658,
     1022
    ],
    "split_by_numerals": false,
    "streets_matched": [],
    "nearby_text": [
     "Dny",
     "TANK."
    ],
    "centroid_map": [
     356449.135,
     3092279.865
    ]
   }
  },
  {
   "type": "Feature",
   "geometry": {
    "type": "Polygon",
    "coordinates": [
     [
      [
       -82.4583126,
       27.948115
      ],
      [
       -82.4583207,
       27.9481182
      ],
      [
       -82.4583554,
       27.9481101
      ],
      [
       -82.4584346,
       27.9480805
      ],
      [
       -82.4584522,
       27.9480644
      ],
      [
       -82.4584748,
       27.9480645
      ],
      [
       -82.4584962,
       27.9480571
      ],
      [
       -82.458501,
       27.9480474
      ],
      [
       -82.4584799,
       27.9480048
      ],
      [
       -82.4584651,
       27.948002
      ],
      [
       -82.4584401,
       27.9480167
      ],
      [
       -82.4584296,
       27.9480183
      ],
      [
       -82.4583963,
       27.948004
      ],
      [
       -82.4582972,
       27.9480345
      ],
      [
       -82.4582886,
       27.9480455
      ],
      [
       -82.4582893,
       27.9480572
      ],
      [
       -82.4583126,
       27.948115
      ]
     ]
    ]
   },
   "properties": {
    "sheet": "01352_1889-0003",
    "kind": "wash_area",
    "colour": "yellow",
    "lab_angle_deg": 98,
    "median_lab": [
     223,
     125,
     143
    ],
    "block_number": null,
    "block_number_inferred": false,
    "number_is_big_numeral": false,
    "lot_numbers": [
     "2",
     "2",
     "1"
    ],
    "numbers_inside": [
     "2",
     "2",
     "1"
    ],
    "street_names": [],
    "area_source_px2": 62192,
    "compactness": 0.681,
    "touches_content_border": false,
    "centroid_source_px": [
     5268,
     1135
    ],
    "split_by_numerals": false,
    "streets_matched": [],
    "nearby_text": [
     "Gro.",
     "SCOTLAND"
    ],
    "centroid_map": [
     356528.786,
     3092303.785
    ]
   }
  },
  {
   "type": "Feature",
   "geometry": {
    "type": "Polygon",
    "coordinates": [
     [
      [
       -82.4588389,
       27.9478598
      ],
      [
       -82.4588094,
       27.9477981
      ],
      [
       -82.4587939,
       27.9477936
      ],
      [
       -82.4586601,
       27.9478421
      ],
      [
       -82.4586499,
       27.9478497
      ],
      [
       -82.4586172,
       27.9478571
      ],
      [
       -82.4585972,
       27.947868
      ],
      [
       -82.4585821,
       27.9478693
      ],
      [
       -82.4585712,
       27.9478651
      ],
      [
       -82.4585597,
       27.9478491
      ],
      [
       -82.4585582,
       27.9478816
      ],
      [
       -82.4585863,
       27.9478738
      ],
      [
       -82.4586041,
       27.9478836
      ],
      [
       -82.458616,
       27.9479054
      ],
      [
       -82.4586281,
       27.9479072
      ],
      [
       -82.4586647,
       27.9478985
      ],
      [
       -82.4586756,
       27.9479027
      ],
      [
       -82.4586945,
       27.9479201
      ],
      [
       -82.4588025,
       27.9478845
      ],
      [
       -82.4588341,
       27.9478694
      ],
      [
       -82.4588389,
       27.9478598
      ]
     ]
    ]
   },
   "properties": {
    "sheet": "01352_1889-0003",
    "kind": "wash_area",
    "colour": "yellow",
    "lab_angle_deg": 98,
    "median_lab": [
     222,
     125,
     144
    ],
    "block_number": "321",
    "block_number_inferred": false,
    "number_is_big_numeral": true,
    "lot_numbers": [
     "1",
     "1",
     "1",
     "1",
     "1",
     "1",
     "2\u00bd"
    ],
    "numbers_inside": [
     "1",
     "1",
     "1",
     "1",
     "1",
     "1",
     "2\u00bd"
    ],
    "street_names": [],
    "area_source_px2": 72192,
    "compactness": 0.478,
    "touches_content_border": false,
    "centroid_source_px": [
     4652,
     1317
    ],
    "split_by_numerals": true,
    "streets_matched": [],
    "nearby_text": [
     "CENTRAL HO."
    ],
    "centroid_map": [
     356502.419,
     3092283.779
    ]
   }
  },
  {
   "type": "Feature",
   "geometry": {
    "type": "Polygon",
    "coordinates": [
     [
      [
       -82.4583534,
       27.9479629
      ],
      [
       -82.4581183,
       27.947823
      ],
      [
       -82.4581673,
       27.9479338
      ],
      [
       -82.4581617,
       27.9479518
      ],
      [
       -82.4581457,
       27.9479613
      ],
      [
       -82.4581421,
       27.9479686
      ],
      [
       -82.4581436,
       27.9479821
      ],
      [
       -82.4581658,
       27.9480223
      ],
      [
       -82.4581818,
       27.9480227
      ],
      [
       -82.4582017,
       27.9480118
      ],
      [
       -82.4582227,
       27.9480084
      ],
      [
       -82.4583534,
       27.9479629
      ]
     ]
    ]
   },
   "properties": {
    "sheet": "01352_1889-0003",
    "kind": "wash_area",
    "colour": "yellow",
    "lab_angle_deg": 98,
    "median_lab": [
     222,
     125,
     144
    ],
    "block_number": "420",
    "block_number_inferred": false,
    "number_is_big_numeral": true,
    "lot_numbers": [
     "0",
     "7",
     "7"
    ],
    "numbers_inside": [
     "0",
     "7",
     "7"
    ],
    "street_names": [],
    "area_source_px2": 79672,
    "compactness": 0.511,
    "touches_content_border": false,
    "centroid_source_px": [
     5592,
     1457
    ],
    "split_by_numerals": true,
    "streets_matched": [],
    "nearby_text": [
     "& Bancry",
     "Gro.",
     "Grocky",
     "Hardw"
    ],
    "centroid_map": [
     356550.274,
     3092294.177
    ]
   }
  },
  {
   "type": "Feature",
   "geometry": {
    "type": "Polygon",
    "coordinates": [
     [
      [
       -82.4581176,
       27.9478213
      ],
      [
       -82.4583553,
       27.9479623
      ],
      [
       -82.4584084,
       27.9479398
      ],
      [
       -82.4584112,
       27.9479308
      ],
      [
       -82.4583875,
       27.9478771
      ],
      [
       -82.4583931,
       27.9478592
      ],
      [
       -82.4584142,
       27.9478459
      ],
      [
       -82.4584726,
       27.9478355
      ],
      [
       -82.4584904,
       27.9478453
      ],
      [
       -82.4585189,
       27.9478893
      ],
      [
       -82.4585337,
       27.9478922
      ],
      [
       -82.4585481,
       27.9478891
      ],
      [
       -82.4585571,
       27.947884
      ],
      [
       -82.4585608,
       27.9478008
      ],
      [
       -82.4585456,
       27.9478021
      ],
      [
       -82.4585174,
       27.9477839
      ],
      [
       -82.4585037,
       27.9477887
      ],
      [
       -82.4584861,
       27.9478048
      ],
      [
       -82.4584709,
       27.9478061
      ],
      [
       -82.4584531,
       27.9477963
      ],
      [
       -82.4584378,
       27.9477617
      ],
      [
       -82.4584434,
       27.9477438
      ],
      [
       -82.4584586,
       27.9477325
      ],
      [
       -82.4584576,
       27.9477148
      ],
      [
       -82.4584655,
       27.9477021
      ],
      [
       -82.4585431,
       27.9476691
      ],
      [
       -82.4585455,
       27.9476642
      ],
      [
       -82.458516,
       27.9476026
      ],
      [
       -82.4585005,
       27.947598
      ],
      [
       -82.458435,
       27.9476228
      ],
      [
       -82.4584248,
       27.9476304
      ],
      [
       -82.4584057,
       27.947633
      ],
      [
       -82.4583507,
       27.9476562
      ],
      [
       -82.4583451,
       27.9476741
      ],
      [
       -82.458333,
       27.9476823
      ],
      [
       -82.4583178,
       27.9476836
      ],
      [
       -82.4583069,
       27.9476794
      ],
      [
       -82.4582908,
       27.947653
      ],
      [
       -82.4582772,
       27.9476478
      ],
      [
       -82.4582124,
       27.9476743
      ],
      [
       -82.4581998,
       27.9477067
      ],
      [
       -82.4581486,
       27.9477285
      ],
      [
       -82.4581139,
       27.9477366
      ],
      [
       -82.4580936,
       27.9477517
      ],
      [
       -82.4580916,
       27.9477624
      ],
      [
       -82.4581176,
       27.9478213
      ]
     ]
    ]
   },
   "properties": {
    "sheet": "01352_1889-0003",
    "kind": "wash_area",
    "colour": "yellow",
    "lab_angle_deg": 98,
    "median_lab": [
     223,
     125,
     143
    ],
    "block_number": "2\u00bd",
    "block_number_inferred": false,
    "number_is_big_numeral": true,
    "lot_numbers": [
     "1",
     "1",
     "9",
     "1",
     "1",
     "1",
     "1",
     "1",
     "2"
    ],
    "numbers_inside": [
     "1",
     "1",
     "9",
     "1",
     "1",
     "1",
     "1",
     "1",
     "2"
    ],
    "street_names": [],
    "area_source_px2": 364656,
    "compactness": 0.407,
    "touches_content_border": false,
    "centroid_source_px": [
     5047,
     1725
    ],
    "split_by_numerals": true,
    "streets_matched": [],
    "nearby_text": [
     "& Bancry",
     "2 Confec.",
     "Barbi's",
     "Gro.",
     "Grocky",
     "Hardw",
     "Meat",
     "OPERa HO.",
     "STAGE",
     "Tobacco",
     "Vac."
    ],
    "centroid_map": [
     356528.897,
     3092271.32
    ]
   }
  },
  {
   "type": "Feature",
   "geometry": {
    "type": "Polygon",
    "coordinates": [
     [
      [
       -82.4595289,
       27.9474556
      ],
      [
       -82.4595095,
       27.9474065
      ],
      [
       -82.459515,
       27.9473885
      ],
      [
       -82.4595354,
       27.9473735
      ],
      [
       -82.4595347,
       27.9473617
      ],
      [
       -82.4595021,
       27.9473031
      ],
      [
       -82.4594854,
       27.947301
      ],
      [
       -82.459384,
       27.9473363
      ],
      [
       -82.4593714,
       27.9473486
      ],
      [
       -82.4594196,
       27.9474577
      ],
      [
       -82.4594373,
       27.9474876
      ],
      [
       -82.4594505,
       27.9474869
      ],
      [
       -82.4595188,
       27.9474632
      ],
      [
       -82.4595289,
       27.9474556
      ]
     ]
    ]
   },
   "properties": {
    "sheet": "01352_1889-0003",
    "kind": "wash_area",
    "colour": "yellow",
    "lab_angle_deg": 98,
    "median_lab": [
     227,
     125,
     144
    ],
    "block_number": null,
    "block_number_inferred": false,
    "number_is_big_numeral": false,
    "lot_numbers": [],
    "numbers_inside": [],
    "street_names": [],
    "area_source_px2": 82744,
    "compactness": 0.773,
    "touches_content_border": false,
    "centroid_source_px": [
     2844,
     1697
    ],
    "split_by_numerals": false,
    "streets_matched": [],
    "nearby_text": [
     "HHo.",
     "HILLSBOROUGH HO."
    ],
    "centroid_map": [
     356422.218,
     3092232.488
    ]
   }
  },
  {
   "type": "Feature",
   "geometry": {
    "type": "Polygon",
    "coordinates": [
     [
      [
       -82.4590365,
       27.9475991
      ],
      [
       -82.4590704,
       27.9475893
      ],
      [
       -82.459074,
       27.9475821
      ],
      [
       -82.4590372,
       27.947509
      ],
      [
       -82.4590413,
       27.9474876
      ],
      [
       -82.4590491,
       27.9474749
      ],
      [
       -82.4590706,
       27.9474674
      ],
      [
       -82.4591021,
       27.9474724
      ],
      [
       -82.459109,
       27.947478
      ],
      [
       -82.4591285,
       27.9475272
      ],
      [
       -82.4591389,
       27.9475355
      ],
      [
       -82.4591635,
       27.9475249
      ],
      [
       -82.4591671,
       27.9475177
      ],
      [
       -82.4591525,
       27.9474848
      ],
      [
       -82.4591344,
       27.9474692
      ],
      [
       -82.459129,
       27.947457
      ],
      [
       -82.4591327,
       27.9474398
      ],
      [
       -82.4591212,
       27.9474138
      ],
      [
       -82.4591019,
       27.9473905
      ],
      [
       -82.4590906,
       27.9473905
      ],
      [
       -82.4590571,
       27.9474062
      ],
      [
       -82.4590479,
       27.9474313
      ],
      [
       -82.4590358,
       27.9474395
      ],
      [
       -82.4590039,
       27.9474387
      ],
      [
       -82.4589466,
       27.9474566
      ],
      [
       -82.4589262,
       27.9474717
      ],
      [
       -82.4589465,
       27.9475226
      ],
      [
       -82.4589562,
       27.9475292
      ],
      [
       -82.4589857,
       27.9475249
      ],
      [
       -82.4590036,
       27.9475347
      ],
      [
       -82.4590296,
       27.9475936
      ],
      [
       -82.4590365,
       27.9475991
      ]
     ]
    ]
   },
   "properties": {
    "sheet": "01352_1889-0003",
    "kind": "wash_area",
    "colour": "yellow",
    "lab_angle_deg": 98,
    "median_lab": [
     223,
     125,
     143
    ],
    "block_number": null,
    "block_number_inferred": false,
    "number_is_big_numeral": false,
    "lot_numbers": [
     "1"
    ],
    "numbers_inside": [
     "1"
    ],
    "street_names": [],
    "area_source_px2": 82008,
    "compactness": 0.327,
    "touches_content_border": false,
    "centroid_source_px": [
     3648,
     1801
    ],
    "split_by_numerals": false,
    "streets_matched": [],
    "nearby_text": [
     "Fruit",
     "LAFAYETTE",
     "OFF"
    ],
    "centroid_map": [
     356462.862,
     3092242.141
    ]
   }
  },
  {
   "type": "Feature",
   "geometry": {
    "type": "Polygon",
    "coordinates": [
     [
      [
       -82.4598036,
       27.9469364
      ],
      [
       -82.4598473,
       27.9469232
      ],
      [
       -82.4599059,
       27.9468928
      ],
      [
       -82.4598898,
       27.9468564
      ],
      [
       -82.4598985,
       27.9468354
      ],
      [
       -82.4600311,
       27.9467892
      ],
      [
       -82.4600476,
       27.9467755
      ],
      [
       -82.4599925,
       27.9466508
      ],
      [
       -82.4599605,
       27.9466599
      ],
      [
       -82.459945,
       27.9466553
      ],
      [
       -82.4599181,
       27.9466148
      ],
      [
       -82.4596868,
       27.9466973
      ],
      [
       -82.459707,
       27.9467482
      ],
      [
       -82.4597054,
       27.9467548
      ],
      [
       -82.4597139,
       27.9467638
      ],
      [
       -82.4597444,
       27.9468431
      ],
      [
       -82.4597683,
       27.9468767
      ],
      [
       -82.4597789,
       27.946911
      ],
      [
       -82.4597955,
       27.9469332
      ],
      [
       -82.4598036,
       27.9469364
      ]
     ]
    ]
   },
   "properties": {
    "sheet": "01352_1889-0003",
    "kind": "wash_area",
    "colour": "yellow",
    "lab_angle_deg": 98,
    "median_lab": [
     226,
     125,
     144
    ],
    "block_number": null,
    "block_number_inferred": false,
    "number_is_big_numeral": false,
    "lot_numbers": [
     "2\u00bd"
    ],
    "numbers_inside": [
     "2\u00bd"
    ],
    "street_names": [],
    "area_source_px2": 269816,
    "compactness": 0.702,
    "touches_content_border": false,
    "centroid_source_px": [
     1708,
     2642
    ],
    "split_by_numerals": false,
    "streets_matched": [],
    "nearby_text": [
     "COMMERCIAL Co. W.Ho.",
     "Hides.",
     "PIER No.2.",
     "TANK."
    ],
    "centroid_map": [
     356384.707,
     3092166.226
    ]
   }
  },
  {
   "type": "Feature",
   "geometry": {
    "type": "Polygon",
    "coordinates": [
     [
      [
       -82.4582741,
       27.9474471
      ],
      [
       -82.4582765,
       27.9474422
      ],
      [
       -82.4581945,
       27.947267
      ],
      [
       -82.4581798,
       27.9472641
      ],
      [
       -82.4581298,
       27.9472835
      ],
      [
       -82.4581259,
       27.9472949
      ],
      [
       -82.4582028,
       27.9474639
      ],
      [
       -82.4582136,
       27.9474681
      ],
      [
       -82.4582741,
       27.9474471
      ]
     ]
    ]
   },
   "properties": {
    "sheet": "01352_1889-0003",
    "kind": "wash_area",
    "colour": "yellow",
    "lab_angle_deg": 98,
    "median_lab": [
     224,
     126,
     143
    ],
    "block_number": null,
    "block_number_inferred": false,
    "number_is_big_numeral": false,
    "lot_numbers": [
     "1"
    ],
    "numbers_inside": [
     "1"
    ],
    "street_names": [],
    "area_source_px2": 62272,
    "compactness": 0.628,
    "touches_content_border": false,
    "centroid_source_px": [
     5089,
     2650
    ],
    "split_by_numerals": false,
    "streets_matched": [],
    "nearby_text": [
     "ALL",
     "AROUND.",
     "BUILT.",
     "CLAD",
     "IRON",
     "OFF.",
     "Sal."
    ],
    "centroid_map": [
     356547.793,
     3092227.508
    ]
   }
  },
  {
   "type": "Feature",
   "geometry": {
    "type": "Polygon",
    "coordinates": [
     [
      [
       -82.4589185,
       27.9472147
      ],
      [
       -82.458922,
       27.9472074
      ],
      [
       -82.4588872,
       27.9471336
      ],
      [
       -82.4588654,
       27.9471352
      ],
      [
       -82.458842,
       27.9471434
      ],
      [
       -82.4588265,
       27.9471388
      ],
      [
       -82.4588083,
       27.9471231
      ],
      [
       -82.4587896,
       27.9471317
      ],
      [
       -82.458786,
       27.9471389
      ],
      [
       -82.458789,
       27.9471558
      ],
      [
       -82.4587732,
       27.9471813
      ],
      [
       -82.4588054,
       27.947244
      ],
      [
       -82.458819,
       27.9472493
      ],
      [
       -82.4588362,
       27.9472473
      ],
      [
       -82.4589185,
       27.9472147
      ]
     ]
    ]
   },
   "properties": {
    "sheet": "01352_1889-0003",
    "kind": "wash_area",
    "colour": "yellow",
    "lab_angle_deg": 98,
    "median_lab": [
     225,
     125,
     144
    ],
    "block_number": null,
    "block_number_inferred": false,
    "number_is_big_numeral": false,
    "lot_numbers": [
     "0",
     "0",
     "1",
     "1",
     "2",
     "2"
    ],
    "numbers_inside": [
     "0",
     "0",
     "1",
     "1",
     "2",
     "2"
    ],
    "street_names": [],
    "area_source_px2": 51048,
    "compactness": 0.798,
    "touches_content_border": false,
    "centroid_source_px": [
     3812,
     2591
    ],
    "split_by_numerals": false,
    "streets_matched": [],
    "nearby_text": [
     "Sal",
     "TANK"
    ],
    "centroid_map": [
     356485.174,
     3092207.06
    ]
   }
  },
  {
   "type": "Feature",
   "geometry": {
    "type": "Polygon",
    "coordinates": [
     [
      [
       -82.4601166,
       27.9467534
      ],
      [
       -82.4601364,
       27.9467525
      ],
      [
       -82.4601466,
       27.946745
      ],
      [
       -82.4602098,
       27.946725
      ],
      [
       -82.460225,
       27.9467137
      ],
      [
       -82.4602045,
       27.9466569
      ],
      [
       -82.460188,
       27.9466247
      ],
      [
       -82.4601783,
       27.946618
      ],
      [
       -82.46008,
       27.9466503
      ],
      [
       -82.4600699,
       27.9466578
      ],
      [
       -82.4600924,
       27.9467139
      ],
      [
       -82.4601166,
       27.9467534
      ]
     ]
    ]
   },
   "properties": {
    "sheet": "01352_1889-0003",
    "kind": "wash_area",
    "colour": "yellow",
    "lab_angle_deg": 98,
    "median_lab": [
     225,
     125,
     144
    ],
    "block_number": null,
    "block_number_inferred": false,
    "number_is_big_numeral": false,
    "lot_numbers": [],
    "numbers_inside": [],
    "street_names": [
     "TAMPA"
    ],
    "area_source_px2": 55536,
    "compactness": 0.848,
    "touches_content_border": false,
    "centroid_source_px": [
     1093,
     2640
    ],
    "split_by_numerals": false,
    "streets_matched": [
     {
      "label": "TAMPA",
      "modern": [
       "NORTH TAMPA ST",
       "SOUTH TAMPA ST"
      ],
      "distance_px": -63,
      "residual_m": 155.84
     }
    ],
    "nearby_text": [
     "PIER No.2.",
     "TANK."
    ],
    "centroid_map": [
     356355.032,
     3092155.105
    ]
   }
  },
  {
   "type": "Feature",
   "geometry": {
    "type": "Polygon",
    "coordinates": [
     [
      [
       -82.4583007,
       27.947222
      ],
      [
       -82.4583189,
       27.9472276
      ],
      [
       -82.4583482,
       27.9472174
      ],
      [
       -82.4583553,
       27.947203
      ],
      [
       -82.4583674,
       27.9471948
      ],
      [
       -82.4584056,
       27.9471895
      ],
      [
       -82.4584668,
       27.9471701
      ],
      [
       -82.4584684,
       27.9471636
      ],
      [
       -82.4584443,
       27.947114
      ],
      [
       -82.4584288,
       27.9471095
      ],
      [
       -82.4583578,
       27.9471322
      ],
      [
       -82.4583456,
       27.9471504
      ],
      [
       -82.4582859,
       27.9471732
      ],
      [
       -82.4582816,
       27.9471787
      ],
      [
       -82.4583007,
       27.947222
      ]
     ]
    ]
   },
   "properties": {
    "sheet": "01352_1889-0003",
    "kind": "wash_area",
    "colour": "yellow",
    "lab_angle_deg": 98,
    "median_lab": [
     225,
     125,
     144
    ],
    "block_number": null,
    "block_number_inferred": false,
    "number_is_big_numeral": false,
    "lot_numbers": [
     "0",
     "7"
    ],
    "numbers_inside": [
     "0",
     "7"
    ],
    "street_names": [],
    "area_source_px2": 45792,
    "compactness": 0.641,
    "touches_content_border": false,
    "centroid_source_px": [
     4636,
     2915
    ],
    "split_by_numerals": false,
    "streets_matched": [],
    "nearby_text": [
     "TANK."
    ],
    "centroid_map": [
     356530.795,
     3092206.475
    ]
   }
  },
  {
   "type": "Feature",
   "geometry": {
    "type": "Polygon",
    "coordinates": [
     [
      [
       -82.4593729,
       27.9464909
      ],
      [
       -82.459381,
       27.9464941
      ],
      [
       -82.4594239,
       27.9464791
      ],
      [
       -82.4595395,
       27.9464249
      ],
      [
       -82.459571,
       27.9464199
      ],
      [
       -82.4595957,
       27.9463993
      ],
      [
       -82.4597303,
       27.9463425
      ],
      [
       -82.4597339,
       27.9463352
      ],
      [
       -82.4597056,
       27.9462711
      ],
      [
       -82.4596756,
       27.9462236
      ],
      [
       -82.4596702,
       27.9462215
      ],
      [
       -82.4596487,
       27.946229
      ],
      [
       -82.459603,
       27.9462529
      ],
      [
       -82.4595866,
       27.9462666
      ],
      [
       -82.4595853,
       27.9462891
      ],
      [
       -82.4595805,
       27.9462987
      ],
      [
       -82.4595684,
       27.9463069
      ],
      [
       -82.4593413,
       27.946404
      ],
      [
       -82.4593358,
       27.9464119
      ],
      [
       -82.4593369,
       27.9464195
      ],
      [
       -82.4593729,
       27.9464909
      ]
     ]
    ]
   },
   "properties": {
    "sheet": "01352_1889-0003",
    "kind": "wash_area",
    "colour": "yellow",
    "lab_angle_deg": 98,
    "median_lab": [
     227,
     125,
     145
    ],
    "block_number": null,
    "block_number_inferred": false,
    "number_is_big_numeral": false,
    "lot_numbers": [
     "2"
    ],
    "numbers_inside": [
     "2"
    ],
    "street_names": [],
    "area_source_px2": 175768,
    "compactness": 0.534,
    "touches_content_border": false,
    "centroid_source_px": [
     1891,
     3745
    ],
    "split_by_numerals": false,
    "streets_matched": [],
    "nearby_text": [],
    "centroid_map": [
     356413.644,
     3092116.407
    ]
   }
  },
  {
   "type": "Feature",
   "geometry": {
    "type": "Polygon",
    "coordinates": [
     [
      [
       -82.4592375,
       27.9463882
      ],
      [
       -82.4593374,
       27.9463494
      ],
      [
       -82.4593804,
       27.9463245
      ],
      [
       -82.459451,
       27.9462959
      ],
      [
       -82.4594557,
       27.9462862
      ],
      [
       -82.4594082,
       27.9461989
      ],
      [
       -82.4593985,
       27.9461923
      ],
      [
       -82.4593818,
       27.9461901
      ],
      [
       -82.4593381,
       27.9462033
      ],
      [
       -82.4593226,
       27.9461987
      ],
      [
       -82.4593122,
       27.9461904
      ],
      [
       -82.4592623,
       27.9460978
      ],
      [
       -82.4592569,
       27.9460957
      ],
      [
       -82.4590789,
       27.9461717
      ],
      [
       -82.459071,
       27.9461844
      ],
      [
       -82.4591266,
       27.946295
      ],
      [
       -82.4591363,
       27.9463016
      ],
      [
       -82.4591749,
       27.9462921
      ],
      [
       -82.4591927,
       27.9463019
      ],
      [
       -82.4592161,
       27.9463397
      ],
      [
       -82.4592375,
       27.9463882
      ]
     ]
    ]
   },
   "properties": {
    "sheet": "01352_1889-0003",
    "kind": "wash_area",
    "colour": "yellow",
    "lab_angle_deg": 98,
    "median_lab": [
     227,
     125,
     144
    ],
    "block_number": null,
    "block_number_inferred": false,
    "number_is_big_numeral": false,
    "lot_numbers": [
     "2",
     "3"
    ],
    "numbers_inside": [
     "2",
     "3"
    ],
    "street_names": [],
    "area_source_px2": 244688,
    "compactness": 0.676,
    "touches_content_border": false,
    "centroid_source_px": [
     2293,
     4143
    ],
    "split_by_numerals": false,
    "streets_matched": [],
    "nearby_text": [
     "Gen't Storage.",
     "Gen't W.Ho"
    ],
    "centroid_map": [
     356440.277,
     3092104.559
    ]
   }
  },
  {
   "type": "Feature",
   "geometry": {
    "type": "Polygon",
    "coordinates": [
     [
      [
       -82.4578637,
       27.9467368
      ],
      [
       -82.4578796,
       27.9467372
      ],
      [
       -82.4579069,
       27.9467277
      ],
      [
       -82.4579292,
       27.946712
      ],
      [
       -82.4579105,
       27.9466645
      ],
      [
       -82.4579113,
       27.9466562
      ],
      [
       -82.4579192,
       27.9466435
      ],
      [
       -82.4579567,
       27.9466265
      ],
      [
       -82.4579719,
       27.9466252
      ],
      [
       -82.4579897,
       27.946635
      ],
      [
       -82.4580131,
       27.9466828
      ],
      [
       -82.4580185,
       27.9466849
      ],
      [
       -82.458038,
       27.9466781
      ],
      [
       -82.4580427,
       27.9466684
      ],
      [
       -82.4580148,
       27.9466102
      ],
      [
       -82.4579891,
       27.9466132
      ],
      [
       -82.4579635,
       27.9466061
      ],
      [
       -82.4579186,
       27.9466217
      ],
      [
       -82.4579076,
       27.9466376
      ],
      [
       -82.4578955,
       27.9466458
      ],
      [
       -82.457837,
       27.9466662
      ],
      [
       -82.4578342,
       27.9466751
      ],
      [
       -82.4578452,
       27.9467052
      ],
      [
       -82.4578637,
       27.9467368
      ]
     ]
    ]
   },
   "properties": {
    "sheet": "01352_1889-0003",
    "kind": "wash_area",
    "colour": "yellow",
    "lab_angle_deg": 98,
    "median_lab": [
     218,
     125,
     143
    ],
    "block_number": null,
    "block_number_inferred": false,
    "number_is_big_numeral": false,
    "lot_numbers": [
     "1",
     "1",
     "1"
    ],
    "numbers_inside": [
     "1",
     "1",
     "1"
    ],
    "street_names": [],
    "area_source_px2": 40744,
    "compactness": 0.296,
    "touches_content_border": false,
    "centroid_source_px": [
     5004,
     4239
    ],
    "split_by_numerals": false,
    "streets_matched": [],
    "nearby_text": [
     "Creek.",
     "Oils",
     "Paint",
     "Storge",
     "TANK."
    ],
    "centroid_map": [
     356572.679,
     3092149.379
    ]
   }
  },
  {
   "type": "Feature",
   "geometry": {
    "type": "Polygon",
    "coordinates": [
     [
      [
       -82.4584624,
       27.9465183
      ],
      [
       -82.4584706,
       27.9465214
      ],
      [
       -82.4585384,
       27.9465018
      ],
      [
       -82.4587354,
       27.9464332
      ],
      [
       -82.4587491,
       27.9464184
      ],
      [
       -82.4587384,
       27.9463942
      ],
      [
       -82.4587471,
       27.9463732
      ],
      [
       -82.4589063,
       27.9463157
      ],
      [
       -82.4589176,
       27.9463058
      ],
      [
       -82.4589189,
       27.9462934
      ],
      [
       -82.458881,
       27.9462127
      ],
      [
       -82.4588543,
       27.946198
      ],
      [
       -82.4588497,
       27.9461876
      ],
      [
       -82.4588553,
       27.9461697
      ],
      [
       -82.4588415,
       27.9461385
      ],
      [
       -82.4587872,
       27.9460615
      ],
      [
       -82.4587693,
       27.9460617
      ],
      [
       -82.4587388,
       27.9460843
      ],
      [
       -82.4587353,
       27.9460916
      ],
      [
       -82.4587529,
       27.9461214
      ],
      [
       -82.4588115,
       27.9461929
      ],
      [
       -82.4588169,
       27.946205
      ],
      [
       -82.4588113,
       27.9462229
      ],
      [
       -82.4587992,
       27.9462312
      ],
      [
       -82.4587036,
       27.9462644
      ],
      [
       -82.4586954,
       27.9462713
      ],
      [
       -82.4587118,
       27.9463135
      ],
      [
       -82.4587062,
       27.9463315
      ],
      [
       -82.4586941,
       27.9463397
      ],
      [
       -82.4586422,
       27.9463598
      ],
      [
       -82.4585287,
       27.9463933
      ],
      [
       -82.4584343,
       27.9464342
      ],
      [
       -82.4584291,
       27.9464479
      ],
      [
       -82.4584624,
       27.9465183
      ]
     ]
    ]
   },
   "properties": {
    "sheet": "01352_1889-0003",
    "kind": "wash_area",
    "colour": "yellow",
    "lab_angle_deg": 98,
    "median_lab": [
     223,
     125,
     144
    ],
    "block_number": null,
    "block_number_inferred": false,
    "number_is_big_numeral": false,
    "lot_numbers": [
     "12"
    ],
    "numbers_inside": [
     "12"
    ],
    "street_names": [],
    "area_source_px2": 260992,
    "compactness": 0.307,
    "touches_content_border": false,
    "centroid_source_px": [
     3300,
     4445
    ],
    "split_by_numerals": false,
    "streets_matched": [],
    "nearby_text": [
     "PENCER, HENDERSON MY CO. LIVERY.",
     "SPENCER HENDERS",
     "TANK."
    ],
    "centroid_map": [
     356494.316,
     3092108.372
    ]
   }
  },
  {
   "type": "Feature",
   "geometry": {
    "type": "Polygon",
    "coordinates": [
     [
      [
       -82.4577293,
       27.9466058
      ],
      [
       -82.4577309,
       27.9465992
      ],
      [
       -82.4577157,
       27.9465545
      ],
      [
       -82.4577045,
       27.9465445
      ],
      [
       -82.4576831,
       27.9465419
      ],
      [
       -82.4576653,
       27.9465321
      ],
      [
       -82.4576458,
       27.946483
      ],
      [
       -82.4576265,
       27.9464697
      ],
      [
       -82.4575981,
       27.9464716
      ],
      [
       -82.4575874,
       27.9464933
      ],
      [
       -82.4575234,
       27.9465216
      ],
      [
       -82.4575217,
       27.9465382
      ],
      [
       -82.4575481,
       27.9465929
      ],
      [
       -82.4575629,
       27.9465958
      ],
      [
       -82.4576299,
       27.9465744
      ],
      [
       -82.4576524,
       27.9465846
      ],
      [
       -82.457672,
       27.9466237
      ],
      [
       -82.4576977,
       27.9466208
      ],
      [
       -82.4577293,
       27.9466058
      ]
     ]
    ]
   },
   "properties": {
    "sheet": "01352_1889-0003",
    "kind": "wash_area",
    "colour": "yellow",
    "lab_angle_deg": 98,
    "median_lab": [
     223,
     125,
     145
    ],
    "block_number": null,
    "block_number_inferred": false,
    "number_is_big_numeral": false,
    "lot_numbers": [
     "1",
     "2",
     "2"
    ],
    "numbers_inside": [
     "1",
     "2",
     "2"
    ],
    "street_names": [],
    "area_source_px2": 69952,
    "compactness": 0.597,
    "touches_content_border": false,
    "centroid_source_px": [
     5448,
     4670
    ],
    "split_by_numerals": false,
    "streets_matched": [],
    "nearby_text": [
     "SHEDS",
     "TANK."
    ],
    "centroid_map": [
     356601.938,
     3092136.707
    ]
   }
  },
  {
   "type": "Feature",
   "geometry": {
    "type": "Polygon",
    "coordinates": [
     [
      [
       -82.4595304,
       27.9459305
      ],
      [
       -82.4594593,
       27.9458154
      ],
      [
       -82.459452,
       27.945814
      ],
      [
       -82.4593824,
       27.9458502
      ],
      [
       -82.4594043,
       27.9458945
      ],
      [
       -82.4594034,
       27.9459028
      ],
      [
       -82.4593944,
       27.945918
      ],
      [
       -82.4593397,
       27.945947
      ],
      [
       -82.4593206,
       27.9459497
      ],
      [
       -82.4592993,
       27.9459371
      ],
      [
       -82.4592624,
       27.945884
      ],
      [
       -82.4591199,
       27.9459536
      ],
      [
       -82.4590991,
       27.9459728
      ],
      [
       -82.4590839,
       27.9459741
      ],
      [
       -82.4590731,
       27.9459699
      ],
      [
       -82.4590541,
       27.9459525
      ],
      [
       -82.4589452,
       27.9460065
      ],
      [
       -82.4589377,
       27.9460151
      ],
      [
       -82.4589692,
       27.946066
      ],
      [
       -82.4589847,
       27.9460806
      ],
      [
       -82.4590623,
       27.9460476
      ],
      [
       -82.4590827,
       27.9460325
      ],
      [
       -82.4591019,
       27.9460098
      ],
      [
       -82.4591214,
       27.946003
      ],
      [
       -82.4591474,
       27.946016
      ],
      [
       -82.4591716,
       27.9460555
      ],
      [
       -82.4591867,
       27.9460642
      ],
      [
       -82.4592688,
       27.9460157
      ],
      [
       -82.4593418,
       27.9459822
      ],
      [
       -82.4594086,
       27.945945
      ],
      [
       -82.459423,
       27.945942
      ],
      [
       -82.4594385,
       27.9459466
      ],
      [
       -82.4594628,
       27.9459761
      ],
      [
       -82.4595225,
       27.9459433
      ],
      [
       -82.4595304,
       27.9459305
      ]
     ]
    ]
   },
   "properties": {
    "sheet": "01352_1889-0003",
    "kind": "wash_area",
    "colour": "yellow",
    "lab_angle_deg": 98,
    "median_lab": [
     227,
     125,
     143
    ],
    "block_number": null,
    "block_number_inferred": false,
    "number_is_big_numeral": false,
    "lot_numbers": [],
    "numbers_inside": [],
    "street_names": [],
    "area_source_px2": 210600,
    "compactness": 0.266,
    "touches_content_border": false,
    "centroid_source_px": [
     2134,
     4727
    ],
    "split_by_numerals": false,
    "streets_matched": [],
    "nearby_text": [
     "DOCK."
    ],
    "centroid_map": [
     356443.266,
     3092073.514
    ]
   }
  },
  {
   "type": "Feature",
   "geometry": {
    "type": "Polygon",
    "coordinates": [
     [
      [
       -82.4585946,
       27.9462265
      ],
      [
       -82.4585974,
       27.9462175
      ],
      [
       -82.4585859,
       27.9461915
      ],
      [
       -82.4585618,
       27.9461879
      ],
      [
       -82.4585438,
       27.9461982
      ],
      [
       -82.4585287,
       27.9461995
      ],
      [
       -82.4585031,
       27.9461824
      ],
      [
       -82.4584462,
       27.9461962
      ],
      [
       -82.4584284,
       27.9461864
      ],
      [
       -82.4584131,
       27.9461518
      ],
      [
       -82.4583991,
       27.9461507
      ],
      [
       -82.4583813,
       27.9461409
      ],
      [
       -82.4583775,
       27.9461222
      ],
      [
       -82.4583854,
       27.9461095
      ],
      [
       -82.4584014,
       27.9460999
      ],
      [
       -82.4584019,
       27.9460858
      ],
      [
       -82.458341,
       27.9459631
      ],
      [
       -82.458297,
       27.9459704
      ],
      [
       -82.4582283,
       27.9459984
      ],
      [
       -82.458226,
       27.9460032
      ],
      [
       -82.4582891,
       27.946141
      ],
      [
       -82.4583093,
       27.946146
      ],
      [
       -82.4583216,
       27.9461637
      ],
      [
       -82.4583093,
       27.9461919
      ],
      [
       -82.4583273,
       27.9462276
      ],
      [
       -82.4583355,
       27.9462308
      ],
      [
       -82.4583936,
       27.9462146
      ],
      [
       -82.4584091,
       27.9462191
      ],
      [
       -82.458416,
       27.9462247
      ],
      [
       -82.4584367,
       27.9462715
      ],
      [
       -82.4584503,
       27.9462767
      ],
      [
       -82.4585946,
       27.9462265
      ]
     ]
    ]
   },
   "properties": {
    "sheet": "01352_1889-0003",
    "kind": "wash_area",
    "colour": "yellow",
    "lab_angle_deg": 98,
    "median_lab": [
     226,
     125,
     145
    ],
    "block_number": null,
    "block_number_inferred": false,
    "number_is_big_numeral": false,
    "lot_numbers": [
     "1",
     "2\u00bd",
     "1\u00bd"
    ],
    "numbers_inside": [
     "1",
     "2\u00bd",
     "1\u00bd"
    ],
    "street_names": [],
    "area_source_px2": 163664,
    "compactness": 0.359,
    "touches_content_border": false,
    "centroid_source_px": [
     3770,
     4924
    ],
    "split_by_numerals": false,
    "streets_matched": [],
    "nearby_text": [
     "Dng",
     "Genit S.",
     "TANK."
    ],
    "centroid_map": [
     356525.703,
     3092093.86
    ]
   }
  },
  {
   "type": "Feature",
   "geometry": {
    "type": "Polygon",
    "coordinates": [
     [
      [
       -82.4578209,
       27.9462681
      ],
      [
       -82.4577655,
       27.9461476
      ],
      [
       -82.4577526,
       27.946144
      ],
      [
       -82.4575074,
       27.9462255
      ],
      [
       -82.4573763,
       27.9462751
      ],
      [
       -82.4573703,
       27.9462872
      ],
      [
       -82.4574043,
       27.9463692
      ],
      [
       -82.4574113,
       27.9463748
      ],
      [
       -82.4574206,
       27.9463756
      ],
      [
       -82.4575782,
       27.9463247
      ],
      [
       -82.4576007,
       27.9463348
      ],
      [
       -82.4576225,
       27.9463792
      ],
      [
       -82.4576287,
       27.946383
      ],
      [
       -82.4576579,
       27.9463728
      ],
      [
       -82.4576767,
       27.9463543
      ],
      [
       -82.4577236,
       27.946338
      ],
      [
       -82.4577358,
       27.9463097
      ],
      [
       -82.4578143,
       27.9462784
      ],
      [
       -82.4578209,
       27.9462681
      ]
     ]
    ]
   },
   "properties": {
    "sheet": "01352_1889-0003",
    "kind": "wash_area",
    "colour": "yellow",
    "lab_angle_deg": 98,
    "median_lab": [
     225,
     125,
     144
    ],
    "block_number": "404",
    "block_number_inferred": false,
    "number_is_big_numeral": true,
    "lot_numbers": [
     "1",
     "12",
     "108",
     "1",
     "2"
    ],
    "numbers_inside": [
     "1",
     "12",
     "108",
     "1",
     "2"
    ],
    "street_names": [],
    "area_source_px2": 245328,
    "compactness": 0.592,
    "touches_content_border": false,
    "centroid_source_px": [
     5317,
     5184
    ],
    "split_by_numerals": false,
    "streets_matched": [],
    "nearby_text": [
     "2 Vac.",
     "Geri t 5.",
     "Mach's",
     "Storg",
     "TANK.",
     "Vac."
    ],
    "centroid_map": [
     356605.0,
     3092109.546
    ]
   }
  },
  {
   "type": "Feature",
   "geometry": {
    "type": "Polygon",
    "coordinates": [
     [
      [
       -82.4590537,
       27.9457529
      ],
      [
       -82.459058,
       27.9457474
      ],
      [
       -82.4590488,
       27.9457266
      ],
      [
       -82.459033,
       27.9457161
      ],
      [
       -82.4590284,
       27.9457057
      ],
      [
       -82.459034,
       27.9456878
      ],
      [
       -82.4590547,
       27.9456686
      ],
      [
       -82.4589638,
       27.9455085
      ],
      [
       -82.4589514,
       27.9455008
      ],
      [
       -82.4589377,
       27.9454596
      ],
      [
       -82.4589023,
       27.94541
      ],
      [
       -82.4588839,
       27.9453684
      ],
      [
       -82.4588742,
       27.9453618
      ],
      [
       -82.4588705,
       27.9453431
      ],
      [
       -82.4588784,
       27.9453304
      ],
      [
       -82.4588944,
       27.9453208
      ],
      [
       -82.4588489,
       27.9452128
      ],
      [
       -82.4587437,
       27.9449897
      ],
      [
       -82.4587277,
       27.9449892
      ],
      [
       -82.458699,
       27.9449752
      ],
      [
       -82.4585918,
       27.9450126
      ],
      [
       -82.4585766,
       27.9450139
      ],
      [
       -82.4585553,
       27.9450013
      ],
      [
       -82.4585328,
       27.9449452
      ],
      [
       -82.4584764,
       27.944833
      ],
      [
       -82.4584574,
       27.9448356
      ],
      [
       -82.458453,
       27.9448411
      ],
      [
       -82.4584549,
       27.9448504
      ],
      [
       -82.4585496,
       27.9450393
      ],
      [
       -82.4585585,
       27.9450442
      ],
      [
       -82.4586177,
       27.9450255
      ],
      [
       -82.4586402,
       27.9450357
      ],
      [
       -82.4586448,
       27.9450461
      ],
      [
       -82.4586424,
       27.9450609
      ],
      [
       -82.4586894,
       27.9451724
      ],
      [
       -82.4586838,
       27.9451903
      ],
      [
       -82.4586717,
       27.9451986
      ],
      [
       -82.4585605,
       27.9452373
      ],
      [
       -82.4585445,
       27.9452469
      ],
      [
       -82.4585424,
       27.9452576
      ],
      [
       -82.4585764,
       27.9453496
      ],
      [
       -82.4585872,
       27.9453639
      ],
      [
       -82.4586105,
       27.9453657
      ],
      [
       -82.4586385,
       27.945358
      ],
      [
       -82.4587006,
       27.9453304
      ],
      [
       -82.4587489,
       27.9453175
      ],
      [
       -82.4587695,
       27.9453283
      ],
      [
       -82.4587828,
       27.9453637
      ],
      [
       -82.4588029,
       27.9453887
      ],
      [
       -82.4587941,
       27.9454097
      ],
      [
       -82.4587649,
       27.9454199
      ],
      [
       -82.4587551,
       27.9454333
      ],
      [
       -82.4586816,
       27.9454708
      ],
      [
       -82.4586583,
       27.945469
      ],
      [
       -82.4586388,
       27.9454758
      ],
      [
       -82.4586341,
       27.9454854
      ],
      [
       -82.4586402,
       27.9454993
      ],
      [
       -82.4586503,
       27.9455017
      ],
      [
       -82.4586717,
       27.9454943
      ],
      [
       -82.4586862,
       27.9454812
      ],
      [
       -82.4587073,
       27.9454779
      ],
      [
       -82.4587456,
       27.9454526
      ],
      [
       -82.4588018,
       27.945427
      ],
      [
       -82.4588534,
       27.945391
      ],
      [
       -82.4588659,
       27.9453887
      ],
      [
       -82.4588884,
       27.9453988
      ],
      [
       -82.4589198,
       27.9454598
      ],
      [
       -82.4589099,
       27.9454833
      ],
      [
       -82.4588794,
       27.9454959
      ],
      [
       -82.4588204,
       27.9455304
      ],
      [
       -82.4588177,
       27.9455394
      ],
      [
       -82.4588276,
       27.9455619
      ],
      [
       -82.4588268,
       27.9455702
      ],
      [
       -82.4588189,
       27.9455829
      ],
      [
       -82.45879,
       27.945599
      ],
      [
       -82.4587748,
       27.9456002
      ],
      [
       -82.458757,
       27.9455905
      ],
      [
       -82.458747,
       27.9455679
      ],
      [
       -82.4587339,
       27.9455585
      ],
      [
       -82.4586941,
       27.9455704
      ],
      [
       -82.4586781,
       27.94558
      ],
      [
       -82.4586745,
       27.9455872
      ],
      [
       -82.4586941,
       27.9456264
      ],
      [
       -82.4587022,
       27.9456295
      ],
      [
       -82.4587369,
       27.9456214
      ],
      [
       -82.4587547,
       27.9456312
      ],
      [
       -82.4587639,
       27.945652
      ],
      [
       -82.4587583,
       27.9456699
      ],
      [
       -82.4587302,
       27.9456877
      ],
      [
       -82.4587266,
       27.9456949
      ],
      [
       -82.4587335,
       27.9457105
      ],
      [
       -82.4587516,
       27.9457362
      ],
      [
       -82.4587605,
       27.9457411
      ],
      [
       -82.4587944,
       27.9457313
      ],
      [
       -82.4588099,
       27.9457359
      ],
      [
       -82.4588473,
       27.9457848
      ],
      [
       -82.4588598,
       27.9457825
      ],
      [
       -82.4588832,
       27.9457643
      ],
      [
       -82.4589481,
       27.9457277
      ],
      [
       -82.4590019,
       27.945707
      ],
      [
       -82.4590244,
       27.9457171
      ],
      [
       -82.4590282,
       27.9457358
      ],
      [
       -82.4590405,
       27.9457535
      ],
      [
       -82.4590537,
       27.9457529
      ]
     ]
    ]
   },
   "properties": {
    "sheet": "01352_1889-0003",
    "kind": "wash_area",
    "colour": "yellow",
    "lab_angle_deg": 98,
    "median_lab": [
     226,
     125,
     141
    ],
    "block_number": null,
    "block_number_inferred": false,
    "number_is_big_numeral": false,
    "lot_numbers": [
     "0",
     "1",
     "1"
    ],
    "numbers_inside": [
     "0",
     "1",
     "1"
    ],
    "street_names": [],
    "area_source_px2": 623272,
    "compactness": 0.126,
    "touches_content_border": false,
    "centroid_source_px": [
     2567,
     6134
    ],
    "split_by_numerals": false,
    "streets_matched": [],
    "nearby_text": [
     "DOCK.",
     "DOCKS.",
     "OFF",
     "PIER N\u00ba.",
     "RCIAL COMP.",
     "TAMPA COMMERCIAL COMP",
     "TAMPA WHARF CO.",
     "TANK"
    ],
    "centroid_map": [
     356489.797,
     3092013.604
    ]
   }
  },
  {
   "type": "Feature",
   "geometry": {
    "type": "Polygon",
    "coordinates": [
     [
      [
       -82.4584927,
       27.9456645
      ],
      [
       -82.4584974,
       27.9456549
      ],
      [
       -82.4584596,
       27.9455642
      ],
      [
       -82.4584526,
       27.9455586
      ],
      [
       -82.4584082,
       27.9455701
      ],
      [
       -82.4583902,
       27.9455803
      ],
      [
       -82.4583827,
       27.9455989
      ],
      [
       -82.4583503,
       27.9456122
      ],
      [
       -82.4583351,
       27.9456135
      ],
      [
       -82.4583103,
       27.9455981
      ],
      [
       -82.4582763,
       27.9455261
      ],
      [
       -82.4582523,
       27.9455025
      ],
      [
       -82.4582418,
       27.9455041
      ],
      [
       -82.4582328,
       27.9455193
      ],
      [
       -82.4582206,
       27.9455275
      ],
      [
       -82.4581938,
       27.9455328
      ],
      [
       -82.4581658,
       27.9455206
      ],
      [
       -82.4581537,
       27.9454829
      ],
      [
       -82.4581475,
       27.945479
      ],
      [
       -82.4581136,
       27.9454888
      ],
      [
       -82.4580926,
       27.9454821
      ],
      [
       -82.4580665,
       27.9454892
      ],
      [
       -82.458044,
       27.9454791
      ],
      [
       -82.4580394,
       27.9454687
      ],
      [
       -82.458045,
       27.9454508
      ],
      [
       -82.4580413,
       27.9454321
      ],
      [
       -82.4580491,
       27.9454194
      ],
      [
       -82.458071,
       27.9454077
      ],
      [
       -82.4581037,
       27.9454003
      ],
      [
       -82.4581146,
       27.9454046
      ],
      [
       -82.4581254,
       27.9454188
      ],
      [
       -82.4581335,
       27.9454219
      ],
      [
       -82.4581784,
       27.9454063
      ],
      [
       -82.4581972,
       27.9453878
      ],
      [
       -82.4582124,
       27.9453865
      ],
      [
       -82.4582383,
       27.9453994
      ],
      [
       -82.4582539,
       27.945394
      ],
      [
       -82.4582852,
       27.9453731
      ],
      [
       -82.4583091,
       27.9453508
      ],
      [
       -82.4582922,
       27.9453227
      ],
      [
       -82.4582841,
       27.9453196
      ],
      [
       -82.4582533,
       27.9453263
      ],
      [
       -82.4582355,
       27.9453165
      ],
      [
       -82.4582309,
       27.9453061
      ],
      [
       -82.4582329,
       27.9452954
      ],
      [
       -82.4581863,
       27.9451898
      ],
      [
       -82.4581747,
       27.9451738
      ],
      [
       -82.4581619,
       27.9451703
      ],
      [
       -82.4581283,
       27.945186
      ],
      [
       -82.4580429,
       27.9452117
      ],
      [
       -82.4580351,
       27.9452244
      ],
      [
       -82.4580511,
       27.9452608
      ],
      [
       -82.4580455,
       27.9452787
      ],
      [
       -82.4579925,
       27.9453012
      ],
      [
       -82.4579831,
       27.9453105
      ],
      [
       -82.458027,
       27.9454151
      ],
      [
       -82.4580183,
       27.9454361
      ],
      [
       -82.4579828,
       27.9454525
      ],
      [
       -82.457978,
       27.9454621
      ],
      [
       -82.4579861,
       27.9454753
      ],
      [
       -82.4580013,
       27.945474
      ],
      [
       -82.4580191,
       27.9454838
      ],
      [
       -82.4580237,
       27.9454942
      ],
      [
       -82.4580153,
       27.9455211
      ],
      [
       -82.4580291,
       27.9455522
      ],
      [
       -82.4580446,
       27.9455568
      ],
      [
       -82.4580614,
       27.945549
      ],
      [
       -82.4581007,
       27.9455413
      ],
      [
       -82.4581232,
       27.9455514
      ],
      [
       -82.4581286,
       27.9455635
      ],
      [
       -82.4581273,
       27.945576
      ],
      [
       -82.458179,
       27.9456879
      ],
      [
       -82.4581879,
       27.9456927
      ],
      [
       -82.458304,
       27.9456603
      ],
      [
       -82.4583265,
       27.9456704
      ],
      [
       -82.4583403,
       27.9457016
      ],
      [
       -82.4583484,
       27.9457048
      ],
      [
       -82.4583789,
       27.9456922
      ],
      [
       -82.4583852,
       27.945676
      ],
      [
       -82.4583973,
       27.9456678
      ],
      [
       -82.4584125,
       27.9456665
      ],
      [
       -82.458442,
       27.9456822
      ],
      [
       -82.4584927,
       27.9456645
      ]
     ]
    ]
   },
   "properties": {
    "sheet": "01352_1889-0003",
    "kind": "wash_area",
    "colour": "yellow",
    "lab_angle_deg": 98,
    "median_lab": [
     225,
     125,
     143
    ],
    "block_number": null,
    "block_number_inferred": false,
    "number_is_big_numeral": false,
    "lot_numbers": [
     "1",
     "1",
     "0",
     "1\u00bd",
     "9",
     "2\u00bd",
     "2\u00bd"
    ],
    "numbers_inside": [
     "1",
     "1",
     "0",
     "1\u00bd",
     "9",
     "2\u00bd",
     "2\u00bd"
    ],
    "street_names": [
     "WHITING"
    ],
    "area_source_px2": 408568,
    "compactness": 0.205,
    "touches_content_border": false,
    "centroid_source_px": [
     3625,
     6446
    ],
    "split_by_numerals": false,
    "streets_matched": [
     {
      "label": "WHITING",
      "modern": [
       "EAST WHITING ST"
      ],
      "distance_px": 176,
      "residual_m": 5.82
     }
    ],
    "nearby_text": [
     "HOTEL",
     "HOTEL COLLINS.",
     "KITCHEN",
     "RIMS.",
     "TANK",
     "THANK.",
     "Vac"
    ],
    "centroid_map": [
     356546.476,
     3092017.866
    ]
   }
  },
  {
   "type": "Feature",
   "geometry": {
    "type": "Polygon",
    "coordinates": [
     [
      [
       -82.4581645,
       27.9474892
      ],
      [
       -82.4581719,
       27.9474806
      ],
      [
       -82.4580904,
       27.9473012
      ],
      [
       -82.4580521,
       27.9472246
      ],
      [
       -82.4580459,
       27.9472208
      ],
      [
       -82.4580043,
       27.9471214
      ],
      [
       -82.457992,
       27.9471037
      ],
      [
       -82.4579874,
       27.9470833
      ],
      [
       -82.4579315,
       27.9469669
      ],
      [
       -82.4579234,
       27.9469638
      ],
      [
       -82.4579109,
       27.9469661
      ],
      [
       -82.4577514,
       27.9470277
      ],
      [
       -82.457752,
       27.9470494
      ],
      [
       -82.4577795,
       27.9471118
      ],
      [
       -82.4577888,
       27.9471225
      ],
      [
       -82.4578866,
       27.9473442
      ],
      [
       -82.4578936,
       27.9473498
      ],
      [
       -82.4579859,
       27.9475434
      ],
      [
       -82.4579948,
       27.9475483
      ],
      [
       -82.4580034,
       27.9475473
      ],
      [
       -82.4580701,
       27.9475201
      ],
      [
       -82.4581348,
       27.9475036
      ],
      [
       -82.4581645,
       27.9474892
      ]
     ]
    ]
   },
   "properties": {
    "sheet": "01352_1889-0003",
    "kind": "wash_area",
    "colour": "pink",
    "lab_angle_deg": 357,
    "median_lab": [
     215,
     134,
     132
    ],
    "block_number": null,
    "block_number_inferred": false,
    "number_is_big_numeral": false,
    "lot_numbers": [
     "3",
     "2",
     "2",
     "4",
     "8",
     "2",
     "30",
     "0",
     "2",
     "2",
     "2"
    ],
    "numbers_inside": [
     "3",
     "2",
     "2",
     "4",
     "8",
     "2",
     "30",
     "0",
     "2",
     "2",
     "2"
    ],
    "street_names": [],
    "area_source_px2": 468072,
    "compactness": 0.586,
    "touches_content_border": false,
    "centroid_source_px": [
     5411,
     3035
    ],
    "split_by_numerals": false,
    "streets_matched": [],
    "nearby_text": [
     "ALL",
     "AROUND.",
     "BEING",
     "Banky",
     "CLAD",
     "IRON",
     "OFF.",
     "Sal.",
     "Vac."
    ],
    "centroid_map": [
     356570.333,
     3092214.827
    ]
   }
  },
  {
   "type": "Feature",
   "geometry": {
    "type": "Polygon",
    "coordinates": [
     [
      [
       -82.458573,
       27.947329
      ],
      [
       -82.4585393,
       27.9472528
      ],
      [
       -82.4585273,
       27.947241
      ],
      [
       -82.4585182,
       27.9472202
      ],
      [
       -82.4585092,
       27.9472153
      ],
      [
       -82.4582701,
       27.9473006
      ],
      [
       -82.4582268,
       27.9473197
      ],
      [
       -82.4582252,
       27.9473262
      ],
      [
       -82.4582831,
       27.9474419
      ],
      [
       -82.4585101,
       27.9473649
      ],
      [
       -82.458569,
       27.9473404
      ],
      [
       -82.458573,
       27.947329
      ]
     ]
    ]
   },
   "properties": {
    "sheet": "01352_1889-0003",
    "kind": "wash_area",
    "colour": "pink",
    "lab_angle_deg": 357,
    "median_lab": [
     216,
     134,
     132
    ],
    "block_number": null,
    "block_number_inferred": false,
    "number_is_big_numeral": false,
    "lot_numbers": [
     "0",
     "0",
     "0",
     "1",
     "12",
     "8",
     "0",
     "0",
     "0",
     "1",
     "1",
     "1"
    ],
    "numbers_inside": [
     "0",
     "0",
     "0",
     "1",
     "12",
     "8",
     "0",
     "0",
     "0",
     "1",
     "1",
     "1"
    ],
    "street_names": [],
    "area_source_px2": 178488,
    "compactness": 0.722,
    "touches_content_border": false,
    "centroid_source_px": [
     4628,
     2611
    ],
    "split_by_numerals": false,
    "streets_matched": [],
    "nearby_text": [
     "ALL",
     "AROUND.",
     "BEING",
     "BUILT.",
     "CLAD",
     "IRON",
     "Sal.",
     "TANK."
    ],
    "centroid_map": [
     356524.865,
     3092220.979
    ]
   }
  },
  {
   "type": "Feature",
   "geometry": {
    "type": "Polygon",
    "coordinates": [
     [
      [
       -82.4575183,
       27.9460159
      ],
      [
       -82.4574867,
       27.945929
      ],
      [
       -82.4574704,
       27.9459126
      ],
      [
       -82.4573266,
       27.9459587
      ],
      [
       -82.4573074,
       27.9459714
      ],
      [
       -82.4572723,
       27.9459836
      ],
      [
       -82.4572668,
       27.9459915
      ],
      [
       -82.4572805,
       27.9460327
      ],
      [
       -82.457305,
       27.9460781
      ],
      [
       -82.4573326,
       27.9460845
      ],
      [
       -82.4574247,
       27.9460485
      ],
      [
       -82.4574964,
       27.9460275
      ],
      [
       -82.4575183,
       27.9460159
      ]
     ]
    ]
   },
   "properties": {
    "sheet": "01352_1889-0003",
    "kind": "wash_area",
    "colour": "pink",
    "lab_angle_deg": 357,
    "median_lab": [
     215,
     134,
     132
    ],
    "block_number": null,
    "block_number_inferred": false,
    "number_is_big_numeral": false,
    "lot_numbers": [
     "01",
     "2",
     "2",
     "2"
    ],
    "numbers_inside": [
     "01",
     "2",
     "2",
     "2"
    ],
    "street_names": [],
    "area_source_px2": 106864,
    "compactness": 0.779,
    "touches_content_border": false,
    "centroid_source_px": [
     5486,
     5955
    ],
    "split_by_numerals": false,
    "streets_matched": [],
    "nearby_text": [
     "Bank",
     "Jewelry",
     "TANK."
    ],
    "centroid_map": [
     356627.207,
     3092075.472
    ]
   }
  }
 ]
}