{
 "type": "FeatureCollection",
 "georeference": {
  "rms_m": 63.725038183982456,
  "n_labels": 6,
  "from": "01352_1889-0003_georef.json"
 },
 "source_blocks": "runs/hunyuan/Sanborn_Hillsborough-County/1889/0003/01352_1889-0003_blocks_px.geojson",
 "lot_convention": "numbered",
 "note": "blocks: polygons with lots inside and streets around them; streets_1895 = OCR street labels around the block that matched the modern layer, streets_modern = modern centrelines within --block-street-reach-m of the polygon, nearby_text = other OCR text the tracer saw nearby",
 "features": [
  {
   "type": "Feature",
   "geometry": {
    "type": "Polygon",
    "coordinates": [
     [
      [
       -82.458326,
       27.9482792
      ],
      [
       -82.4584138,
       27.9482486
      ],
      [
       -82.4584289,
       27.9482574
      ],
      [
       -82.4584375,
       27.9482553
      ],
      [
       -82.458446,
       27.9482364
      ],
      [
       -82.4586406,
       27.9481661
      ],
      [
       -82.4586487,
       27.9481743
      ],
      [
       -82.4586552,
       27.948175
      ],
      [
       -82.4586621,
       27.9481576
      ],
      [
       -82.4588115,
       27.9481036
      ],
      [
       -82.4588268,
       27.9481113
      ],
      [
       -82.4588321,
       27.9480954
      ],
      [
       -82.4588871,
       27.9480773
      ],
      [
       -82.4589051,
       27.948067
      ],
      [
       -82.4588079,
       27.9478521
      ],
      [
       -82.458817,
       27.9478395
      ],
      [
       -82.4588105,
       27.9478222
      ],
      [
       -82.4587913,
       27.9478169
      ],
      [
       -82.4587316,
       27.9476844
      ],
      [
       -82.4587421,
       27.9476762
      ],
      [
       -82.4587389,
       27.9476653
      ],
      [
       -82.4587193,
       27.9476592
      ],
      [
       -82.4586626,
       27.9475371
      ],
      [
       -82.4586007,
       27.9475586
      ],
      [
       -82.4585894,
       27.9475496
      ],
      [
       -82.458574,
       27.9475529
      ],
      [
       -82.4585684,
       27.9475709
      ],
      [
       -82.4584984,
       27.9475932
      ],
      [
       -82.4584924,
       27.9475988
      ],
      [
       -82.4584641,
       27.9476087
      ],
      [
       -82.4584526,
       27.9476017
      ],
      [
       -82.4584406,
       27.9476039
      ],
      [
       -82.4584323,
       27.9476207
      ],
      [
       -82.4583967,
       27.9476342
      ],
      [
       -82.4583881,
       27.9476276
      ],
      [
       -82.4583808,
       27.9476277
      ],
      [
       -82.4583687,
       27.9476334
      ],
      [
       -82.4583639,
       27.9476466
      ],
      [
       -82.4582647,
       27.9476831
      ],
      [
       -82.4582559,
       27.9476822
      ],
      [
       -82.4582501,
       27.9476882
      ],
      [
       -82.4580844,
       27.9477524
      ],
      [
       -82.4580905,
       27.9477688
      ],
      [
       -82.4580837,
       27.9477776
      ],
      [
       -82.4580921,
       27.9477917
      ],
      [
       -82.4581037,
       27.9477961
      ],
      [
       -82.4581214,
       27.9478364
      ],
      [
       -82.458112,
       27.9478442
      ],
      [
       -82.4581167,
       27.9478575
      ],
      [
       -82.4581338,
       27.9478631
      ],
      [
       -82.4581476,
       27.9478943
      ],
      [
       -82.4581401,
       27.9479028
      ],
      [
       -82.4581443,
       27.9479199
      ],
      [
       -82.4581606,
       27.9479237
      ],
      [
       -82.4581808,
       27.9479696
      ],
      [
       -82.4581699,
       27.9479779
      ],
      [
       -82.4581736,
       27.9479901
      ],
      [
       -82.4581806,
       27.9479996
      ],
      [
       -82.4581961,
       27.9480017
      ],
      [
       -82.4582355,
       27.9480884
      ],
      [
       -82.4582252,
       27.948098
      ],
      [
       -82.458227,
       27.9481073
      ],
      [
       -82.4582319,
       27.9481132
      ],
      [
       -82.4582482,
       27.948117
      ],
      [
       -82.4583071,
       27.9482428
      ],
      [
       -82.4582956,
       27.9482523
      ],
      [
       -82.458298,
       27.948263
      ],
      [
       -82.4583032,
       27.9482696
      ],
      [
       -82.4583199,
       27.9482718
      ],
      [
       -82.458326,
       27.9482792
      ]
     ]
    ]
   },
   "properties": {
    "sheet": "01352_1889-0003",
    "block_id": "01352_1889-0003:block:3",
    "block_number": "3",
    "block_number_inferred": false,
    "lot_numbers": [
     "1",
     "2",
     "7",
     "18",
     "19",
     "2\u00bd",
     "106",
     "321",
     "418",
     "419",
     "420",
     "421",
     "477",
     "321\u00bd"
    ],
    "street_names": [],
    "area_source_px2": 1499937,
    "centroid_source_px": [
     4993,
     1359
    ],
    "n_outlines": 13,
    "compactness": 0.684,
    "streets_through": [],
    "merged_across": null,
    "streets_1895": [],
    "streets_modern": [
     {
      "name": "EAST KENNEDY BLVD",
      "distance_m": 8.9,
      "bearing_deg": 186,
      "side": "S",
      "ring_share": 0.33
     },
     {
      "name": "NORTH FRANKLIN ST",
      "distance_m": 10.4,
      "bearing_deg": 93,
      "side": "E",
      "ring_share": 0.43
     },
     {
      "name": "EAST MADISON ST",
      "distance_m": 11.6,
      "bearing_deg": 2,
      "side": "N",
      "ring_share": 0.26
     },
     {
      "name": "NORTH TAMPA ST",
      "distance_m": 13.4,
      "bearing_deg": 252,
      "side": "W",
      "ring_share": 0.14
     }
    ],
    "nearby_text": [],
    "centroid_map": [
     356519.619,
     3092287.974
    ],
    "is_block": true
   }
  },
  {
   "type": "Feature",
   "geometry": {
    "type": "Polygon",
    "coordinates": [
     [
      [
       -82.4591312,
       27.9479868
      ],
      [
       -82.4592983,
       27.9479296
      ],
      [
       -82.4593123,
       27.9479357
      ],
      [
       -82.4593188,
       27.9479224
      ],
      [
       -82.4594292,
       27.947882
      ],
      [
       -82.459444,
       27.9478888
      ],
      [
       -82.4594502,
       27.9478747
      ],
      [
       -82.4597236,
       27.9477755
      ],
      [
       -82.4597363,
       27.947785
      ],
      [
       -82.4597436,
       27.9477825
      ],
      [
       -82.4597412,
       27.9477694
      ],
      [
       -82.4597233,
       27.9477721
      ],
      [
       -82.4596168,
       27.947531
      ],
      [
       -82.4596188,
       27.9475228
      ],
      [
       -82.4596281,
       27.9475235
      ],
      [
       -82.4596327,
       27.9475174
      ],
      [
       -82.4595058,
       27.9472414
      ],
      [
       -82.4594241,
       27.9472679
      ],
      [
       -82.459416,
       27.9472597
      ],
      [
       -82.4594094,
       27.947259
      ],
      [
       -82.4593981,
       27.9472639
      ],
      [
       -82.4593929,
       27.9472787
      ],
      [
       -82.4592631,
       27.9473249
      ],
      [
       -82.4592521,
       27.9473167
      ],
      [
       -82.4592383,
       27.9473186
      ],
      [
       -82.4592341,
       27.947323
      ],
      [
       -82.4592337,
       27.9473362
      ],
      [
       -82.459086,
       27.9473876
      ],
      [
       -82.4590751,
       27.9473794
      ],
      [
       -82.459062,
       27.947383
      ],
      [
       -82.4590543,
       27.9473986
      ],
      [
       -82.4588937,
       27.9474566
      ],
      [
       -82.4589077,
       27.9474947
      ],
      [
       -82.4588994,
       27.9475
      ],
      [
       -82.458898,
       27.947507
      ],
      [
       -82.4589045,
       27.9475218
      ],
      [
       -82.4589227,
       27.9475274
      ],
      [
       -82.4589466,
       27.9475815
      ],
      [
       -82.45894,
       27.9475868
      ],
      [
       -82.4589377,
       27.9475971
      ],
      [
       -82.4589441,
       27.9476114
      ],
      [
       -82.4589529,
       27.9476213
      ],
      [
       -82.4589627,
       27.9476218
      ],
      [
       -82.4589677,
       27.9476266
      ],
      [
       -82.4590059,
       27.9477132
      ],
      [
       -82.4589969,
       27.9477208
      ],
      [
       -82.4590016,
       27.9477417
      ],
      [
       -82.4590201,
       27.9477453
      ],
      [
       -82.4590811,
       27.9478784
      ],
      [
       -82.4590726,
       27.9478858
      ],
      [
       -82.4590758,
       27.9479022
      ],
      [
       -82.4590927,
       27.9479048
      ],
      [
       -82.4591312,
       27.9479868
      ]
     ]
    ]
   },
   "properties": {
    "sheet": "01352_1889-0003",
    "block_id": "01352_1889-0003:block:2",
    "block_number": "2",
    "block_number_inferred": false,
    "lot_numbers": [
     "0",
     "1",
     "2",
     "10",
     "30",
     "102",
     "103",
     "104",
     "308",
     "309"
    ],
    "street_names": [
     "MADISON"
    ],
    "area_source_px2": 1543817,
    "centroid_source_px": [
     3306,
     1381
    ],
    "n_outlines": 6,
    "compactness": 0.688,
    "streets_through": [],
    "merged_across": null,
    "streets_1895": [
     {
      "label_1895": "MADISON",
      "modern": [
       "MADISON AVE",
       "EAST MADISON ST"
      ],
      "side": "N",
      "distance_px": 129,
      "residual_m": 1.11
     }
    ],
    "streets_modern": [
     {
      "name": "NORTH TAMPA ST",
      "distance_m": 7.3,
      "bearing_deg": 66,
      "side": "NE",
      "ring_share": 0.43
     },
     {
      "name": "EAST KENNEDY BLVD",
      "distance_m": 8.1,
      "bearing_deg": 189,
      "side": "S",
      "ring_share": 0.36
     },
     {
      "name": "NORTH ASHLEY DR",
      "distance_m": 11.8,
      "bearing_deg": 285,
      "side": "W",
      "ring_share": 0.19
     },
     {
      "name": "EAST MADISON ST",
      "distance_m": 13.5,
      "bearing_deg": 355,
      "side": "N",
      "ring_share": 0.25
     }
    ],
    "nearby_text": [
     "LAFAYETTE"
    ],
    "centroid_map": [
     356438.719,
     3092256.144
    ],
    "is_block": true
   }
  },
  {
   "type": "Feature",
   "geometry": {
    "type": "Polygon",
    "coordinates": [
     [
      [
       -82.4579466,
       27.9477245
      ],
      [
       -82.4579595,
       27.9477155
      ],
      [
       -82.4579747,
       27.9476812
      ],
      [
       -82.4580154,
       27.9476346
      ],
      [
       -82.4580521,
       27.9476068
      ],
      [
       -82.4580977,
       27.9475814
      ],
      [
       -82.4581764,
       27.9475495
      ],
      [
       -82.4585872,
       27.947402
      ],
      [
       -82.4586004,
       27.9474103
      ],
      [
       -82.4586125,
       27.9474096
      ],
      [
       -82.4586179,
       27.9474053
      ],
      [
       -82.4586162,
       27.9473849
      ],
      [
       -82.4586075,
       27.9473844
      ],
      [
       -82.4585903,
       27.9473924
      ],
      [
       -82.4585839,
       27.9473906
      ],
      [
       -82.4585751,
       27.9473707
      ],
      [
       -82.4585853,
       27.9473621
      ],
      [
       -82.4585869,
       27.9473516
      ],
      [
       -82.4585775,
       27.9473444
      ],
      [
       -82.4585733,
       27.9473349
      ],
      [
       -82.4585756,
       27.9473286
      ],
      [
       -82.4585557,
       27.9472861
      ],
      [
       -82.4585647,
       27.9472734
      ],
      [
       -82.4585554,
       27.9472522
      ],
      [
       -82.4585379,
       27.9472483
      ],
      [
       -82.4585228,
       27.9472141
      ],
      [
       -82.4585153,
       27.9472112
      ],
      [
       -82.4584809,
       27.9471383
      ],
      [
       -82.4584903,
       27.9471305
      ],
      [
       -82.4584867,
       27.9471158
      ],
      [
       -82.4584679,
       27.9471103
      ],
      [
       -82.4584199,
       27.9470066
      ],
      [
       -82.4584299,
       27.9469987
      ],
      [
       -82.4584257,
       27.9469841
      ],
      [
       -82.4584071,
       27.9469776
      ],
      [
       -82.4583541,
       27.9468627
      ],
      [
       -82.4583629,
       27.9468547
      ],
      [
       -82.4583595,
       27.9468418
      ],
      [
       -82.4583422,
       27.9468359
      ],
      [
       -82.4583285,
       27.9468137
      ],
      [
       -82.4581287,
       27.9468848
      ],
      [
       -82.458116,
       27.9468827
      ],
      [
       -82.4581092,
       27.9468916
      ],
      [
       -82.4580189,
       27.946924
      ],
      [
       -82.4580013,
       27.9469172
      ],
      [
       -82.4579944,
       27.9469335
      ],
      [
       -82.4579265,
       27.9469582
      ],
      [
       -82.4579052,
       27.9469621
      ],
      [
       -82.4577491,
       27.94702
      ],
      [
       -82.4577443,
       27.9470256
      ],
      [
       -82.4577464,
       27.9470444
      ],
      [
       -82.4577362,
       27.9470544
      ],
      [
       -82.4577463,
       27.9470609
      ],
      [
       -82.45775,
       27.9470691
      ],
      [
       -82.457758,
       27.9470708
      ],
      [
       -82.4577695,
       27.9470943
      ],
      [
       -82.4577591,
       27.9471024
      ],
      [
       -82.4577638,
       27.9471157
      ],
      [
       -82.4577804,
       27.947119
      ],
      [
       -82.4577802,
       27.947135
      ],
      [
       -82.4577903,
       27.94714
      ],
      [
       -82.4577931,
       27.9471465
      ],
      [
       -82.457782,
       27.9471569
      ],
      [
       -82.4577877,
       27.9471699
      ],
      [
       -82.4578052,
       27.9471738
      ],
      [
       -82.457813,
       27.947189
      ],
      [
       -82.4578034,
       27.9471979
      ],
      [
       -82.4578055,
       27.9472101
      ],
      [
       -82.4578238,
       27.9472133
      ],
      [
       -82.4578278,
       27.9472224
      ],
      [
       -82.4578185,
       27.9472346
      ],
      [
       -82.4578275,
       27.9472409
      ],
      [
       -82.4578266,
       27.9472477
      ],
      [
       -82.4578333,
       27.9472604
      ],
      [
       -82.4578488,
       27.947265
      ],
      [
       -82.4578577,
       27.9472824
      ],
      [
       -82.4578595,
       27.9472892
      ],
      [
       -82.4578514,
       27.947295
      ],
      [
       -82.4578513,
       27.9473036
      ],
      [
       -82.4578547,
       27.9473089
      ],
      [
       -82.4578697,
       27.9473122
      ],
      [
       -82.4578731,
       27.94732
      ],
      [
       -82.4578641,
       27.9473326
      ],
      [
       -82.4578746,
       27.9473589
      ],
      [
       -82.4579117,
       27.9474214
      ],
      [
       -82.4579125,
       27.9474371
      ],
      [
       -82.457929,
       27.9474389
      ],
      [
       -82.4579351,
       27.9474527
      ],
      [
       -82.4579286,
       27.9474595
      ],
      [
       -82.4579318,
       27.9474744
      ],
      [
       -82.4579429,
       27.947478
      ],
      [
       -82.457954,
       27.9474916
      ],
      [
       -82.4579609,
       27.9475072
      ],
      [
       -82.4579528,
       27.9475145
      ],
      [
       -82.4579557,
       27.9475285
      ],
      [
       -82.4579722,
       27.9475327
      ],
      [
       -82.4579796,
       27.9475471
      ],
      [
       -82.4579575,
       27.9475708
      ],
      [
       -82.4579449,
       27.9475627
      ],
      [
       -82.4579327,
       27.947567
      ],
      [
       -82.4579306,
       27.9475737
      ],
      [
       -82.4579398,
       27.9475855
      ],
      [
       -82.4579221,
       27.9475951
      ],
      [
       -82.4579165,
       27.9476131
      ],
      [
       -82.4579161,
       27.9476262
      ],
      [
       -82.4579249,
       27.9476436
      ],
      [
       -82.4579301,
       27.9476463
      ],
      [
       -82.4579406,
       27.9476791
      ],
      [
       -82.4579503,
       27.9476897
      ],
      [
       -82.4579499,
       27.9477028
      ],
      [
       -82.4579409,
       27.9477155
      ],
      [
       -82.4579466,
       27.9477245
      ]
     ]
    ]
   },
   "properties": {
    "sheet": "01352_1889-0003",
    "block_id": "01352_1889-0003:block:4",
    "block_number": "4",
    "block_number_inferred": false,
    "lot_numbers": [
     "0",
     "1",
     "2",
     "3",
     "4",
     "7",
     "8",
     "12",
     "19",
     "30",
     "108",
     "112",
     "113",
     "116",
     "117",
     "118",
     "119",
     "317",
     "319",
     "411"
    ],
    "street_names": [
     "TAMPA"
    ],
    "area_source_px2": 1730783,
    "centroid_source_px": [
     5041,
     2964
    ],
    "n_outlines": 14,
    "compactness": 0.543,
    "streets_through": [],
    "merged_across": null,
    "streets_1895": [
     {
      "label_1895": "TAMPA",
      "modern": [
       "NORTH TAMPA ST",
       "SOUTH TAMPA ST"
      ],
      "side": "SW",
      "distance_px": 133,
      "residual_m": 2.9
     }
    ],
    "streets_modern": [
     {
      "name": "EAST KENNEDY BLVD",
      "distance_m": 0.1,
      "bearing_deg": 23,
      "side": "NE",
      "ring_share": 0.34
     },
     {
      "name": "NORTH FRANKLIN ST",
      "distance_m": 0.2,
      "bearing_deg": 23,
      "side": "NE",
      "ring_share": 0.62
     },
     {
      "name": "NORTH TAMPA ST",
      "distance_m": 13.3,
      "bearing_deg": 283,
      "side": "W",
      "ring_share": 0.22
     },
     {
      "name": "EAST JACKSON ST",
      "distance_m": 13.4,
      "bearing_deg": 157,
      "side": "SE",
      "ring_share": 0.1
     }
    ],
    "nearby_text": [
     "Creek.",
     "FRANK",
     "TAMPA STEAM STREET RY."
    ],
    "centroid_map": [
     356551.207,
     3092211.5
    ],
    "is_block": true
   }
  },
  {
   "type": "Feature",
   "geometry": {
    "type": "Polygon",
    "coordinates": [
     [
      [
       -82.4594026,
       27.947041
      ],
      [
       -82.4593107,
       27.9468902
      ],
      [
       -82.4593169,
       27.9468801
      ],
      [
       -82.4593146,
       27.9468684
      ],
      [
       -82.459307,
       27.9468601
      ],
      [
       -82.4592889,
       27.9468549
      ],
      [
       -82.4591731,
       27.9466639
      ],
      [
       -82.4591799,
       27.9466551
      ],
      [
       -82.4591718,
       27.9466394
      ],
      [
       -82.4591538,
       27.9466342
      ],
      [
       -82.4590994,
       27.9465442
      ],
      [
       -82.4590938,
       27.9465417
      ],
      [
       -82.4590076,
       27.9465707
      ],
      [
       -82.4589942,
       27.9465659
      ],
      [
       -82.4589753,
       27.9465829
      ],
      [
       -82.4588511,
       27.9466252
      ],
      [
       -82.4588384,
       27.9466181
      ],
      [
       -82.4588253,
       27.9466357
      ],
      [
       -82.4586546,
       27.9466961
      ],
      [
       -82.4586361,
       27.9466951
      ],
      [
       -82.4586293,
       27.9467049
      ],
      [
       -82.4585612,
       27.9467317
      ],
      [
       -82.4586421,
       27.9469123
      ],
      [
       -82.4586324,
       27.9469222
      ],
      [
       -82.4586392,
       27.9469403
      ],
      [
       -82.4586569,
       27.9469446
      ],
      [
       -82.4587773,
       27.9472019
      ],
      [
       -82.4587672,
       27.9472084
      ],
      [
       -82.458769,
       27.9472188
      ],
      [
       -82.458777,
       27.9472305
      ],
      [
       -82.4587908,
       27.9472326
      ],
      [
       -82.4587998,
       27.947253
      ],
      [
       -82.4588054,
       27.9472566
      ],
      [
       -82.4590154,
       27.9471819
      ],
      [
       -82.4590294,
       27.947188
      ],
      [
       -82.4590364,
       27.9471746
      ],
      [
       -82.4590661,
       27.9471642
      ],
      [
       -82.4590748,
       27.9471712
      ],
      [
       -82.4590828,
       27.9471714
      ],
      [
       -82.4590888,
       27.9471673
      ],
      [
       -82.4590902,
       27.9471564
      ],
      [
       -82.4592833,
       27.9470866
      ],
      [
       -82.4592913,
       27.9470958
      ],
      [
       -82.459303,
       27.9470957
      ],
      [
       -82.4593105,
       27.9470871
      ],
      [
       -82.4593111,
       27.9470769
      ],
      [
       -82.4594026,
       27.947041
      ]
     ]
    ]
   },
   "properties": {
    "sheet": "01352_1889-0003",
    "block_id": "01352_1889-0003:block:5",
    "block_number": "5",
    "block_number_inferred": false,
    "lot_numbers": [
     "0",
     "1",
     "2",
     "15",
     "109",
     "110",
     "219",
     "220",
     "307"
    ],
    "street_names": [
     "ASHLEY",
     "TAMPA"
    ],
    "area_source_px2": 1445889,
    "centroid_source_px": [
     3355,
     3051
    ],
    "n_outlines": 2,
    "compactness": 0.725,
    "streets_through": [],
    "merged_across": null,
    "streets_1895": [
     {
      "label_1895": "ASHLEY",
      "modern": [
       "ASHLEY ST",
       "NORTH ASHLEY ST",
       "SOUTH ASHLEY DR",
       "NORTH ASHLEY DR"
      ],
      "side": "W",
      "distance_px": 87,
      "residual_m": 2.95
     },
     {
      "label_1895": "TAMPA",
      "modern": [
       "NORTH TAMPA ST",
       "SOUTH TAMPA ST"
      ],
      "side": "E",
      "distance_px": 112,
      "residual_m": 2.9
     }
    ],
    "streets_modern": [
     {
      "name": "NORTH TAMPA ST",
      "distance_m": 6.6,
      "bearing_deg": 80,
      "side": "E",
      "ring_share": 0.28
     },
     {
      "name": "NORTH ASHLEY DR",
      "distance_m": 9.6,
      "bearing_deg": 221,
      "side": "SW",
      "ring_share": 0.28
     },
     {
      "name": "EAST JACKSON ST",
      "distance_m": 10.8,
      "bearing_deg": 158,
      "side": "S",
      "ring_share": 0.26
     },
     {
      "name": "EAST KENNEDY BLVD",
      "distance_m": 12.6,
      "bearing_deg": 313,
      "side": "NW",
      "ring_share": 0.36
     }
    ],
    "nearby_text": [
     "JACKSON",
     "LAFAYETTE",
     "TAMPA STEAM STREET RY."
    ],
    "centroid_map": [
     356471.54,
     3092176.556
    ],
    "is_block": true
   }
  },
  {
   "type": "Feature",
   "geometry": {
    "type": "Polygon",
    "coordinates": [
     [
      [
       -82.4593715,
       27.9464904
      ],
      [
       -82.4593825,
       27.9464911
      ],
      [
       -82.4595776,
       27.9464067
      ],
      [
       -82.4595923,
       27.946407
      ],
      [
       -82.4597552,
       27.9463363
      ],
      [
       -82.4597549,
       27.9463279
      ],
      [
       -82.4596866,
       27.9462013
      ],
      [
       -82.4596756,
       27.9462007
      ],
      [
       -82.4596579,
       27.9462153
      ],
      [
       -82.4595788,
       27.9462604
      ],
      [
       -82.4595773,
       27.9462659
      ],
      [
       -82.4595925,
       27.946294
      ],
      [
       -82.4595903,
       27.9462978
      ],
      [
       -82.4593325,
       27.9464071
      ],
      [
       -82.4593442,
       27.9464375
      ],
      [
       -82.4593396,
       27.9464436
      ],
      [
       -82.4593412,
       27.94646
      ],
      [
       -82.4593587,
       27.9464639
      ],
      [
       -82.4593715,
       27.9464904
      ]
     ]
    ]
   },
   "properties": {
    "sheet": "01352_1889-0003",
    "block_id": "01352_1889-0003:block:fid7",
    "block_number": null,
    "block_number_inferred": false,
    "lot_numbers": [
     "2",
     "213"
    ],
    "street_names": [],
    "area_source_px2": 192115,
    "centroid_source_px": [
     1883,
     3727
    ],
    "n_outlines": 1,
    "compactness": 0.487,
    "streets_through": [],
    "merged_across": null,
    "streets_1895": [],
    "streets_modern": [
     {
      "name": "NORTH ASHLEY DR",
      "distance_m": 3.0,
      "bearing_deg": 62,
      "side": "NE",
      "ring_share": 0.42
     },
     {
      "name": "EAST JACKSON ST",
      "distance_m": 9.9,
      "bearing_deg": 88,
      "side": "E",
      "ring_share": 0.26
     }
    ],
    "nearby_text": [
     "Gen't Storage."
    ],
    "centroid_map": [
     356412.931,
     3092117.129
    ],
    "is_block": true
   }
  },
  {
   "type": "Feature",
   "geometry": {
    "type": "Polygon",
    "coordinates": [
     [
      [
       -82.4592404,
       27.9463857
      ],
      [
       -82.4594348,
       27.9463025
      ],
      [
       -82.4594554,
       27.9462893
      ],
      [
       -82.4594053,
       27.9461949
      ],
      [
       -82.4594372,
       27.9461793
      ],
      [
       -82.4594311,
       27.9461629
      ],
      [
       -82.4594373,
       27.9461298
      ],
      [
       -82.4594307,
       27.9460957
      ],
      [
       -82.4594156,
       27.9460729
      ],
      [
       -82.4593875,
       27.9460577
      ],
      [
       -82.4593635,
       27.9460556
      ],
      [
       -82.459331,
       27.9460624
      ],
      [
       -82.4592933,
       27.9460776
      ],
      [
       -82.4592666,
       27.9460783
      ],
      [
       -82.4592617,
       27.9460826
      ],
      [
       -82.459265,
       27.9460899
      ],
      [
       -82.4592607,
       27.9460969
      ],
      [
       -82.4592521,
       27.9460964
      ],
      [
       -82.4590646,
       27.9461802
      ],
      [
       -82.4590708,
       27.946194
      ],
      [
       -82.4590651,
       27.9462055
      ],
      [
       -82.4590745,
       27.9462242
      ],
      [
       -82.4590889,
       27.9462262
      ],
      [
       -82.4591067,
       27.9462589
      ],
      [
       -82.4590994,
       27.946269
      ],
      [
       -82.4591086,
       27.9462873
      ],
      [
       -82.4591235,
       27.9462905
      ],
      [
       -82.4591328,
       27.9463013
      ],
      [
       -82.4591815,
       27.9462804
      ],
      [
       -82.4591883,
       27.9462819
      ],
      [
       -82.4591869,
       27.9462889
      ],
      [
       -82.4592063,
       27.9463251
      ],
      [
       -82.4591982,
       27.9463335
      ],
      [
       -82.4592009,
       27.9463435
      ],
      [
       -82.4592186,
       27.9463478
      ],
      [
       -82.4592404,
       27.9463857
      ]
     ]
    ]
   },
   "properties": {
    "sheet": "01352_1889-0003",
    "block_id": "01352_1889-0003:block:fid10",
    "block_number": null,
    "block_number_inferred": false,
    "lot_numbers": [
     "2",
     "3",
     "211",
     "9104",
     "9105"
    ],
    "street_names": [],
    "area_source_px2": 323647,
    "centroid_source_px": [
     2264,
     4204
    ],
    "n_outlines": 2,
    "compactness": 0.657,
    "streets_through": [],
    "merged_across": null,
    "streets_1895": [],
    "streets_modern": [
     {
      "name": "NORTH ASHLEY DR",
      "distance_m": 0.1,
      "bearing_deg": 48,
      "side": "NE",
      "ring_share": 0.53
     },
     {
      "name": "EAST JACKSON ST",
      "distance_m": 1.7,
      "bearing_deg": 15,
      "side": "N",
      "ring_share": 0.36
     }
    ],
    "nearby_text": [
     "DOCK."
    ],
    "centroid_map": [
     356439.992,
     3092101.09
    ],
    "is_block": true
   }
  },
  {
   "type": "Feature",
   "geometry": {
    "type": "Polygon",
    "coordinates": [
     [
      [
       -82.4576515,
       27.9468207
      ],
      [
       -82.4577154,
       27.9467984
      ],
      [
       -82.4577397,
       27.9468039
      ],
      [
       -82.457749,
       27.9467867
      ],
      [
       -82.4578808,
       27.9467373
      ],
      [
       -82.4579048,
       27.9467344
      ],
      [
       -82.4579111,
       27.9467258
      ],
      [
       -82.4579736,
       27.946703
      ],
      [
       -82.457982,
       27.9467106
      ],
      [
       -82.4579903,
       27.9467102
      ],
      [
       -82.4579989,
       27.9466952
      ],
      [
       -82.4581094,
       27.9466537
      ],
      [
       -82.4581263,
       27.9466628
      ],
      [
       -82.4581342,
       27.9466451
      ],
      [
       -82.4582382,
       27.9466054
      ],
      [
       -82.4581411,
       27.9463944
      ],
      [
       -82.4581521,
       27.9463861
      ],
      [
       -82.4581494,
       27.946375
      ],
      [
       -82.4581302,
       27.9463697
      ],
      [
       -82.4580711,
       27.946241
      ],
      [
       -82.4580809,
       27.9462325
      ],
      [
       -82.4580761,
       27.9462192
      ],
      [
       -82.4580583,
       27.9462144
      ],
      [
       -82.4579952,
       27.9460806
      ],
      [
       -82.4579612,
       27.9460914
      ],
      [
       -82.4579521,
       27.9460836
      ],
      [
       -82.4579456,
       27.9460828
      ],
      [
       -82.4579333,
       27.9460881
      ],
      [
       -82.45793,
       27.9461023
      ],
      [
       -82.4578631,
       27.9461266
      ],
      [
       -82.4578515,
       27.9461196
      ],
      [
       -82.4578371,
       27.9461226
      ],
      [
       -82.4578269,
       27.9461402
      ],
      [
       -82.457758,
       27.9461651
      ],
      [
       -82.4577471,
       27.9461595
      ],
      [
       -82.4577394,
       27.9461611
      ],
      [
       -82.4577311,
       27.9461755
      ],
      [
       -82.4577092,
       27.9461832
      ],
      [
       -82.4576944,
       27.9461778
      ],
      [
       -82.4576754,
       27.9461959
      ],
      [
       -82.4576462,
       27.9462061
      ],
      [
       -82.4576352,
       27.9462004
      ],
      [
       -82.4576222,
       27.946204
      ],
      [
       -82.4576139,
       27.9462183
      ],
      [
       -82.4574135,
       27.9462906
      ],
      [
       -82.4574058,
       27.9462973
      ],
      [
       -82.4574172,
       27.9463258
      ],
      [
       -82.457406,
       27.9463362
      ],
      [
       -82.4574131,
       27.9463497
      ],
      [
       -82.4574293,
       27.9463506
      ],
      [
       -82.4575225,
       27.9465514
      ],
      [
       -82.457512,
       27.9465595
      ],
      [
       -82.457518,
       27.9465769
      ],
      [
       -82.4575386,
       27.9465867
      ],
      [
       -82.4576093,
       27.9467365
      ],
      [
       -82.4576002,
       27.9467426
      ],
      [
       -82.4576006,
       27.9467525
      ],
      [
       -82.4576079,
       27.9467639
      ],
      [
       -82.4576246,
       27.9467686
      ],
      [
       -82.4576515,
       27.9468207
      ]
     ]
    ]
   },
   "properties": {
    "sheet": "01352_1889-0003",
    "block_id": "01352_1889-0003:block:7",
    "block_number": "7",
    "block_number_inferred": false,
    "lot_numbers": [
     "1",
     "2",
     "12",
     "22",
     "23",
     "25",
     "36",
     "104",
     "105",
     "108",
     "406"
    ],
    "street_names": [],
    "area_source_px2": 1512234,
    "centroid_source_px": [
     5042,
     4748
    ],
    "n_outlines": 10,
    "compactness": 0.701,
    "streets_through": [],
    "merged_across": null,
    "streets_1895": [],
    "streets_modern": [
     {
      "name": "EAST JACKSON ST",
      "distance_m": 7.4,
      "bearing_deg": 7,
      "side": "N",
      "ring_share": 0.28
     }
    ],
    "nearby_text": [
     "Creek.",
     "STREET",
     "TAMPA STERM S",
     "WOODEN BRIDGE."
    ],
    "centroid_map": [
     356583.794,
     3092125.542
    ],
    "is_block": true
   }
  },
  {
   "type": "Feature",
   "geometry": {
    "type": "Polygon",
    "coordinates": [
     [
      [
       -82.4589487,
       27.9463634
      ],
      [
       -82.4589015,
       27.946254
      ],
      [
       -82.4589106,
       27.9462478
      ],
      [
       -82.4589073,
       27.946234
      ],
      [
       -82.4588902,
       27.9462309
      ],
      [
       -82.4588609,
       27.9461647
      ],
      [
       -82.4588282,
       27.9461161
      ],
      [
       -82.4588368,
       27.9461101
      ],
      [
       -82.4588369,
       27.9461026
      ],
      [
       -82.4588301,
       27.946095
      ],
      [
       -82.4588097,
       27.9460906
      ],
      [
       -82.458757,
       27.9460121
      ],
      [
       -82.4587637,
       27.9460032
      ],
      [
       -82.4587584,
       27.9459911
      ],
      [
       -82.4587386,
       27.945987
      ],
      [
       -82.4586445,
       27.9458479
      ],
      [
       -82.4586297,
       27.9458501
      ],
      [
       -82.4586172,
       27.9458434
      ],
      [
       -82.4586083,
       27.9458486
      ],
      [
       -82.4586038,
       27.9458601
      ],
      [
       -82.4584934,
       27.9459006
      ],
      [
       -82.4584759,
       27.9458966
      ],
      [
       -82.4584613,
       27.9459042
      ],
      [
       -82.4584568,
       27.9459133
      ],
      [
       -82.4582928,
       27.9459724
      ],
      [
       -82.4582821,
       27.9459647
      ],
      [
       -82.4582669,
       27.9459685
      ],
      [
       -82.4582611,
       27.9459834
      ],
      [
       -82.4582259,
       27.9459967
      ],
      [
       -82.4582242,
       27.9460018
      ],
      [
       -82.4583113,
       27.9461952
      ],
      [
       -82.4583037,
       27.9462009
      ],
      [
       -82.4583017,
       27.9462091
      ],
      [
       -82.4583107,
       27.9462244
      ],
      [
       -82.4583263,
       27.9462265
      ],
      [
       -82.4583473,
       27.9462716
      ],
      [
       -82.4583364,
       27.9462799
      ],
      [
       -82.4583409,
       27.9462978
      ],
      [
       -82.4583626,
       27.9463063
      ],
      [
       -82.4584636,
       27.9465248
      ],
      [
       -82.4586087,
       27.9464763
      ],
      [
       -82.4586205,
       27.9464787
      ],
      [
       -82.4586282,
       27.9464695
      ],
      [
       -82.4587438,
       27.9464293
      ],
      [
       -82.4587597,
       27.9464322
      ],
      [
       -82.4588462,
       27.9464001
      ],
      [
       -82.4588597,
       27.9464039
      ],
      [
       -82.4588681,
       27.9463925
      ],
      [
       -82.4589487,
       27.9463634
      ]
     ]
    ]
   },
   "properties": {
    "sheet": "01352_1889-0003",
    "block_id": "01352_1889-0003:block:6",
    "block_number": "6",
    "block_number_inferred": false,
    "lot_numbers": [
     "1",
     "12",
     "1\u00bd",
     "2\u00bd",
     "101",
     "102",
     "103",
     "207",
     "210",
     "216",
     "304",
     "305"
    ],
    "street_names": [
     "WASHINGTON"
    ],
    "area_source_px2": 1191530,
    "centroid_source_px": [
     3487,
     4746
    ],
    "n_outlines": 15,
    "compactness": 0.717,
    "streets_through": [],
    "merged_across": null,
    "streets_1895": [
     {
      "label_1895": "WASHINGTON",
      "modern": [
       "EAST WASHINGTON ST",
       "WEST WASHINGTON ST"
      ],
      "side": "S",
      "distance_px": 132,
      "residual_m": 5.18
     }
    ],
    "streets_modern": [
     {
      "name": "NORTH TAMPA ST",
      "distance_m": 5.3,
      "bearing_deg": 64,
      "side": "NE",
      "ring_share": 0.33
     },
     {
      "name": "EAST WASHINGTON ST",
      "distance_m": 6.1,
      "bearing_deg": 133,
      "side": "SE",
      "ring_share": 0.31
     },
     {
      "name": "NORTH ASHLEY DR",
      "distance_m": 8.7,
      "bearing_deg": 248,
      "side": "W",
      "ring_share": 0.35
     },
     {
      "name": "EAST JACKSON ST",
      "distance_m": 10.5,
      "bearing_deg": 318,
      "side": "NW",
      "ring_share": 0.22
     }
    ],
    "nearby_text": [
     "WOODEN BRIDGE."
    ],
    "centroid_map": [
     356508.818,
     3092097.276
    ],
    "is_block": true
   }
  },
  {
   "type": "Feature",
   "geometry": {
    "type": "Polygon",
    "coordinates": [
     [
      [
       -82.4589815,
       27.9460822
      ],
      [
       -82.4590842,
       27.946027
      ],
      [
       -82.4590994,
       27.9460282
      ],
      [
       -82.4591059,
       27.9460214
      ],
      [
       -82.4590884,
       27.9459945
      ],
      [
       -82.4590979,
       27.9459867
      ],
      [
       -82.4590971,
       27.9459785
      ],
      [
       -82.4590451,
       27.9459052
      ],
      [
       -82.4590488,
       27.945892
      ],
      [
       -82.4590424,
       27.9458827
      ],
      [
       -82.4590343,
       27.945881
      ],
      [
       -82.4590032,
       27.9458983
      ],
      [
       -82.4590012,
       27.945904
      ],
      [
       -82.4590106,
       27.9459152
      ],
      [
       -82.4590222,
       27.9459107
      ],
      [
       -82.4590279,
       27.9459122
      ],
      [
       -82.4590509,
       27.9459492
      ],
      [
       -82.4590213,
       27.945966
      ],
      [
       -82.4589819,
       27.9459647
      ],
      [
       -82.4589512,
       27.9459499
      ],
      [
       -82.4589335,
       27.9459291
      ],
      [
       -82.4589215,
       27.9459018
      ],
      [
       -82.4589166,
       27.9458641
      ],
      [
       -82.4589042,
       27.9458359
      ],
      [
       -82.4588864,
       27.9458121
      ],
      [
       -82.458882,
       27.9457857
      ],
      [
       -82.4588847,
       27.9457663
      ],
      [
       -82.458958,
       27.9457248
      ],
      [
       -82.4590068,
       27.9457358
      ],
      [
       -82.4590212,
       27.9457352
      ],
      [
       -82.4590429,
       27.9457576
      ],
      [
       -82.4590625,
       27.9457473
      ],
      [
       -82.4590568,
       27.9457343
      ],
      [
       -82.4590601,
       27.9457062
      ],
      [
       -82.4590538,
       27.9456754
      ],
      [
       -82.4590607,
       27.9456655
      ],
      [
       -82.4589702,
       27.9455052
      ],
      [
       -82.4589635,
       27.945499
      ],
      [
       -82.4588496,
       27.9455582
      ],
      [
       -82.4588427,
       27.9455681
      ],
      [
       -82.4587709,
       27.9456081
      ],
      [
       -82.4587635,
       27.9456077
      ],
      [
       -82.4587372,
       27.9455584
      ],
      [
       -82.4586728,
       27.9455808
      ],
      [
       -82.4586758,
       27.9455952
      ],
      [
       -82.4586666,
       27.94561
      ],
      [
       -82.4586746,
       27.9456231
      ],
      [
       -82.4586854,
       27.9456219
      ],
      [
       -82.4586962,
       27.9456311
      ],
      [
       -82.458755,
       27.9456126
      ],
      [
       -82.4587525,
       27.945621
      ],
      [
       -82.4587563,
       27.9456272
      ],
      [
       -82.4587472,
       27.9456333
      ],
      [
       -82.4587459,
       27.9456393
      ],
      [
       -82.4587522,
       27.9456511
      ],
      [
       -82.4587701,
       27.9456558
      ],
      [
       -82.4587722,
       27.9456606
      ],
      [
       -82.4587229,
       27.9456903
      ],
      [
       -82.4587306,
       27.945709
      ],
      [
       -82.4587244,
       27.9457167
      ],
      [
       -82.4587259,
       27.9457252
      ],
      [
       -82.4587523,
       27.9457404
      ],
      [
       -82.4588523,
       27.9458904
      ],
      [
       -82.4588514,
       27.9459113
      ],
      [
       -82.4588584,
       27.9459208
      ],
      [
       -82.4588743,
       27.9459237
      ],
      [
       -82.458944,
       27.9460293
      ],
      [
       -82.4589401,
       27.9460407
      ],
      [
       -82.4589435,
       27.946051
      ],
      [
       -82.4589528,
       27.9460633
      ],
      [
       -82.4589664,
       27.9460635
      ],
      [
       -82.4589815,
       27.9460822
      ]
     ]
    ]
   },
   "properties": {
    "sheet": "01352_1889-0003",
    "block_id": "01352_1889-0003:block:fid14",
    "block_number": null,
    "block_number_inferred": false,
    "lot_numbers": [
     "1",
     "205",
     "206",
     "207",
     "208",
     "209"
    ],
    "street_names": [],
    "area_source_px2": 397011,
    "centroid_source_px": [
     2562,
     5396
    ],
    "n_outlines": 7,
    "compactness": 0.22,
    "streets_through": [],
    "merged_across": null,
    "streets_1895": [],
    "streets_modern": [
     {
      "name": "NORTH ASHLEY DR",
      "distance_m": 0.2,
      "bearing_deg": 354,
      "side": "N",
      "ring_share": 0.85
     },
     {
      "name": "EAST WASHINGTON ST",
      "distance_m": 0.7,
      "bearing_deg": 96,
      "side": "E",
      "ring_share": 0.31
     },
     {
      "name": "WEST WASHINGTON ST",
      "distance_m": 1.7,
      "bearing_deg": 99,
      "side": "E",
      "ring_share": 0.46
     }
    ],
    "nearby_text": [
     "DOCK.",
     "DOCKS."
    ],
    "centroid_map": [
     356476.095,
     3092049.08
    ],
    "is_block": true
   }
  },
  {
   "type": "Feature",
   "geometry": {
    "type": "Polygon",
    "coordinates": [
     [
      [
       -82.457313,
       27.9460898
      ],
      [
       -82.4573213,
       27.946087
      ],
      [
       -82.4573315,
       27.9460909
      ],
      [
       -82.4573463,
       27.9460862
      ],
      [
       -82.4573524,
       27.9460936
      ],
      [
       -82.4573594,
       27.9460942
      ],
      [
       -82.4573659,
       27.9460899
      ],
      [
       -82.4573695,
       27.9460777
      ],
      [
       -82.4574086,
       27.946063
      ],
      [
       -82.4574168,
       27.9460702
      ],
      [
       -82.4574243,
       27.9460706
      ],
      [
       -82.4574309,
       27.9460663
      ],
      [
       -82.4574346,
       27.946053
      ],
      [
       -82.4574742,
       27.9460382
      ],
      [
       -82.4574824,
       27.9460453
      ],
      [
       -82.4574899,
       27.9460457
      ],
      [
       -82.4574959,
       27.9460416
      ],
      [
       -82.457498,
       27.9460299
      ],
      [
       -82.4575144,
       27.9460197
      ],
      [
       -82.4575451,
       27.946009
      ],
      [
       -82.4575603,
       27.9460167
      ],
      [
       -82.4575668,
       27.9460124
      ],
      [
       -82.4575705,
       27.9459992
      ],
      [
       -82.4576282,
       27.9459781
      ],
      [
       -82.4576387,
       27.9459854
      ],
      [
       -82.4576484,
       27.945983
      ],
      [
       -82.4576561,
       27.9459674
      ],
      [
       -82.4577342,
       27.9459392
      ],
      [
       -82.4577426,
       27.9459467
      ],
      [
       -82.4577518,
       27.945946
      ],
      [
       -82.4577635,
       27.9459279
      ],
      [
       -82.457826,
       27.9459052
      ],
      [
       -82.4578449,
       27.9459121
      ],
      [
       -82.4578524,
       27.945896
      ],
      [
       -82.4579007,
       27.9458767
      ],
      [
       -82.4578817,
       27.9458338
      ],
      [
       -82.4578905,
       27.9458243
      ],
      [
       -82.4578875,
       27.9458138
      ],
      [
       -82.4578668,
       27.9458026
      ],
      [
       -82.4578147,
       27.9456883
      ],
      [
       -82.4578235,
       27.9456803
      ],
      [
       -82.4578215,
       27.9456655
      ],
      [
       -82.457802,
       27.9456598
      ],
      [
       -82.4577519,
       27.9455513
      ],
      [
       -82.457763,
       27.945546
      ],
      [
       -82.4577614,
       27.9455321
      ],
      [
       -82.4577408,
       27.9455262
      ],
      [
       -82.4576896,
       27.9454127
      ],
      [
       -82.4576967,
       27.9454047
      ],
      [
       -82.4576956,
       27.9453996
      ],
      [
       -82.4576804,
       27.9453944
      ],
      [
       -82.4576573,
       27.9453485
      ],
      [
       -82.4575807,
       27.9453752
      ],
      [
       -82.4575652,
       27.9453731
      ],
      [
       -82.4575509,
       27.9453866
      ],
      [
       -82.4574794,
       27.945412
      ],
      [
       -82.4574636,
       27.9454055
      ],
      [
       -82.4574579,
       27.9454205
      ],
      [
       -82.4573572,
       27.9454575
      ],
      [
       -82.4573527,
       27.9454561
      ],
      [
       -82.4573508,
       27.9454468
      ],
      [
       -82.4573427,
       27.9454451
      ],
      [
       -82.4573371,
       27.9454515
      ],
      [
       -82.4573358,
       27.945465
      ],
      [
       -82.4572258,
       27.9455063
      ],
      [
       -82.4572207,
       27.9455051
      ],
      [
       -82.4572157,
       27.9454938
      ],
      [
       -82.4572083,
       27.9454934
      ],
      [
       -82.4572019,
       27.9455006
      ],
      [
       -82.4572061,
       27.9455102
      ],
      [
       -82.4572003,
       27.9455162
      ],
      [
       -82.4570806,
       27.9455584
      ],
      [
       -82.4570704,
       27.9455659
      ],
      [
       -82.4570793,
       27.9455963
      ],
      [
       -82.4570951,
       27.9456218
      ],
      [
       -82.457169,
       27.9457853
      ],
      [
       -82.4571688,
       27.9457939
      ],
      [
       -82.457174,
       27.9457966
      ],
      [
       -82.4572511,
       27.945961
      ],
      [
       -82.4572669,
       27.946007
      ],
      [
       -82.4573015,
       27.9460804
      ],
      [
       -82.457313,
       27.9460898
      ]
     ]
    ]
   },
   "properties": {
    "sheet": "01352_1889-0003",
    "block_id": "01352_1889-0003:block:8",
    "block_number": "8",
    "block_number_inferred": false,
    "lot_numbers": [
     "2",
     "01",
     "18",
     "19",
     "113",
     "114",
     "115",
     "116",
     "117",
     "118",
     "311",
     "312"
    ],
    "street_names": [],
    "area_source_px2": 1520789,
    "centroid_source_px": [
     5068,
     6439
    ],
    "n_outlines": 3,
    "compactness": 0.677,
    "streets_through": [],
    "merged_across": null,
    "streets_1895": [],
    "streets_modern": [
     {
      "name": "EAST WHITING ST",
      "distance_m": 12.6,
      "bearing_deg": 157,
      "side": "SE",
      "ring_share": 0.27
     }
    ],
    "nearby_text": [],
    "centroid_map": [
     356615.89,
     3092044.523
    ],
    "is_block": true
   }
  },
  {
   "type": "Feature",
   "geometry": {
    "type": "Polygon",
    "coordinates": [
     [
      [
       -82.4581329,
       27.9457938
      ],
      [
       -82.4582191,
       27.9457648
      ],
      [
       -82.4582257,
       27.945772
      ],
      [
       -82.458232,
       27.9457723
      ],
      [
       -82.4582403,
       27.9457554
      ],
      [
       -82.4583501,
       27.9457162
      ],
      [
       -82.4583581,
       27.9457229
      ],
      [
       -82.4583677,
       27.945723
      ],
      [
       -82.4583745,
       27.9457192
      ],
      [
       -82.4583774,
       27.9457067
      ],
      [
       -82.4584482,
       27.945681
      ],
      [
       -82.4584647,
       27.9456878
      ],
      [
       -82.4584762,
       27.9456807
      ],
      [
       -82.4584799,
       27.94567
      ],
      [
       -82.4584965,
       27.9456642
      ],
      [
       -82.4585011,
       27.9456581
      ],
      [
       -82.4584447,
       27.9455304
      ],
      [
       -82.4584512,
       27.9455196
      ],
      [
       -82.4584485,
       27.9455086
      ],
      [
       -82.4584315,
       27.9455005
      ],
      [
       -82.4583198,
       27.9453546
      ],
      [
       -82.4583224,
       27.9453427
      ],
      [
       -82.4583143,
       27.9453255
      ],
      [
       -82.458297,
       27.9453246
      ],
      [
       -82.458172,
       27.9451638
      ],
      [
       -82.4581532,
       27.9451683
      ],
      [
       -82.4581444,
       27.9451574
      ],
      [
       -82.4581371,
       27.9451599
      ],
      [
       -82.4581388,
       27.9451714
      ],
      [
       -82.4581305,
       27.9451782
      ],
      [
       -82.4579862,
       27.9452285
      ],
      [
       -82.4579738,
       27.9452258
      ],
      [
       -82.4579672,
       27.9452351
      ],
      [
       -82.4578916,
       27.9452614
      ],
      [
       -82.457887,
       27.9452675
      ],
      [
       -82.4579312,
       27.945365
      ],
      [
       -82.4579214,
       27.9453709
      ],
      [
       -82.4579221,
       27.9453802
      ],
      [
       -82.4579285,
       27.9453894
      ],
      [
       -82.4579442,
       27.945392
      ],
      [
       -82.4580068,
       27.945526
      ],
      [
       -82.4579975,
       27.9455343
      ],
      [
       -82.4580004,
       27.9455433
      ],
      [
       -82.4580166,
       27.9455481
      ],
      [
       -82.4580658,
       27.9456558
      ],
      [
       -82.4580599,
       27.9456654
      ],
      [
       -82.4580654,
       27.9456829
      ],
      [
       -82.4580821,
       27.9456901
      ],
      [
       -82.4581217,
       27.9457772
      ],
      [
       -82.4581329,
       27.9457938
      ]
     ]
    ]
   },
   "properties": {
    "sheet": "01352_1889-0003",
    "block_id": "01352_1889-0003:block:9",
    "block_number": "9",
    "block_number_inferred": false,
    "lot_numbers": [
     "0",
     "1",
     "9",
     "16",
     "1\u00bd",
     "2\u00bd",
     "109",
     "110",
     "111",
     "265",
     "301",
     "309"
    ],
    "street_names": [
     "WASHINGTON",
     "WHITING"
    ],
    "area_source_px2": 881717,
    "centroid_source_px": [
     3631,
     6433
    ],
    "n_outlines": 8,
    "compactness": 0.67,
    "streets_through": [],
    "merged_across": null,
    "streets_1895": [
     {
      "label_1895": "WHITING",
      "modern": [
       "EAST WHITING ST"
      ],
      "side": "S",
      "distance_px": 84,
      "residual_m": 5.82
     },
     {
      "label_1895": "WASHINGTON",
      "modern": [
       "EAST WASHINGTON ST",
       "WEST WASHINGTON ST"
      ],
      "side": "N",
      "distance_px": 119,
      "residual_m": 5.18
     }
    ],
    "streets_modern": [
     {
      "name": "NORTH TAMPA ST",
      "distance_m": 4.9,
      "bearing_deg": 108,
      "side": "E",
      "ring_share": 0.4
     },
     {
      "name": "EAST WHITING ST",
      "distance_m": 12.0,
      "bearing_deg": 171,
      "side": "S",
      "ring_share": 0.22
     },
     {
      "name": "EAST WASHINGTON ST",
      "distance_m": 15.3,
      "bearing_deg": 348,
      "side": "N",
      "ring_share": 0.14
     }
    ],
    "nearby_text": [],
    "centroid_map": [
     356546.528,
     3092018.602
    ],
    "is_block": true
   }
  },
  {
   "type": "Feature",
   "geometry": {
    "type": "Polygon",
    "coordinates": [
     [
      [
       -82.4586953,
       27.9454636
      ],
      [
       -82.4588804,
       27.9453592
      ],
      [
       -82.4588747,
       27.9453462
      ],
      [
       -82.4588762,
       27.9453381
      ],
      [
       -82.4588976,
       27.9453267
      ],
      [
       -82.4589012,
       27.9453209
      ],
      [
       -82.4587988,
       27.9450928
      ],
      [
       -82.4587748,
       27.9450907
      ],
      [
       -82.458769,
       27.9450967
      ],
      [
       -82.4587607,
       27.9450946
      ],
      [
       -82.4587457,
       27.9450988
      ],
      [
       -82.4587387,
       27.9450828
      ],
      [
       -82.4587482,
       27.9450765
      ],
      [
       -82.4587498,
       27.9450609
      ],
      [
       -82.458743,
       27.9450543
      ],
      [
       -82.4587336,
       27.9450241
      ],
      [
       -82.4587282,
       27.945021
      ],
      [
       -82.4587138,
       27.9450315
      ],
      [
       -82.4586437,
       27.9450589
      ],
      [
       -82.4586619,
       27.9451001
      ],
      [
       -82.4586533,
       27.9451061
      ],
      [
       -82.4586515,
       27.9451122
      ],
      [
       -82.4586596,
       27.9451253
      ],
      [
       -82.4586741,
       27.9451278
      ],
      [
       -82.4586995,
       27.9451879
      ],
      [
       -82.4585438,
       27.9452441
      ],
      [
       -82.4585392,
       27.9452502
      ],
      [
       -82.4585566,
       27.9452871
      ],
      [
       -82.4585481,
       27.9452945
      ],
      [
       -82.4585506,
       27.9453142
      ],
      [
       -82.4585698,
       27.945317
      ],
      [
       -82.4585967,
       27.945369
      ],
      [
       -82.4587652,
       27.9453123
      ],
      [
       -82.4587664,
       27.9453239
      ],
      [
       -82.4587447,
       27.945327
      ],
      [
       -82.4586755,
       27.9453641
      ],
      [
       -82.4586656,
       27.9453835
      ],
      [
       -82.458664,
       27.945399
      ],
      [
       -82.4586718,
       27.9454268
      ],
      [
       -82.4586953,
       27.9454636
      ]
     ]
    ]
   },
   "properties": {
    "sheet": "01352_1889-0003",
    "block_id": "01352_1889-0003:block:fid17",
    "block_number": null,
    "block_number_inferred": false,
    "lot_numbers": [
     "0",
     "1"
    ],
    "street_names": [],
    "area_source_px2": 325823,
    "centroid_source_px": [
     2491,
     6499
    ],
    "n_outlines": 3,
    "compactness": 0.373,
    "streets_through": [],
    "merged_across": null,
    "streets_1895": [],
    "streets_modern": [
     {
      "name": "NORTH ASHLEY DR",
      "distance_m": 3.2,
      "bearing_deg": 70,
      "side": "E",
      "ring_share": 0.33
     }
    ],
    "nearby_text": [
     "DOCKS.",
     "OFF"
    ],
    "centroid_map": [
     356492.792,
     3091994.628
    ],
    "is_block": true
   }
  }
 ]
}