{
 "type": "FeatureCollection",
 "georeference": {
  "rms_m": 63.725038183982456,
  "n_labels": 6,
  "from": "01352_1889-0003_georef.json"
 },
 "note": "street-name changes seen on this sheet: renamed (--alias), respelled (--fuzzy), moved (fit outlier), candidate (unmatched word on a centreline), building (spells a street name but lies inside a traced block). Geometry = the modern street's centreline within the sheet's content box (or the label point if the layer has none there); label_centre_* = where the word sits.",
 "features": [
  {
   "type": "Feature",
   "geometry": {
    "type": "MultiLineString",
    "coordinates": [
     [
      [
       -82.4587699,
       27.9474007
      ],
      [
       -82.4587281,
       27.9473128
      ]
     ],
     [
      [
       -82.4587281,
       27.9473128
      ],
      [
       -82.4585937,
       27.9470016
      ]
     ],
     [
      [
       -82.4585937,
       27.9470016
      ],
      [
       -82.4585865,
       27.9469828
      ]
     ],
     [
      [
       -82.4584397,
       27.9466421
      ],
      [
       -82.4583966,
       27.9465498
      ]
     ],
     [
      [
       -82.4583966,
       27.9465498
      ],
      [
       -82.4581404,
       27.9459812
      ]
     ],
     [
      [
       -82.4581404,
       27.9459812
      ],
      [
       -82.45813,
       27.945958
      ]
     ],
     [
      [
       -82.45813,
       27.945958
      ],
      [
       -82.4580972,
       27.9458863
      ]
     ],
     [
      [
       -82.4580972,
       27.9458863
      ],
      [
       -82.4580011,
       27.9456759
      ]
     ],
     [
      [
       -82.4580011,
       27.9456759
      ],
      [
       -82.4579272,
       27.9455107
      ]
     ],
     [
      [
       -82.4579272,
       27.9455107
      ],
      [
       -82.4578115,
       27.9452523
      ]
     ],
     [
      [
       -82.4578115,
       27.9452523
      ],
      [
       -82.4577762,
       27.9451715
      ]
     ],
     [
      [
       -82.4596132,
       27.9493029
      ],
      [
       -82.4594719,
       27.9489877
      ]
     ],
     [
      [
       -82.4594719,
       27.9489877
      ],
      [
       -82.459428,
       27.94889
      ]
     ],
     [
      [
       -82.459428,
       27.94889
      ],
      [
       -82.4593896,
       27.948803
      ]
     ],
     [
      [
       -82.4593896,
       27.948803
      ],
      [
       -82.4592645,
       27.94852
      ]
     ],
     [
      [
       -82.4592645,
       27.94852
      ],
      [
       -82.4592601,
       27.94851
      ]
     ],
     [
      [
       -82.4592601,
       27.94851
      ],
      [
       -82.4591445,
       27.9482458
      ]
     ],
     [
      [
       -82.4591445,
       27.9482458
      ],
      [
       -82.4590968,
       27.9481406
      ]
     ],
     [
      [
       -82.4590968,
       27.9481406
      ],
      [
       -82.459055,
       27.9480437
      ]
     ],
     [
      [
       -82.459055,
       27.9480437
      ],
      [
       -82.458873,
       27.9476318
      ]
     ],
     [
      [
       -82.458873,
       27.9476318
      ],
      [
       -82.4588157,
       27.947502
      ]
     ],
     [
      [
       -82.4588157,
       27.947502
      ],
      [
       -82.4587699,
       27.9474007
      ]
     ],
     [
      [
       -82.4585865,
       27.9469828
      ],
      [
       -82.4585812,
       27.9469715
      ]
     ],
     [
      [
       -82.4585812,
       27.9469715
      ],
      [
       -82.4585173,
       27.9468268
      ]
     ],
     [
      [
       -82.4585173,
       27.9468268
      ],
      [
       -82.4584916,
       27.9467673
      ]
     ],
     [
      [
       -82.4584916,
       27.9467673
      ],
      [
       -82.4584681,
       27.9467115
      ]
     ],
     [
      [
       -82.4584681,
       27.9467115
      ],
      [
       -82.4584397,
       27.9466421
      ]
     ],
     [
      [
       -82.4577762,
       27.9451715
      ],
      [
       -82.4577366,
       27.9450762
      ]
     ],
     [
      [
       -82.4577366,
       27.9450762
      ],
      [
       -82.4576106,
       27.9447877
      ]
     ],
     [
      [
       -82.4576106,
       27.9447877
      ],
      [
       -82.4576002,
       27.944764
      ]
     ],
     [
      [
       -82.4576002,
       27.944764
      ],
      [
       -82.4573208,
       27.9441485
      ]
     ],
     [
      [
       -82.4573208,
       27.9441485
      ],
      [
       -82.4572889,
       27.9440733
      ]
     ]
    ]
   },
   "properties": {
    "sheet": "01352_1889-0003",
    "label_on_plan": "TAMPA",
    "name_on_plan": "TAMPA",
    "plan_year": 1889,
    "modern_name": [
     "NORTH TAMPA ST",
     "SOUTH TAMPA ST"
    ],
    "modern_source": "data/modern/tampa_streets_epsg32617.geojson",
    "kind": "renamed",
    "distance_m": 155.8,
    "used_in_fit": true,
    "label_centre_wgs84": [
     -82.4601634,
     27.9467084
    ],
    "label_centre_map": [
     356353.702,
     3092156.944
    ],
    "map_epsg": 32617,
    "how": "--alias file"
   }
  },
  {
   "type": "Feature",
   "geometry": {
    "type": "MultiLineString",
    "coordinates": [
     [
      [
       -82.4587699,
       27.9474007
      ],
      [
       -82.4587281,
       27.9473128
      ]
     ],
     [
      [
       -82.4587281,
       27.9473128
      ],
      [
       -82.4585937,
       27.9470016
      ]
     ],
     [
      [
       -82.4585937,
       27.9470016
      ],
      [
       -82.4585865,
       27.9469828
      ]
     ],
     [
      [
       -82.4584397,
       27.9466421
      ],
      [
       -82.4583966,
       27.9465498
      ]
     ],
     [
      [
       -82.4583966,
       27.9465498
      ],
      [
       -82.4581404,
       27.9459812
      ]
     ],
     [
      [
       -82.4581404,
       27.9459812
      ],
      [
       -82.45813,
       27.945958
      ]
     ],
     [
      [
       -82.45813,
       27.945958
      ],
      [
       -82.4580972,
       27.9458863
      ]
     ],
     [
      [
       -82.4580972,
       27.9458863
      ],
      [
       -82.4580011,
       27.9456759
      ]
     ],
     [
      [
       -82.4580011,
       27.9456759
      ],
      [
       -82.4579272,
       27.9455107
      ]
     ],
     [
      [
       -82.4579272,
       27.9455107
      ],
      [
       -82.4578115,
       27.9452523
      ]
     ],
     [
      [
       -82.4578115,
       27.9452523
      ],
      [
       -82.4577762,
       27.9451715
      ]
     ],
     [
      [
       -82.4596132,
       27.9493029
      ],
      [
       -82.4594719,
       27.9489877
      ]
     ],
     [
      [
       -82.4594719,
       27.9489877
      ],
      [
       -82.459428,
       27.94889
      ]
     ],
     [
      [
       -82.459428,
       27.94889
      ],
      [
       -82.4593896,
       27.948803
      ]
     ],
     [
      [
       -82.4593896,
       27.948803
      ],
      [
       -82.4592645,
       27.94852
      ]
     ],
     [
      [
       -82.4592645,
       27.94852
      ],
      [
       -82.4592601,
       27.94851
      ]
     ],
     [
      [
       -82.4592601,
       27.94851
      ],
      [
       -82.4591445,
       27.9482458
      ]
     ],
     [
      [
       -82.4591445,
       27.9482458
      ],
      [
       -82.4590968,
       27.9481406
      ]
     ],
     [
      [
       -82.4590968,
       27.9481406
      ],
      [
       -82.459055,
       27.9480437
      ]
     ],
     [
      [
       -82.459055,
       27.9480437
      ],
      [
       -82.458873,
       27.9476318
      ]
     ],
     [
      [
       -82.458873,
       27.9476318
      ],
      [
       -82.4588157,
       27.947502
      ]
     ],
     [
      [
       -82.4588157,
       27.947502
      ],
      [
       -82.4587699,
       27.9474007
      ]
     ],
     [
      [
       -82.4585865,
       27.9469828
      ],
      [
       -82.4585812,
       27.9469715
      ]
     ],
     [
      [
       -82.4585812,
       27.9469715
      ],
      [
       -82.4585173,
       27.9468268
      ]
     ],
     [
      [
       -82.4585173,
       27.9468268
      ],
      [
       -82.4584916,
       27.9467673
      ]
     ],
     [
      [
       -82.4584916,
       27.9467673
      ],
      [
       -82.4584681,
       27.9467115
      ]
     ],
     [
      [
       -82.4584681,
       27.9467115
      ],
      [
       -82.4584397,
       27.9466421
      ]
     ],
     [
      [
       -82.4577762,
       27.9451715
      ],
      [
       -82.4577366,
       27.9450762
      ]
     ],
     [
      [
       -82.4577366,
       27.9450762
      ],
      [
       -82.4576106,
       27.9447877
      ]
     ],
     [
      [
       -82.4576106,
       27.9447877
      ],
      [
       -82.4576002,
       27.944764
      ]
     ],
     [
      [
       -82.4576002,
       27.944764
      ],
      [
       -82.4573208,
       27.9441485
      ]
     ],
     [
      [
       -82.4573208,
       27.9441485
      ],
      [
       -82.4572889,
       27.9440733
      ]
     ]
    ]
   },
   "properties": {
    "sheet": "01352_1889-0003",
    "label_on_plan": "TAMPA",
    "name_on_plan": "TAMPA",
    "plan_year": 1889,
    "modern_name": [
     "NORTH TAMPA ST",
     "SOUTH TAMPA ST"
    ],
    "modern_source": "data/modern/tampa_streets_epsg32617.geojson",
    "kind": "renamed",
    "distance_m": 2.9,
    "used_in_fit": true,
    "label_centre_wgs84": [
     -82.4585203,
     27.9469053
    ],
    "label_centre_map": [
     356515.626,
     3092176.822
    ],
    "map_epsg": 32617,
    "how": "--alias file"
   }
  },
  {
   "type": "Feature",
   "geometry": {
    "type": "MultiLineString",
    "coordinates": [
     [
      [
       -82.45813,
       27.945958
      ],
      [
       -82.4582333,
       27.9459208
      ]
     ],
     [
      [
       -82.4582333,
       27.9459208
      ],
      [
       -82.4584488,
       27.9458433
      ]
     ],
     [
      [
       -82.4584488,
       27.9458433
      ],
      [
       -82.4584683,
       27.9458362
      ]
     ],
     [
      [
       -82.4584683,
       27.9458362
      ],
      [
       -82.4586367,
       27.9457757
      ]
     ],
     [
      [
       -82.4586367,
       27.9457757
      ],
      [
       -82.4587648,
       27.9457295
      ]
     ],
     [
      [
       -82.4563348,
       27.9465358
      ],
      [
       -82.4560299,
       27.9466384
      ]
     ],
     [
      [
       -82.4564607,
       27.9464956
      ],
      [
       -82.4563348,
       27.9465358
      ]
     ],
     [
      [
       -82.4591131,
       27.9456042
      ],
      [
       -82.4588303,
       27.9457057
      ]
     ],
     [
      [
       -82.4588303,
       27.9457057
      ],
      [
       -82.4587648,
       27.9457295
      ]
     ]
    ]
   },
   "properties": {
    "sheet": "01352_1889-0003",
    "label_on_plan": "WASHINGTON",
    "name_on_plan": "WASHINGTON",
    "plan_year": 1889,
    "modern_name": [
     "EAST WASHINGTON ST",
     "WEST WASHINGTON ST"
    ],
    "modern_source": "data/modern/tampa_streets_epsg32617.geojson",
    "kind": "renamed",
    "distance_m": 5.2,
    "used_in_fit": true,
    "label_centre_wgs84": [
     -82.4583312,
     27.9458352
    ],
    "label_centre_map": [
     356532.814,
     3092058.039
    ],
    "map_epsg": 32617,
    "how": "--alias file"
   }
  },
  {
   "type": "Feature",
   "geometry": {
    "type": "Point",
    "coordinates": [
     -82.4584074,
     27.9485044
    ]
   },
   "properties": {
    "sheet": "01352_1889-0003",
    "label_on_plan": "APRIL 1889",
    "name_on_plan": "APRIL",
    "plan_year": 1889,
    "modern_name": [
     "APRIL LANE"
    ],
    "modern_source": "data/modern/tampa_streets_epsg32617.geojson",
    "kind": "building",
    "distance_m": null,
    "used_in_fit": false,
    "label_centre_wgs84": [
     -82.4584074,
     27.9485044
    ],
    "label_centre_map": [
     356528.842,
     3092353.861
    ],
    "map_epsg": 32617,
    "how": "spells a street name but sits 72 px inside a traced block: a building or business label, not used"
   }
  },
  {
   "type": "Feature",
   "geometry": {
    "type": "MultiLineString",
    "coordinates": [
     [
      [
       -82.4587699,
       27.9474007
      ],
      [
       -82.4587281,
       27.9473128
      ]
     ],
     [
      [
       -82.4587281,
       27.9473128
      ],
      [
       -82.4585937,
       27.9470016
      ]
     ],
     [
      [
       -82.4585937,
       27.9470016
      ],
      [
       -82.4585865,
       27.9469828
      ]
     ],
     [
      [
       -82.4584397,
       27.9466421
      ],
      [
       -82.4583966,
       27.9465498
      ]
     ],
     [
      [
       -82.4583966,
       27.9465498
      ],
      [
       -82.4581404,
       27.9459812
      ]
     ],
     [
      [
       -82.4581404,
       27.9459812
      ],
      [
       -82.45813,
       27.945958
      ]
     ],
     [
      [
       -82.45813,
       27.945958
      ],
      [
       -82.4580972,
       27.9458863
      ]
     ],
     [
      [
       -82.4580972,
       27.9458863
      ],
      [
       -82.4580011,
       27.9456759
      ]
     ],
     [
      [
       -82.4580011,
       27.9456759
      ],
      [
       -82.4579272,
       27.9455107
      ]
     ],
     [
      [
       -82.4579272,
       27.9455107
      ],
      [
       -82.4578115,
       27.9452523
      ]
     ],
     [
      [
       -82.4578115,
       27.9452523
      ],
      [
       -82.4577762,
       27.9451715
      ]
     ],
     [
      [
       -82.4596132,
       27.9493029
      ],
      [
       -82.4594719,
       27.9489877
      ]
     ],
     [
      [
       -82.4594719,
       27.9489877
      ],
      [
       -82.459428,
       27.94889
      ]
     ],
     [
      [
       -82.459428,
       27.94889
      ],
      [
       -82.4593896,
       27.948803
      ]
     ],
     [
      [
       -82.4593896,
       27.948803
      ],
      [
       -82.4592645,
       27.94852
      ]
     ],
     [
      [
       -82.4592645,
       27.94852
      ],
      [
       -82.4592601,
       27.94851
      ]
     ],
     [
      [
       -82.4592601,
       27.94851
      ],
      [
       -82.4591445,
       27.9482458
      ]
     ],
     [
      [
       -82.4591445,
       27.9482458
      ],
      [
       -82.4590968,
       27.9481406
      ]
     ],
     [
      [
       -82.4590968,
       27.9481406
      ],
      [
       -82.459055,
       27.9480437
      ]
     ],
     [
      [
       -82.459055,
       27.9480437
      ],
      [
       -82.458873,
       27.9476318
      ]
     ],
     [
      [
       -82.458873,
       27.9476318
      ],
      [
       -82.4588157,
       27.947502
      ]
     ],
     [
      [
       -82.4588157,
       27.947502
      ],
      [
       -82.4587699,
       27.9474007
      ]
     ],
     [
      [
       -82.4585865,
       27.9469828
      ],
      [
       -82.4585812,
       27.9469715
      ]
     ],
     [
      [
       -82.4585812,
       27.9469715
      ],
      [
       -82.4585173,
       27.9468268
      ]
     ],
     [
      [
       -82.4585173,
       27.9468268
      ],
      [
       -82.4584916,
       27.9467673
      ]
     ],
     [
      [
       -82.4584916,
       27.9467673
      ],
      [
       -82.4584681,
       27.9467115
      ]
     ],
     [
      [
       -82.4584681,
       27.9467115
      ],
      [
       -82.4584397,
       27.9466421
      ]
     ],
     [
      [
       -82.4577762,
       27.9451715
      ],
      [
       -82.4577366,
       27.9450762
      ]
     ],
     [
      [
       -82.4577366,
       27.9450762
      ],
      [
       -82.4576106,
       27.9447877
      ]
     ],
     [
      [
       -82.4576106,
       27.9447877
      ],
      [
       -82.4576002,
       27.944764
      ]
     ],
     [
      [
       -82.4576002,
       27.944764
      ],
      [
       -82.4573208,
       27.9441485
      ]
     ],
     [
      [
       -82.4573208,
       27.9441485
      ],
      [
       -82.4572889,
       27.9440733
      ]
     ]
    ]
   },
   "properties": {
    "sheet": "01352_1889-0003",
    "label_on_plan": "TAMPA",
    "name_on_plan": "TAMPA",
    "plan_year": 1889,
    "modern_name": [
     "NORTH TAMPA ST",
     "SOUTH TAMPA ST"
    ],
    "modern_source": "data/modern/tampa_streets_epsg32617.geojson",
    "kind": "building",
    "distance_m": null,
    "used_in_fit": false,
    "label_centre_wgs84": [
     -82.4583911,
     27.9484648
    ],
    "label_centre_map": [
     356530.397,
     3092349.463
    ],
    "map_epsg": 32617,
    "how": "spells a street name but sits 158 px inside a traced block: a building or business label, not used"
   }
  },
  {
   "type": "Feature",
   "geometry": {
    "type": "Point",
    "coordinates": [
     -82.458376,
     27.9480777
    ]
   },
   "properties": {
    "sheet": "01352_1889-0003",
    "label_on_plan": "SCOTLAND",
    "name_on_plan": "SCOTLAND",
    "plan_year": 1889,
    "modern_name": [
     "SCOTLAND CRT"
    ],
    "modern_source": "data/modern/tampa_streets_epsg32617.geojson",
    "kind": "building",
    "distance_m": null,
    "used_in_fit": false,
    "label_centre_wgs84": [
     -82.458376,
     27.9480777
    ],
    "label_centre_map": [
     356531.374,
     3092306.555
    ],
    "map_epsg": 32617,
    "how": "spells a street name but sits 258 px inside a traced block: a building or business label, not used"
   }
  },
  {
   "type": "Feature",
   "geometry": {
    "type": "Point",
    "coordinates": [
     -82.4583765,
     27.9476777
    ]
   },
   "properties": {
    "sheet": "01352_1889-0003",
    "label_on_plan": "Tobacco",
    "name_on_plan": "TOBACCO",
    "plan_year": 1889,
    "modern_name": [
     "TOBACCO RD"
    ],
    "modern_source": "data/modern/tampa_streets_epsg32617.geojson",
    "kind": "building",
    "distance_m": null,
    "used_in_fit": false,
    "label_centre_wgs84": [
     -82.4583765,
     27.9476777
    ],
    "label_centre_map": [
     356530.794,
     3092262.231
    ],
    "map_epsg": 32617,
    "how": "spells a street name but sits 71 px inside a traced block: a building or business label, not used"
   }
  },
  {
   "type": "Feature",
   "geometry": {
    "type": "MultiLineString",
    "coordinates": [
     [
      [
       -82.4591353,
       27.9464077
      ],
      [
       -82.4590671,
       27.9464328
      ]
     ],
     [
      [
       -82.4590671,
       27.9464328
      ],
      [
       -82.4587398,
       27.9465477
      ]
     ],
     [
      [
       -82.4584397,
       27.9466421
      ],
      [
       -82.4583254,
       27.9466797
      ]
     ],
     [
      [
       -82.4583254,
       27.9466797
      ],
      [
       -82.4581957,
       27.9467244
      ]
     ],
     [
      [
       -82.4581957,
       27.9467244
      ],
      [
       -82.4578179,
       27.9468478
      ]
     ],
     [
      [
       -82.4567593,
       27.9472059
      ],
      [
       -82.4566428,
       27.9472462
      ]
     ],
     [
      [
       -82.4566428,
       27.9472462
      ],
      [
       -82.4560022,
       27.9474686
      ]
     ],
     [
      [
       -82.457286,
       27.9470266
      ],
      [
       -82.456972,
       27.9471358
      ]
     ],
     [
      [
       -82.456972,
       27.9471358
      ],
      [
       -82.4568536,
       27.9471756
      ]
     ],
     [
      [
       -82.4568536,
       27.9471756
      ],
      [
       -82.4567593,
       27.9472059
      ]
     ],
     [
      [
       -82.4578179,
       27.9468478
      ],
      [
       -82.4576406,
       27.9469101
      ]
     ],
     [
      [
       -82.4576406,
       27.9469101
      ],
      [
       -82.4575957,
       27.9469257
      ]
     ],
     [
      [
       -82.4587398,
       27.9465477
      ],
      [
       -82.4585599,
       27.9466109
      ]
     ],
     [
      [
       -82.4585599,
       27.9466109
      ],
      [
       -82.4584397,
       27.9466421
      ]
     ],
     [
      [
       -82.4592418,
       27.9463685
      ],
      [
       -82.4591353,
       27.9464077
      ]
     ],
     [
      [
       -82.4575957,
       27.9469257
      ],
      [
       -82.4574911,
       27.9469582
      ]
     ],
     [
      [
       -82.4574911,
       27.9469582
      ],
      [
       -82.457286,
       27.9470266
      ]
     ]
    ]
   },
   "properties": {
    "sheet": "01352_1889-0003",
    "label_on_plan": "JACKSON",
    "name_on_plan": "JACKSON",
    "plan_year": 1889,
    "modern_name": [
     "EAST JACKSON ST"
    ],
    "modern_source": "data/modern/tampa_streets_epsg32617.geojson",
    "kind": "building",
    "distance_m": null,
    "used_in_fit": false,
    "label_centre_wgs84": [
     -82.4587229,
     27.9465954
    ],
    "label_centre_map": [
     356495.279,
     3092142.73
    ],
    "map_epsg": 32617,
    "how": "spells a street name but sits 3 px inside a traced block: a building or business label, not used"
   }
  },
  {
   "type": "Feature",
   "geometry": {
    "type": "Point",
    "coordinates": [
     -82.4580271,
     27.9467865
    ]
   },
   "properties": {
    "sheet": "01352_1889-0003",
    "label_on_plan": "Creek.",
    "name_on_plan": "CREEK",
    "plan_year": 1889,
    "modern_name": [
     "EAST CREEK DR",
     "WEST CREEK DR"
    ],
    "modern_source": "data/modern/tampa_streets_epsg32617.geojson",
    "kind": "building",
    "distance_m": null,
    "used_in_fit": false,
    "label_centre_wgs84": [
     -82.4580271,
     27.9467865
    ],
    "label_centre_map": [
     356563.992,
     3092163.089
    ],
    "map_epsg": 32617,
    "how": "spells a street name but sits 39 px inside a traced block: a building or business label, not used"
   }
  },
  {
   "type": "Feature",
   "geometry": {
    "type": "Point",
    "coordinates": [
     -82.4573375,
     27.9460376
    ]
   },
   "properties": {
    "sheet": "01352_1889-0003",
    "label_on_plan": "Bank",
    "name_on_plan": "BANK",
    "plan_year": 1889,
    "modern_name": [
     "EAST BANK DR",
     "WEST BANK AVE"
    ],
    "modern_source": "data/modern/tampa_streets_epsg32617.geojson",
    "kind": "building",
    "distance_m": null,
    "used_in_fit": false,
    "label_centre_wgs84": [
     -82.4573375,
     27.9460376
    ],
    "label_centre_map": [
     356630.853,
     3092079.304
    ],
    "map_epsg": 32617,
    "how": "spells a street name but sits 99 px inside a traced block: a building or business label, not used"
   }
  },
  {
   "type": "Feature",
   "geometry": {
    "type": "MultiLineString",
    "coordinates": [
     [
      [
       -82.4595848,
       27.947121
      ],
      [
       -82.4596407,
       27.947212
      ]
     ],
     [
      [
       -82.4596407,
       27.947212
      ],
      [
       -82.4597531,
       27.9474858
      ]
     ],
     [
      [
       -82.4597531,
       27.9474858
      ],
      [
       -82.4597556,
       27.947492
      ]
     ],
     [
      [
       -82.4597556,
       27.947492
      ],
      [
       -82.4598704,
       27.9477748
      ]
     ],
     [
      [
       -82.4598704,
       27.9477748
      ],
      [
       -82.4599058,
       27.9478616
      ]
     ],
     [
      [
       -82.4597346,
       27.9470672
      ],
      [
       -82.4596914,
       27.9469789
      ]
     ],
     [
      [
       -82.4596914,
       27.9469789
      ],
      [
       -82.4596019,
       27.9468479
      ]
     ],
     [
      [
       -82.4596019,
       27.9468479
      ],
      [
       -82.4595308,
       27.9467572
      ]
     ],
     [
      [
       -82.4595308,
       27.9467572
      ],
      [
       -82.459364,
       27.9465445
      ]
     ],
     [
      [
       -82.459364,
       27.9465445
      ],
      [
       -82.4592418,
       27.9463685
      ]
     ],
     [
      [
       -82.4592418,
       27.9463685
      ],
      [
       -82.4591972,
       27.9463054
      ]
     ],
     [
      [
       -82.4591972,
       27.9463054
      ],
      [
       -82.4591854,
       27.9462884
      ]
     ],
     [
      [
       -82.4591854,
       27.9462884
      ],
      [
       -82.459058,
       27.9461081
      ]
     ],
     [
      [
       -82.459058,
       27.9461081
      ],
      [
       -82.4588902,
       27.9458706
      ]
     ],
     [
      [
       -82.4588902,
       27.9458706
      ],
      [
       -82.4587648,
       27.9457295
      ]
     ],
     [
      [
       -82.4599058,
       27.9478616
      ],
      [
       -82.4599752,
       27.9480104
      ]
     ],
     [
      [
       -82.4599752,
       27.9480104
      ],
      [
       -82.4600817,
       27.9482472
      ]
     ],
     [
      [
       -82.4607215,
       27.949203
      ],
      [
       -82.4606743,
       27.9491029
      ]
     ],
     [
      [
       -82.4606743,
       27.9491029
      ],
      [
       -82.4604736,
       27.9486712
      ]
     ],
     [
      [
       -82.4604736,
       27.9486712
      ],
      [
       -82.4604168,
       27.9485494
      ]
     ],
     [
      [
       -82.4587648,
       27.9457295
      ],
      [
       -82.4588339,
       27.9459364
      ]
     ],
     [
      [
       -82.4587648,
       27.9457295
      ],
      [
       -82.4583797,
       27.9450932
      ]
     ],
     [
      [
       -82.4583797,
       27.9450932
      ],
      [
       -82.4583015,
       27.9449923
      ]
     ],
     [
      [
       -82.4591353,
       27.9464077
      ],
      [
       -82.4592614,
       27.9466045
      ]
     ],
     [
      [
       -82.4592614,
       27.9466045
      ],
      [
       -82.4594086,
       27.9468334
      ]
     ],
     [
      [
       -82.4594086,
       27.9468334
      ],
      [
       -82.4595332,
       27.9470372
      ]
     ],
     [
      [
       -82.4595332,
       27.9470372
      ],
      [
       -82.4595848,
       27.947121
      ]
     ],
     [
      [
       -82.4599527,
       27.9475242
      ],
      [
       -82.4597816,
       27.9471632
      ]
     ],
     [
      [
       -82.4597816,
       27.9471632
      ],
      [
       -82.4597346,
       27.9470672
      ]
     ],
     [
      [
       -82.4588339,
       27.9459364
      ],
      [
       -82.4588795,
       27.9460093
      ]
     ],
     [
      [
       -82.4588795,
       27.9460093
      ],
      [
       -82.4589643,
       27.946145
      ]
     ],
     [
      [
       -82.4589643,
       27.946145
      ],
      [
       -82.4590913,
       27.9463442
      ]
     ],
     [
      [
       -82.4590913,
       27.9463442
      ],
      [
       -82.4591353,
       27.9464077
      ]
     ],
     [
      [
       -82.4603467,
       27.9483849
      ],
      [
       -82.4603179,
       27.9483174
      ]
     ],
     [
      [
       -82.4603179,
       27.9483174
      ],
      [
       -82.4601937,
       27.9480263
      ]
     ],
     [
      [
       -82.4601937,
       27.9480263
      ],
      [
       -82.4601579,
       27.9479501
      ]
     ],
     [
      [
       -82.4601579,
       27.9479501
      ],
      [
       -82.4601064,
       27.9478484
      ]
     ],
     [
      [
       -82.4601064,
       27.9478484
      ],
      [
       -82.4600821,
       27.9477988
      ]
     ],
     [
      [
       -82.4602464,
       27.948608
      ],
      [
       -82.4603038,
       27.9487307
      ]
     ],
     [
      [
       -82.4603038,
       27.9487307
      ],
      [
       -82.4604852,
       27.9491088
      ]
     ],
     [
      [
       -82.4604852,
       27.9491088
      ],
      [
       -82.4604951,
       27.9491308
      ]
     ],
     [
      [
       -82.4600817,
       27.9482472
      ],
      [
       -82.4602058,
       27.9485179
      ]
     ],
     [
      [
       -82.4602058,
       27.9485179
      ],
      [
       -82.4602464,
       27.948608
      ]
     ],
     [
      [
       -82.4600821,
       27.9477988
      ],
      [
       -82.4600456,
       27.9477171
      ]
     ],
     [
      [
       -82.4600456,
       27.9477171
      ],
      [
       -82.4599527,
       27.9475242
      ]
     ],
     [
      [
       -82.4604168,
       27.9485494
      ],
      [
       -82.4603754,
       27.9484524
      ]
     ],
     [
      [
       -82.4603754,
       27.9484524
      ],
      [
       -82.4603467,
       27.9483849
      ]
     ]
    ]
   },
   "properties": {
    "sheet": "01352_1889-0003",
    "label_on_plan": "PLATFORM.",
    "name_on_plan": "PLATFORM",
    "plan_year": 1889,
    "modern_name": [
     "NORTH ASHLEY DR"
    ],
    "modern_source": "data/modern/tampa_streets_epsg32617.geojson",
    "kind": "candidate",
    "distance_m": 0.1,
    "used_in_fit": false,
    "label_centre_wgs84": [
     -82.4600603,
     27.9477481
    ],
    "label_centre_map": [
     356365.219,
     3092272.017
    ],
    "map_epsg": 32617,
    "how": "unmatched word lying on this modern centreline after the fit; confirm before adding to --alias"
   }
  },
  {
   "type": "Feature",
   "geometry": {
    "type": "MultiLineString",
    "coordinates": [
     [
      [
       -82.4591353,
       27.9464077
      ],
      [
       -82.4590671,
       27.9464328
      ]
     ],
     [
      [
       -82.4590671,
       27.9464328
      ],
      [
       -82.4587398,
       27.9465477
      ]
     ],
     [
      [
       -82.4584397,
       27.9466421
      ],
      [
       -82.4583254,
       27.9466797
      ]
     ],
     [
      [
       -82.4583254,
       27.9466797
      ],
      [
       -82.4581957,
       27.9467244
      ]
     ],
     [
      [
       -82.4581957,
       27.9467244
      ],
      [
       -82.4578179,
       27.9468478
      ]
     ],
     [
      [
       -82.4567593,
       27.9472059
      ],
      [
       -82.4566428,
       27.9472462
      ]
     ],
     [
      [
       -82.4566428,
       27.9472462
      ],
      [
       -82.4560022,
       27.9474686
      ]
     ],
     [
      [
       -82.457286,
       27.9470266
      ],
      [
       -82.456972,
       27.9471358
      ]
     ],
     [
      [
       -82.456972,
       27.9471358
      ],
      [
       -82.4568536,
       27.9471756
      ]
     ],
     [
      [
       -82.4568536,
       27.9471756
      ],
      [
       -82.4567593,
       27.9472059
      ]
     ],
     [
      [
       -82.4578179,
       27.9468478
      ],
      [
       -82.4576406,
       27.9469101
      ]
     ],
     [
      [
       -82.4576406,
       27.9469101
      ],
      [
       -82.4575957,
       27.9469257
      ]
     ],
     [
      [
       -82.4587398,
       27.9465477
      ],
      [
       -82.4585599,
       27.9466109
      ]
     ],
     [
      [
       -82.4585599,
       27.9466109
      ],
      [
       -82.4584397,
       27.9466421
      ]
     ],
     [
      [
       -82.4592418,
       27.9463685
      ],
      [
       -82.4591353,
       27.9464077
      ]
     ],
     [
      [
       -82.4575957,
       27.9469257
      ],
      [
       -82.4574911,
       27.9469582
      ]
     ],
     [
      [
       -82.4574911,
       27.9469582
      ],
      [
       -82.457286,
       27.9470266
      ]
     ]
    ]
   },
   "properties": {
    "sheet": "01352_1889-0003",
    "label_on_plan": "WOODEN BRIDGE.",
    "name_on_plan": "WOODEN BRIDGE",
    "plan_year": 1889,
    "modern_name": [
     "EAST JACKSON ST"
    ],
    "modern_source": "data/modern/tampa_streets_epsg32617.geojson",
    "kind": "candidate",
    "distance_m": 0.4,
    "used_in_fit": false,
    "label_centre_wgs84": [
     -82.4603758,
     27.9468735
    ],
    "label_centre_map": [
     356333.023,
     3092175.48
    ],
    "map_epsg": 32617,
    "how": "unmatched word lying on this modern centreline after the fit; confirm before adding to --alias"
   }
  },
  {
   "type": "Feature",
   "geometry": {
    "type": "MultiLineString",
    "coordinates": [
     [
      [
       -82.4595848,
       27.947121
      ],
      [
       -82.4597346,
       27.9470672
      ]
     ],
     [
      [
       -82.4579291,
       27.9476964
      ],
      [
       -82.4580213,
       27.9476642
      ]
     ],
     [
      [
       -82.4580213,
       27.9476642
      ],
      [
       -82.4586626,
       27.9474348
      ]
     ],
     [
      [
       -82.4586626,
       27.9474348
      ],
      [
       -82.4587699,
       27.9474007
      ]
     ],
     [
      [
       -82.4570982,
       27.9479739
      ],
      [
       -82.4572276,
       27.9479331
      ]
     ],
     [
      [
       -82.4572276,
       27.9479331
      ],
      [
       -82.4578323,
       27.9477311
      ]
     ],
     [
      [
       -82.4578323,
       27.9477311
      ],
      [
       -82.4579291,
       27.9476964
      ]
     ],
     [
      [
       -82.4588766,
       27.9473654
      ],
      [
       -82.4595028,
       27.9471484
      ]
     ],
     [
      [
       -82.4595028,
       27.9471484
      ],
      [
       -82.4595848,
       27.947121
      ]
     ],
     [
      [
       -82.456152,
       27.9482985
      ],
      [
       -82.4562493,
       27.9482623
      ]
     ],
     [
      [
       -82.4587699,
       27.9474007
      ],
      [
       -82.4588766,
       27.9473654
      ]
     ],
     [
      [
       -82.4562493,
       27.9482623
      ],
      [
       -82.4563382,
       27.9482317
      ]
     ],
     [
      [
       -82.4563382,
       27.9482317
      ],
      [
       -82.4569829,
       27.9480107
      ]
     ],
     [
      [
       -82.4569829,
       27.9480107
      ],
      [
       -82.4570982,
       27.9479739
      ]
     ]
    ]
   },
   "properties": {
    "sheet": "01352_1889-0003",
    "label_on_plan": "LAFAYETTE",
    "name_on_plan": "LAFAYETTE",
    "plan_year": 1889,
    "modern_name": [
     "EAST KENNEDY BLVD"
    ],
    "modern_source": "data/modern/tampa_streets_epsg32617.geojson",
    "kind": "candidate",
    "distance_m": 2.0,
    "used_in_fit": false,
    "label_centre_wgs84": [
     -82.4590522,
     27.947285
    ],
    "label_centre_map": [
     356463.793,
     3092219.518
    ],
    "map_epsg": 32617,
    "how": "unmatched word lying on this modern centreline after the fit; confirm before adding to --alias"
   }
  },
  {
   "type": "Feature",
   "geometry": {
    "type": "MultiLineString",
    "coordinates": [
     [
      [
       -82.4587699,
       27.9474007
      ],
      [
       -82.4587281,
       27.9473128
      ]
     ],
     [
      [
       -82.4587281,
       27.9473128
      ],
      [
       -82.4585937,
       27.9470016
      ]
     ],
     [
      [
       -82.4585937,
       27.9470016
      ],
      [
       -82.4585865,
       27.9469828
      ]
     ],
     [
      [
       -82.4584397,
       27.9466421
      ],
      [
       -82.4583966,
       27.9465498
      ]
     ],
     [
      [
       -82.4583966,
       27.9465498
      ],
      [
       -82.4581404,
       27.9459812
      ]
     ],
     [
      [
       -82.4581404,
       27.9459812
      ],
      [
       -82.45813,
       27.945958
      ]
     ],
     [
      [
       -82.45813,
       27.945958
      ],
      [
       -82.4580972,
       27.9458863
      ]
     ],
     [
      [
       -82.4580972,
       27.9458863
      ],
      [
       -82.4580011,
       27.9456759
      ]
     ],
     [
      [
       -82.4580011,
       27.9456759
      ],
      [
       -82.4579272,
       27.9455107
      ]
     ],
     [
      [
       -82.4579272,
       27.9455107
      ],
      [
       -82.4578115,
       27.9452523
      ]
     ],
     [
      [
       -82.4578115,
       27.9452523
      ],
      [
       -82.4577762,
       27.9451715
      ]
     ],
     [
      [
       -82.4596132,
       27.9493029
      ],
      [
       -82.4594719,
       27.9489877
      ]
     ],
     [
      [
       -82.4594719,
       27.9489877
      ],
      [
       -82.459428,
       27.94889
      ]
     ],
     [
      [
       -82.459428,
       27.94889
      ],
      [
       -82.4593896,
       27.948803
      ]
     ],
     [
      [
       -82.4593896,
       27.948803
      ],
      [
       -82.4592645,
       27.94852
      ]
     ],
     [
      [
       -82.4592645,
       27.94852
      ],
      [
       -82.4592601,
       27.94851
      ]
     ],
     [
      [
       -82.4592601,
       27.94851
      ],
      [
       -82.4591445,
       27.9482458
      ]
     ],
     [
      [
       -82.4591445,
       27.9482458
      ],
      [
       -82.4590968,
       27.9481406
      ]
     ],
     [
      [
       -82.4590968,
       27.9481406
      ],
      [
       -82.459055,
       27.9480437
      ]
     ],
     [
      [
       -82.459055,
       27.9480437
      ],
      [
       -82.458873,
       27.9476318
      ]
     ],
     [
      [
       -82.458873,
       27.9476318
      ],
      [
       -82.4588157,
       27.947502
      ]
     ],
     [
      [
       -82.4588157,
       27.947502
      ],
      [
       -82.4587699,
       27.9474007
      ]
     ],
     [
      [
       -82.4585865,
       27.9469828
      ],
      [
       -82.4585812,
       27.9469715
      ]
     ],
     [
      [
       -82.4585812,
       27.9469715
      ],
      [
       -82.4585173,
       27.9468268
      ]
     ],
     [
      [
       -82.4585173,
       27.9468268
      ],
      [
       -82.4584916,
       27.9467673
      ]
     ],
     [
      [
       -82.4584916,
       27.9467673
      ],
      [
       -82.4584681,
       27.9467115
      ]
     ],
     [
      [
       -82.4584681,
       27.9467115
      ],
      [
       -82.4584397,
       27.9466421
      ]
     ]
    ]
   },
   "properties": {
    "sheet": "01352_1889-0003",
    "label_on_plan": "TAMPA STEAM STREET RY.",
    "name_on_plan": "TAMPA STEAM STREET RY",
    "plan_year": 1889,
    "modern_name": [
     "NORTH TAMPA ST"
    ],
    "modern_source": "data/modern/tampa_streets_epsg32617.geojson",
    "kind": "candidate",
    "distance_m": 2.6,
    "used_in_fit": false,
    "label_centre_wgs84": [
     -82.4587237,
     27.9473639
    ],
    "label_centre_map": [
     356496.22,
     3092227.879
    ],
    "map_epsg": 32617,
    "how": "unmatched word lying on this modern centreline after the fit; confirm before adding to --alias"
   }
  },
  {
   "type": "Feature",
   "geometry": {
    "type": "MultiLineString",
    "coordinates": [
     [
      [
       -82.4587699,
       27.9474007
      ],
      [
       -82.4587281,
       27.9473128
      ]
     ],
     [
      [
       -82.4587281,
       27.9473128
      ],
      [
       -82.4585937,
       27.9470016
      ]
     ],
     [
      [
       -82.4585937,
       27.9470016
      ],
      [
       -82.4585865,
       27.9469828
      ]
     ],
     [
      [
       -82.4584397,
       27.9466421
      ],
      [
       -82.4583966,
       27.9465498
      ]
     ],
     [
      [
       -82.4583966,
       27.9465498
      ],
      [
       -82.4581404,
       27.9459812
      ]
     ],
     [
      [
       -82.4581404,
       27.9459812
      ],
      [
       -82.45813,
       27.945958
      ]
     ],
     [
      [
       -82.45813,
       27.945958
      ],
      [
       -82.4580972,
       27.9458863
      ]
     ],
     [
      [
       -82.4580972,
       27.9458863
      ],
      [
       -82.4580011,
       27.9456759
      ]
     ],
     [
      [
       -82.4580011,
       27.9456759
      ],
      [
       -82.4579272,
       27.9455107
      ]
     ],
     [
      [
       -82.4579272,
       27.9455107
      ],
      [
       -82.4578115,
       27.9452523
      ]
     ],
     [
      [
       -82.4578115,
       27.9452523
      ],
      [
       -82.4577762,
       27.9451715
      ]
     ],
     [
      [
       -82.4596132,
       27.9493029
      ],
      [
       -82.4594719,
       27.9489877
      ]
     ],
     [
      [
       -82.4594719,
       27.9489877
      ],
      [
       -82.459428,
       27.94889
      ]
     ],
     [
      [
       -82.459428,
       27.94889
      ],
      [
       -82.4593896,
       27.948803
      ]
     ],
     [
      [
       -82.4593896,
       27.948803
      ],
      [
       -82.4592645,
       27.94852
      ]
     ],
     [
      [
       -82.4592645,
       27.94852
      ],
      [
       -82.4592601,
       27.94851
      ]
     ],
     [
      [
       -82.4592601,
       27.94851
      ],
      [
       -82.4591445,
       27.9482458
      ]
     ],
     [
      [
       -82.4591445,
       27.9482458
      ],
      [
       -82.4590968,
       27.9481406
      ]
     ],
     [
      [
       -82.4590968,
       27.9481406
      ],
      [
       -82.459055,
       27.9480437
      ]
     ],
     [
      [
       -82.459055,
       27.9480437
      ],
      [
       -82.458873,
       27.9476318
      ]
     ],
     [
      [
       -82.458873,
       27.9476318
      ],
      [
       -82.4588157,
       27.947502
      ]
     ],
     [
      [
       -82.4588157,
       27.947502
      ],
      [
       -82.4587699,
       27.9474007
      ]
     ],
     [
      [
       -82.4585865,
       27.9469828
      ],
      [
       -82.4585812,
       27.9469715
      ]
     ],
     [
      [
       -82.4585812,
       27.9469715
      ],
      [
       -82.4585173,
       27.9468268
      ]
     ],
     [
      [
       -82.4585173,
       27.9468268
      ],
      [
       -82.4584916,
       27.9467673
      ]
     ],
     [
      [
       -82.4584916,
       27.9467673
      ],
      [
       -82.4584681,
       27.9467115
      ]
     ],
     [
      [
       -82.4584681,
       27.9467115
      ],
      [
       -82.4584397,
       27.9466421
      ]
     ]
    ]
   },
   "properties": {
    "sheet": "01352_1889-0003",
    "label_on_plan": "SHEET",
    "name_on_plan": "SHEET",
    "plan_year": 1889,
    "modern_name": [
     "NORTH TAMPA ST"
    ],
    "modern_source": "data/modern/tampa_streets_epsg32617.geojson",
    "kind": "candidate",
    "distance_m": 3.4,
    "used_in_fit": false,
    "label_centre_wgs84": [
     -82.45913,
     27.9482974
    ],
    "label_centre_map": [
     356457.475,
     3092331.782
    ],
    "map_epsg": 32617,
    "how": "unmatched word lying on this modern centreline after the fit; confirm before adding to --alias"
   }
  },
  {
   "type": "Feature",
   "geometry": {
    "type": "MultiLineString",
    "coordinates": [
     [
      [
       -82.4591353,
       27.9464077
      ],
      [
       -82.4590671,
       27.9464328
      ]
     ],
     [
      [
       -82.4590671,
       27.9464328
      ],
      [
       -82.4587398,
       27.9465477
      ]
     ],
     [
      [
       -82.4584397,
       27.9466421
      ],
      [
       -82.4583254,
       27.9466797
      ]
     ],
     [
      [
       -82.4583254,
       27.9466797
      ],
      [
       -82.4581957,
       27.9467244
      ]
     ],
     [
      [
       -82.4581957,
       27.9467244
      ],
      [
       -82.4578179,
       27.9468478
      ]
     ],
     [
      [
       -82.4567593,
       27.9472059
      ],
      [
       -82.4566428,
       27.9472462
      ]
     ],
     [
      [
       -82.4566428,
       27.9472462
      ],
      [
       -82.4560022,
       27.9474686
      ]
     ],
     [
      [
       -82.457286,
       27.9470266
      ],
      [
       -82.456972,
       27.9471358
      ]
     ],
     [
      [
       -82.456972,
       27.9471358
      ],
      [
       -82.4568536,
       27.9471756
      ]
     ],
     [
      [
       -82.4568536,
       27.9471756
      ],
      [
       -82.4567593,
       27.9472059
      ]
     ],
     [
      [
       -82.4578179,
       27.9468478
      ],
      [
       -82.4576406,
       27.9469101
      ]
     ],
     [
      [
       -82.4576406,
       27.9469101
      ],
      [
       -82.4575957,
       27.9469257
      ]
     ],
     [
      [
       -82.4587398,
       27.9465477
      ],
      [
       -82.4585599,
       27.9466109
      ]
     ],
     [
      [
       -82.4585599,
       27.9466109
      ],
      [
       -82.4584397,
       27.9466421
      ]
     ],
     [
      [
       -82.4592418,
       27.9463685
      ],
      [
       -82.4591353,
       27.9464077
      ]
     ],
     [
      [
       -82.4575957,
       27.9469257
      ],
      [
       -82.4574911,
       27.9469582
      ]
     ],
     [
      [
       -82.4574911,
       27.9469582
      ],
      [
       -82.457286,
       27.9470266
      ]
     ]
    ]
   },
   "properties": {
    "sheet": "01352_1889-0003",
    "label_on_plan": "SWEET",
    "name_on_plan": "SWEET",
    "plan_year": 1889,
    "modern_name": [
     "EAST JACKSON ST"
    ],
    "modern_source": "data/modern/tampa_streets_epsg32617.geojson",
    "kind": "candidate",
    "distance_m": 3.7,
    "used_in_fit": false,
    "label_centre_wgs84": [
     -82.4573888,
     27.9470283
    ],
    "label_centre_map": [
     356627.112,
     3092189.126
    ],
    "map_epsg": 32617,
    "how": "unmatched word lying on this modern centreline after the fit; confirm before adding to --alias"
   }
  },
  {
   "type": "Feature",
   "geometry": {
    "type": "MultiLineString",
    "coordinates": [
     [
      [
       -82.4575957,
       27.9469257
      ],
      [
       -82.4576275,
       27.9469997
      ]
     ],
     [
      [
       -82.4576275,
       27.9469997
      ],
      [
       -82.4576394,
       27.9470289
      ]
     ],
     [
      [
       -82.4576394,
       27.9470289
      ],
      [
       -82.4576477,
       27.9470492
      ]
     ],
     [
      [
       -82.4576477,
       27.9470492
      ],
      [
       -82.4577109,
       27.9471265
      ]
     ],
     [
      [
       -82.4577109,
       27.9471265
      ],
      [
       -82.4577079,
       27.9471573
      ]
     ],
     [
      [
       -82.4577079,
       27.9471573
      ],
      [
       -82.4577538,
       27.9472507
      ]
     ],
     [
      [
       -82.4577538,
       27.9472507
      ],
      [
       -82.457735,
       27.9472973
      ]
     ],
     [
      [
       -82.457735,
       27.9472973
      ],
      [
       -82.4577772,
       27.9473966
      ]
     ],
     [
      [
       -82.4577772,
       27.9473966
      ],
      [
       -82.4578859,
       27.947506
      ]
     ],
     [
      [
       -82.4578859,
       27.947506
      ],
      [
       -82.4578941,
       27.947603
      ]
     ],
     [
      [
       -82.4578941,
       27.947603
      ],
      [
       -82.4578959,
       27.947624
      ]
     ],
     [
      [
       -82.4578959,
       27.947624
      ],
      [
       -82.4579291,
       27.9476964
      ]
     ],
     [
      [
       -82.458618,
       27.9491829
      ],
      [
       -82.4585839,
       27.9490962
      ]
     ],
     [
      [
       -82.4585839,
       27.9490962
      ],
      [
       -82.4585645,
       27.949054
      ]
     ],
     [
      [
       -82.4585645,
       27.949054
      ],
      [
       -82.4585201,
       27.9489467
      ]
     ],
     [
      [
       -82.4585201,
       27.9489467
      ],
      [
       -82.4585054,
       27.948917
      ]
     ],
     [
      [
       -82.4585054,
       27.948917
      ],
      [
       -82.4584889,
       27.9488887
      ]
     ],
     [
      [
       -82.4584889,
       27.9488887
      ],
      [
       -82.4584639,
       27.9488534
      ]
     ],
     [
      [
       -82.4584639,
       27.9488534
      ],
      [
       -82.4584318,
       27.9488181
      ]
     ],
     [
      [
       -82.4584318,
       27.9488181
      ],
      [
       -82.4583966,
       27.9487773
      ]
     ],
     [
      [
       -82.4583966,
       27.9487773
      ],
      [
       -82.4583808,
       27.9487549
      ]
     ],
     [
      [
       -82.4583808,
       27.9487549
      ],
      [
       -82.4583676,
       27.9487325
      ]
     ],
     [
      [
       -82.4583676,
       27.9487325
      ],
      [
       -82.4582772,
       27.9485287
      ]
     ],
     [
      [
       -82.4582772,
       27.9485287
      ],
      [
       -82.4582366,
       27.9484372
      ]
     ],
     [
      [
       -82.4582366,
       27.9484372
      ],
      [
       -82.4582015,
       27.9483577
      ]
     ],
     [
      [
       -82.4582015,
       27.9483577
      ],
      [
       -82.4581241,
       27.9481834
      ]
     ],
     [
      [
       -82.4581241,
       27.9481834
      ],
      [
       -82.4581091,
       27.9481464
      ]
     ],
     [
      [
       -82.4581091,
       27.9481464
      ],
      [
       -82.4580971,
       27.9481095
      ]
     ],
     [
      [
       -82.4580971,
       27.9481095
      ],
      [
       -82.4580881,
       27.9480707
      ]
     ],
     [
      [
       -82.4580881,
       27.9480707
      ],
      [
       -82.4580826,
       27.9480509
      ]
     ],
     [
      [
       -82.4580826,
       27.9480509
      ],
      [
       -82.4580761,
       27.9480311
      ]
     ],
     [
      [
       -82.4580761,
       27.9480311
      ],
      [
       -82.4579917,
       27.9478282
      ]
     ],
     [
      [
       -82.4579917,
       27.9478282
      ],
      [
       -82.4579704,
       27.9477828
      ]
     ],
     [
      [
       -82.4579704,
       27.9477828
      ],
      [
       -82.4579291,
       27.9476964
      ]
     ]
    ]
   },
   "properties": {
    "sheet": "01352_1889-0003",
    "label_on_plan": "FRANK",
    "name_on_plan": "FRANK",
    "plan_year": 1889,
    "modern_name": [
     "NORTH FRANKLIN ST"
    ],
    "modern_source": "data/modern/tampa_streets_epsg32617.geojson",
    "kind": "candidate",
    "distance_m": 4.0,
    "used_in_fit": false,
    "label_centre_wgs84": [
     -82.4576879,
     27.9472064
    ],
    "label_centre_map": [
     356597.915,
     3092209.206
    ],
    "map_epsg": 32617,
    "how": "unmatched word lying on this modern centreline after the fit; confirm before adding to --alias"
   }
  }
 ]
}