{
 "type": "FeatureCollection",
 "crs": {
  "type": "name",
  "properties": {
   "name": "urn:ogc:def:crs:EPSG::32617"
  }
 },
 "georeference": {
  "rms_m": 63.725038183982456,
  "n_labels": 6,
  "from": "01352_1889-0003_georef.json"
 },
 "source_areas": "runs/hunyuan/Sanborn_Hillsborough-County/1889/0003/01352_1889-0003_areas_px.geojson",
 "note": "colour-wash areas traced by fim_areas.py (tints, not outlines); block_number is the big numeral inside (a key plan's sheet number)",
 "features": [
  {
   "type": "Feature",
   "geometry": {
    "type": "Polygon",
    "coordinates": [
     [
      [
       356354.468,
       3092285.138
      ],
      [
       356353.556,
       3092283.471
      ],
      [
       356353.827,
       3092281.59
      ],
      [
       356354.75,
       3092279.735
      ],
      [
       356354.583,
       3092279.011
      ],
      [
       356359.466,
       3092267.857
      ],
      [
       356363.041,
       3092258.411
      ],
      [
       356363.046,
       3092256.65
      ],
      [
       356380.921,
       3092209.421
      ],
      [
       356382.567,
       3092207.399
      ],
      [
       356384.933,
       3092206.972
      ],
      [
       356386.507,
       3092205.144
      ],
      [
       356387.616,
       3092205.123
      ],
      [
       356395.134,
       3092207.968
      ],
      [
       356395.78,
       3092209.755
      ],
      [
       356391.137,
       3092221.442
      ],
      [
       356391.71,
       3092223.421
      ],
      [
       356393.033,
       3092224.583
      ],
      [
       356392.835,
       3092226.272
      ],
      [
       356388.729,
       3092235.957
      ],
      [
       356368.931,
       3092288.849
      ],
      [
       356367.795,
       3092289.521
      ],
      [
       356354.468,
       3092285.138
      ]
     ]
    ]
   },
   "properties": {
    "sheet": "01352_1889-0003",
    "kind": "wash_area",
    "colour": "yellow",
    "lab_angle_deg": 98,
    "median_lab": [
     226,
     125,
     145
    ],
    "block_number": null,
    "block_number_inferred": false,
    "number_is_big_numeral": false,
    "lot_numbers": [
     "0",
     "2",
     "1",
     "1"
    ],
    "numbers_inside": [
     "0",
     "2",
     "1",
     "1"
    ],
    "street_names": [],
    "area_source_px2": 519152,
    "compactness": 0.433,
    "touches_content_border": false,
    "centroid_source_px": [
     2073,
     1180
    ],
    "split_by_numerals": false,
    "streets_matched": [],
    "nearby_text": [
     "Freight M.Ho.",
     "H.R.Offs.",
     "PLATFORM."
    ],
    "centroid_map": [
     356375.631,
     3092243.341
    ]
   }
  },
  {
   "type": "Feature",
   "geometry": {
    "type": "Polygon",
    "coordinates": [
     [
      [
       356419.918,
       3092284.565
      ],
      [
       356419.001,
       3092284.659
      ],
      [
       356397.098,
       3092276.149
      ],
      [
       356396.161,
       3092275.133
      ],
      [
       356397.307,
       3092270.939
      ],
      [
       356406.307,
       3092246.577
      ],
      [
       356407.589,
       3092245.519
      ],
      [
       356420.046,
       3092250.454
      ],
      [
       356419.53,
       3092253.565
      ],
      [
       356420.103,
       3092255.545
      ],
      [
       356424.969,
       3092257.827
      ],
      [
       356426.678,
       3092259.135
      ],
      [
       356424.463,
       3092265.569
      ],
      [
       356423.275,
       3092267.544
      ],
      [
       356423.848,
       3092269.524
      ],
      [
       356426.615,
       3092272.113
      ],
      [
       356429.027,
       3092272.145
      ],
      [
       356431.533,
       3092273.093
      ],
      [
       356431.965,
       3092273.698
      ],
      [
       356431.428,
       3092275.698
      ],
      [
       356430.558,
       3092276.251
      ],
      [
       356428.172,
       3092275.568
      ],
      [
       356426.969,
       3092274.672
      ],
      [
       356425.473,
       3092274.547
      ],
      [
       356423.733,
       3092275.651
      ],
      [
       356419.918,
       3092284.565
      ]
     ]
    ]
   },
   "properties": {
    "sheet": "01352_1889-0003",
    "kind": "wash_area",
    "colour": "yellow",
    "lab_angle_deg": 98,
    "median_lab": [
     226,
     125,
     144
    ],
    "block_number": null,
    "block_number_inferred": false,
    "number_is_big_numeral": false,
    "lot_numbers": [
     "10",
     "0",
     "1",
     "1",
     "1",
     "2",
     "2"
    ],
    "numbers_inside": [
     "10",
     "0",
     "1",
     "1",
     "1",
     "2",
     "2"
    ],
    "street_names": [],
    "area_source_px2": 293728,
    "compactness": 0.627,
    "touches_content_border": false,
    "centroid_source_px": [
     3058,
     1036
    ],
    "split_by_numerals": false,
    "streets_matched": [],
    "nearby_text": [
     "KITCHEN.",
     "THE PLANT HO."
    ],
    "centroid_map": [
     356420.475,
     3092268.247
    ]
   }
  },
  {
   "type": "Feature",
   "geometry": {
    "type": "Polygon",
    "coordinates": [
     [
      [
       356458.812,
       3092290.69
      ],
      [
       356457.749,
       3092291.17
      ],
      [
       356456.785,
       3092290.805
      ],
      [
       356455.874,
       3092289.137
      ],
      [
       356449.226,
       3092285.74
      ],
      [
       356449.059,
       3092285.016
      ],
      [
       356451.076,
       3092280.269
      ],
      [
       356450.503,
       3092278.289
      ],
      [
       356449.299,
       3092277.393
      ],
      [
       356447.106,
       3092276.783
      ],
      [
       356445.584,
       3092277.31
      ],
      [
       356442.77,
       3092282.415
      ],
      [
       356442.046,
       3092282.582
      ],
      [
       356439.999,
       3092281.587
      ],
      [
       356439.832,
       3092280.862
      ],
      [
       356440.708,
       3092278.549
      ],
      [
       356442.547,
       3092276.601
      ],
      [
       356442.985,
       3092275.444
      ],
      [
       356442.412,
       3092273.464
      ],
      [
       356442.922,
       3092272.115
      ],
      [
       356443.912,
       3092271.828
      ],
      [
       356447.888,
       3092273.553
      ],
      [
       356450.399,
       3092272.741
      ],
      [
       356452.519,
       3092273.543
      ],
      [
       356453.046,
       3092275.065
      ],
      [
       356452.748,
       3092277.597
      ],
      [
       356453.54,
       3092278.998
      ],
      [
       356461.683,
       3092282.521
      ],
      [
       356461.897,
       3092283.704
      ],
      [
       356458.812,
       3092290.69
      ]
     ]
    ]
   },
   "properties": {
    "sheet": "01352_1889-0003",
    "kind": "wash_area",
    "colour": "yellow",
    "lab_angle_deg": 98,
    "median_lab": [
     223,
     125,
     142
    ],
    "block_number": null,
    "block_number_inferred": false,
    "number_is_big_numeral": false,
    "lot_numbers": [
     "1",
     "1"
    ],
    "numbers_inside": [
     "1",
     "1"
    ],
    "street_names": [],
    "area_source_px2": 61256,
    "compactness": 0.335,
    "touches_content_border": false,
    "centroid_source_px": [
     3658,
     1022
    ],
    "split_by_numerals": false,
    "streets_matched": [],
    "nearby_text": [
     "Dny",
     "TANK."
    ],
    "centroid_map": [
     356449.135,
     3092279.865
    ]
   }
  },
  {
   "type": "Feature",
   "geometry": {
    "type": "Polygon",
    "coordinates": [
     [
      [
       356537.661,
       3092310.615
      ],
      [
       356536.864,
       3092310.975
      ],
      [
       356533.441,
       3092310.12
      ],
      [
       356525.611,
       3092306.936
      ],
      [
       356523.855,
       3092305.169
      ],
      [
       356521.635,
       3092305.211
      ],
      [
       356519.515,
       3092304.408
      ],
      [
       356519.036,
       3092303.345
      ],
      [
       356521.052,
       3092298.599
      ],
      [
       356522.501,
       3092298.266
      ],
      [
       356524.981,
       3092299.866
      ],
      [
       356526.018,
       3092300.038
      ],
      [
       356529.279,
       3092298.407
      ],
      [
       356539.064,
       3092301.669
      ],
      [
       356539.928,
       3092302.878
      ],
      [
       356539.876,
       3092304.181
      ],
      [
       356537.661,
       3092310.615
      ]
     ]
    ]
   },
   "properties": {
    "sheet": "01352_1889-0003",
    "kind": "wash_area",
    "colour": "yellow",
    "lab_angle_deg": 98,
    "median_lab": [
     223,
     125,
     143
    ],
    "block_number": null,
    "block_number_inferred": false,
    "number_is_big_numeral": false,
    "lot_numbers": [
     "2",
     "2",
     "1"
    ],
    "numbers_inside": [
     "2",
     "2",
     "1"
    ],
    "street_names": [],
    "area_source_px2": 62192,
    "compactness": 0.681,
    "touches_content_border": false,
    "centroid_source_px": [
     5268,
     1135
    ],
    "split_by_numerals": false,
    "streets_matched": [],
    "nearby_text": [
     "Gro.",
     "SCOTLAND"
    ],
    "centroid_map": [
     356528.786,
     3092303.785
    ]
   }
  },
  {
   "type": "Feature",
   "geometry": {
    "type": "Polygon",
    "coordinates": [
     [
      [
       356485.541,
       3092282.955
      ],
      [
       356488.36,
       3092276.089
      ],
      [
       356489.882,
       3092275.562
      ],
      [
       356503.11,
       3092280.789
      ],
      [
       356504.121,
       3092281.613
      ],
      [
       356507.351,
       3092282.394
      ],
      [
       356509.325,
       3092283.582
      ],
      [
       356510.821,
       3092283.708
      ],
      [
       356511.884,
       3092283.228
      ],
      [
       356512.999,
       3092281.447
      ],
      [
       356513.181,
       3092285.042
      ],
      [
       356510.409,
       3092284.213
      ],
      [
       356508.669,
       3092285.317
      ],
      [
       356507.528,
       3092287.75
      ],
      [
       356506.345,
       3092287.964
      ],
      [
       356502.729,
       3092287.036
      ],
      [
       356501.666,
       3092287.516
      ],
      [
       356499.827,
       3092289.464
      ],
      [
       356489.151,
       3092285.644
      ],
      [
       356486.02,
       3092284.018
      ],
      [
       356485.541,
       3092282.955
      ]
     ]
    ]
   },
   "properties": {
    "sheet": "01352_1889-0003",
    "kind": "wash_area",
    "colour": "yellow",
    "lab_angle_deg": 98,
    "median_lab": [
     222,
     125,
     144
    ],
    "block_number": "321",
    "block_number_inferred": false,
    "number_is_big_numeral": true,
    "lot_numbers": [
     "1",
     "1",
     "1",
     "1",
     "1",
     "1",
     "2\u00bd"
    ],
    "numbers_inside": [
     "1",
     "1",
     "1",
     "1",
     "1",
     "1",
     "2\u00bd"
    ],
    "street_names": [],
    "area_source_px2": 72192,
    "compactness": 0.478,
    "touches_content_border": false,
    "centroid_source_px": [
     4652,
     1317
    ],
    "split_by_numerals": true,
    "streets_matched": [],
    "nearby_text": [
     "CENTRAL HO."
    ],
    "centroid_map": [
     356502.419,
     3092283.779
    ]
   }
  },
  {
   "type": "Feature",
   "geometry": {
    "type": "Polygon",
    "coordinates": [
     [
      [
       356533.443,
       3092293.812
      ],
      [
       356556.384,
       3092278.032
      ],
      [
       356551.715,
       3092290.369
      ],
      [
       356552.288,
       3092292.349
      ],
      [
       356553.877,
       3092293.392
      ],
      [
       356554.236,
       3092294.189
      ],
      [
       356554.111,
       3092295.684
      ],
      [
       356551.975,
       3092300.165
      ],
      [
       356550.406,
       3092300.232
      ],
      [
       356548.432,
       3092299.044
      ],
      [
       356546.358,
       3092298.7
      ],
      [
       356533.443,
       3092293.812
      ]
     ]
    ]
   },
   "properties": {
    "sheet": "01352_1889-0003",
    "kind": "wash_area",
    "colour": "yellow",
    "lab_angle_deg": 98,
    "median_lab": [
     222,
     125,
     144
    ],
    "block_number": "420",
    "block_number_inferred": false,
    "number_is_big_numeral": true,
    "lot_numbers": [
     "0",
     "7",
     "7"
    ],
    "numbers_inside": [
     "0",
     "7",
     "7"
    ],
    "street_names": [],
    "area_source_px2": 79672,
    "compactness": 0.511,
    "touches_content_border": false,
    "centroid_source_px": [
     5592,
     1457
    ],
    "split_by_numerals": true,
    "streets_matched": [],
    "nearby_text": [
     "& Bancry",
     "Gro.",
     "Grocky",
     "Hardw"
    ],
    "centroid_map": [
     356550.274,
     3092294.177
    ]
   }
  },
  {
   "type": "Feature",
   "geometry": {
    "type": "Polygon",
    "coordinates": [
     [
      [
       356556.457,
       3092277.839
      ],
      [
       356533.25,
       3092293.739
      ],
      [
       356527.998,
       3092291.311
      ],
      [
       356527.712,
       3092290.321
      ],
      [
       356529.973,
       3092284.345
      ],
      [
       356529.4,
       3092282.365
      ],
      [
       356527.306,
       3092280.911
      ],
      [
       356521.544,
       3092279.832
      ],
      [
       356519.803,
       3092280.936
      ],
      [
       356517.062,
       3092285.849
      ],
      [
       356515.614,
       3092286.183
      ],
      [
       356514.192,
       3092285.865
      ],
      [
       356513.301,
       3092285.307
      ],
      [
       356512.822,
       3092276.09
      ],
      [
       356514.317,
       3092276.216
      ],
      [
       356517.074,
       3092274.173
      ],
      [
       356518.423,
       3092274.684
      ],
      [
       356520.179,
       3092276.451
      ],
      [
       356521.674,
       3092276.576
      ],
      [
       356523.414,
       3092275.471
      ],
      [
       356524.874,
       3092271.616
      ],
      [
       356524.301,
       3092269.636
      ],
      [
       356522.784,
       3092268.401
      ],
      [
       356522.863,
       3092266.447
      ],
      [
       356522.071,
       3092265.046
      ],
      [
       356514.386,
       3092261.476
      ],
      [
       356514.147,
       3092260.945
      ],
      [
       356516.966,
       3092254.078
      ],
      [
       356518.487,
       3092253.552
      ],
      [
       356524.969,
       3092256.225
      ],
      [
       356525.979,
       3092257.048
      ],
      [
       356527.86,
       3092257.319
      ],
      [
       356533.305,
       3092259.821
      ],
      [
       356533.878,
       3092261.801
      ],
      [
       356535.081,
       3092262.697
      ],
      [
       356536.576,
       3092262.822
      ],
      [
       356537.639,
       3092262.343
      ],
      [
       356539.192,
       3092259.404
      ],
      [
       356540.521,
       3092258.805
      ],
      [
       356546.929,
       3092261.671
      ],
      [
       356548.221,
       3092265.246
      ],
      [
       356553.28,
       3092267.601
      ],
      [
       356556.703,
       3092268.456
      ],
      [
       356558.724,
       3092270.102
      ],
      [
       356558.938,
       3092271.285
      ],
      [
       356556.457,
       3092277.839
      ]
     ]
    ]
   },
   "properties": {
    "sheet": "01352_1889-0003",
    "kind": "wash_area",
    "colour": "yellow",
    "lab_angle_deg": 98,
    "median_lab": [
     223,
     125,
     143
    ],
    "block_number": "2\u00bd",
    "block_number_inferred": false,
    "number_is_big_numeral": true,
    "lot_numbers": [
     "1",
     "1",
     "9",
     "1",
     "1",
     "1",
     "1",
     "1",
     "2"
    ],
    "numbers_inside": [
     "1",
     "1",
     "9",
     "1",
     "1",
     "1",
     "1",
     "1",
     "2"
    ],
    "street_names": [],
    "area_source_px2": 364656,
    "compactness": 0.407,
    "touches_content_border": false,
    "centroid_source_px": [
     5047,
     1725
    ],
    "split_by_numerals": true,
    "streets_matched": [],
    "nearby_text": [
     "& Bancry",
     "2 Confec.",
     "Barbi's",
     "Gro.",
     "Grocky",
     "Hardw",
     "Meat",
     "OPERa HO.",
     "STAGE",
     "Tobacco",
     "Vac."
    ],
    "centroid_map": [
     356528.897,
     3092271.32
    ]
   }
  },
  {
   "type": "Feature",
   "geometry": {
    "type": "Polygon",
    "coordinates": [
     [
      [
       356417.114,
       3092238.986
      ],
      [
       356418.964,
       3092233.516
      ],
      [
       356418.391,
       3092231.536
      ],
      [
       356416.369,
       3092229.889
      ],
      [
       356416.422,
       3092228.587
      ],
      [
       356419.553,
       3092222.059
      ],
      [
       356421.195,
       3092221.798
      ],
      [
       356431.219,
       3092225.592
      ],
      [
       356432.469,
       3092226.947
      ],
      [
       356427.873,
       3092239.091
      ],
      [
       356426.174,
       3092242.415
      ],
      [
       356424.871,
       3092242.363
      ],
      [
       356418.124,
       3092239.81
      ],
      [
       356417.114,
       3092238.986
      ]
     ]
    ]
   },
   "properties": {
    "sheet": "01352_1889-0003",
    "kind": "wash_area",
    "colour": "yellow",
    "lab_angle_deg": 98,
    "median_lab": [
     227,
     125,
     144
    ],
    "block_number": null,
    "block_number_inferred": false,
    "number_is_big_numeral": false,
    "lot_numbers": [],
    "numbers_inside": [],
    "street_names": [],
    "area_source_px2": 82744,
    "compactness": 0.773,
    "touches_content_border": false,
    "centroid_source_px": [
     2844,
     1697
    ],
    "split_by_numerals": false,
    "streets_matched": [],
    "nearby_text": [
     "HHo.",
     "HILLSBOROUGH HO."
    ],
    "centroid_map": [
     356422.218,
     3092232.488
    ]
   }
  },
  {
   "type": "Feature",
   "geometry": {
    "type": "Polygon",
    "coordinates": [
     [
      [
       356465.75,
       3092254.308
      ],
      [
       356462.4,
       3092253.261
      ],
      [
       356462.04,
       3092252.463
      ],
      [
       356465.563,
       3092244.32
      ],
      [
       356465.136,
       3092241.955
      ],
      [
       356464.344,
       3092240.553
      ],
      [
       356462.224,
       3092239.751
      ],
      [
       356459.134,
       3092240.344
      ],
      [
       356458.456,
       3092240.969
      ],
      [
       356456.606,
       3092246.44
      ],
      [
       356455.59,
       3092247.378
      ],
      [
       356453.157,
       3092246.237
      ],
      [
       356452.798,
       3092245.439
      ],
      [
       356454.184,
       3092241.777
      ],
      [
       356455.95,
       3092240.021
      ],
      [
       356456.461,
       3092238.672
      ],
      [
       356456.081,
       3092236.765
      ],
      [
       356457.175,
       3092233.873
      ],
      [
       356459.041,
       3092231.273
      ],
      [
       356460.151,
       3092231.253
      ],
      [
       356463.474,
       3092232.951
      ],
      [
       356464.407,
       3092235.728
      ],
      [
       356465.61,
       3092236.625
      ],
      [
       356468.747,
       3092236.49
      ],
      [
       356474.41,
       3092238.413
      ],
      [
       356476.432,
       3092240.059
      ],
      [
       356474.509,
       3092245.722
      ],
      [
       356473.566,
       3092246.467
      ],
      [
       356470.648,
       3092246.024
      ],
      [
       356468.908,
       3092247.129
      ],
      [
       356466.427,
       3092253.683
      ],
      [
       356465.75,
       3092254.308
      ]
     ]
    ]
   },
   "properties": {
    "sheet": "01352_1889-0003",
    "kind": "wash_area",
    "colour": "yellow",
    "lab_angle_deg": 98,
    "median_lab": [
     223,
     125,
     143
    ],
    "block_number": null,
    "block_number_inferred": false,
    "number_is_big_numeral": false,
    "lot_numbers": [
     "1"
    ],
    "numbers_inside": [
     "1"
    ],
    "street_names": [],
    "area_source_px2": 82008,
    "compactness": 0.327,
    "touches_content_border": false,
    "centroid_source_px": [
     3648,
     1801
    ],
    "split_by_numerals": false,
    "streets_matched": [],
    "nearby_text": [
     "Fruit",
     "LAFAYETTE",
     "OFF"
    ],
    "centroid_map": [
     356462.862,
     3092242.141
    ]
   }
  },
  {
   "type": "Feature",
   "geometry": {
    "type": "Polygon",
    "coordinates": [
     [
      [
       356389.4,
       3092181.776
      ],
      [
       356385.086,
       3092180.364
      ],
      [
       356379.282,
       3092177.065
      ],
      [
       356380.814,
       3092173.017
      ],
      [
       356379.929,
       3092170.699
      ],
      [
       356366.82,
       3092165.737
      ],
      [
       356365.184,
       3092164.237
      ],
      [
       356370.437,
       3092150.357
      ],
      [
       356373.595,
       3092151.332
      ],
      [
       356375.116,
       3092150.806
      ],
      [
       356377.711,
       3092146.278
      ],
      [
       356400.578,
       3092155.153
      ],
      [
       356398.655,
       3092160.816
      ],
      [
       356398.822,
       3092161.541
      ],
      [
       356397.998,
       3092162.551
      ],
      [
       356395.101,
       3092171.372
      ],
      [
       356392.798,
       3092175.128
      ],
      [
       356391.797,
       3092178.937
      ],
      [
       356390.197,
       3092181.417
      ],
      [
       356389.4,
       3092181.776
      ]
     ]
    ]
   },
   "properties": {
    "sheet": "01352_1889-0003",
    "kind": "wash_area",
    "colour": "yellow",
    "lab_angle_deg": 98,
    "median_lab": [
     226,
     125,
     144
    ],
    "block_number": null,
    "block_number_inferred": false,
    "number_is_big_numeral": false,
    "lot_numbers": [
     "2\u00bd"
    ],
    "numbers_inside": [
     "2\u00bd"
    ],
    "street_names": [],
    "area_source_px2": 269816,
    "compactness": 0.702,
    "touches_content_border": false,
    "centroid_source_px": [
     1708,
     2642
    ],
    "split_by_numerals": false,
    "streets_matched": [],
    "nearby_text": [
     "COMMERCIAL Co. W.Ho.",
     "Hides.",
     "PIER No.2.",
     "TANK."
    ],
    "centroid_map": [
     356384.707,
     3092166.226
    ]
   }
  },
  {
   "type": "Feature",
   "geometry": {
    "type": "Polygon",
    "coordinates": [
     [
      [
       356540.564,
       3092236.563
      ],
      [
       356540.325,
       3092236.031
      ],
      [
       356548.152,
       3092216.515
      ],
      [
       356549.6,
       3092216.181
      ],
      [
       356554.539,
       3092218.271
      ],
      [
       356554.946,
       3092219.527
      ],
      [
       356547.603,
       3092238.345
      ],
      [
       356546.54,
       3092238.825
      ],
      [
       356540.564,
       3092236.563
      ]
     ]
    ]
   },
   "properties": {
    "sheet": "01352_1889-0003",
    "kind": "wash_area",
    "colour": "yellow",
    "lab_angle_deg": 98,
    "median_lab": [
     224,
     126,
     143
    ],
    "block_number": null,
    "block_number_inferred": false,
    "number_is_big_numeral": false,
    "lot_numbers": [
     "1"
    ],
    "numbers_inside": [
     "1"
    ],
    "street_names": [],
    "area_source_px2": 62272,
    "compactness": 0.628,
    "touches_content_border": false,
    "centroid_source_px": [
     5089,
     2650
    ],
    "split_by_numerals": false,
    "streets_matched": [],
    "nearby_text": [
     "ALL",
     "AROUND.",
     "BUILT.",
     "CLAD",
     "IRON",
     "OFF.",
     "Sal."
    ],
    "centroid_map": [
     356547.793,
     3092227.508
    ]
   }
  },
  {
   "type": "Feature",
   "geometry": {
    "type": "Polygon",
    "coordinates": [
     [
      [
       356476.856,
       3092211.57
      ],
      [
       356476.497,
       3092210.773
      ],
      [
       356479.826,
       3092202.556
      ],
      [
       356481.973,
       3092202.708
      ],
      [
       356484.286,
       3092203.583
      ],
      [
       356485.808,
       3092203.057
      ],
      [
       356487.574,
       3092201.301
      ],
      [
       356489.429,
       3092202.224
      ],
      [
       356489.788,
       3092203.021
      ],
      [
       356489.517,
       3092204.902
      ],
      [
       356491.101,
       3092207.705
      ],
      [
       356488.016,
       3092214.692
      ],
      [
       356486.687,
       3092215.291
      ],
      [
       356484.999,
       3092215.093
      ],
      [
       356476.856,
       3092211.57
      ]
     ]
    ]
   },
   "properties": {
    "sheet": "01352_1889-0003",
    "kind": "wash_area",
    "colour": "yellow",
    "lab_angle_deg": 98,
    "median_lab": [
     225,
     125,
     144
    ],
    "block_number": null,
    "block_number_inferred": false,
    "number_is_big_numeral": false,
    "lot_numbers": [
     "0",
     "0",
     "1",
     "1",
     "2",
     "2"
    ],
    "numbers_inside": [
     "0",
     "0",
     "1",
     "1",
     "2",
     "2"
    ],
    "street_names": [],
    "area_source_px2": 51048,
    "compactness": 0.798,
    "touches_content_border": false,
    "centroid_source_px": [
     3812,
     2591
    ],
    "split_by_numerals": false,
    "streets_matched": [],
    "nearby_text": [
     "Sal",
     "TANK"
    ],
    "centroid_map": [
     356485.174,
     3092207.06
    ]
   }
  },
  {
   "type": "Feature",
   "geometry": {
    "type": "Polygon",
    "coordinates": [
     [
      [
       356358.365,
       3092161.876
      ],
      [
       356356.411,
       3092161.798
      ],
      [
       356355.4,
       3092160.974
      ],
      [
       356349.158,
       3092158.833
      ],
      [
       356347.642,
       3092157.598
      ],
      [
       356349.591,
       3092151.283
      ],
      [
       356351.17,
       3092147.693
      ],
      [
       356352.113,
       3092146.948
      ],
      [
       356361.825,
       3092150.403
      ],
      [
       356362.836,
       3092151.227
      ],
      [
       356360.694,
       3092157.468
      ],
      [
       356358.365,
       3092161.876
      ]
     ]
    ]
   },
   "properties": {
    "sheet": "01352_1889-0003",
    "kind": "wash_area",
    "colour": "yellow",
    "lab_angle_deg": 98,
    "median_lab": [
     225,
     125,
     144
    ],
    "block_number": null,
    "block_number_inferred": false,
    "number_is_big_numeral": false,
    "lot_numbers": [],
    "numbers_inside": [],
    "street_names": [
     "TAMPA"
    ],
    "area_source_px2": 55536,
    "compactness": 0.848,
    "touches_content_border": false,
    "centroid_source_px": [
     1093,
     2640
    ],
    "split_by_numerals": false,
    "streets_matched": [
     {
      "label": "TAMPA",
      "modern": [
       "NORTH TAMPA ST",
       "SOUTH TAMPA ST"
      ],
      "distance_px": -63,
      "residual_m": 155.84
     }
    ],
    "nearby_text": [
     "PIER No.2.",
     "TANK."
    ],
    "centroid_map": [
     356355.032,
     3092155.105
    ]
   }
  },
  {
   "type": "Feature",
   "geometry": {
    "type": "Polygon",
    "coordinates": [
     [
      [
       356537.648,
       3092211.658
      ],
      [
       356535.861,
       3092212.304
      ],
      [
       356532.97,
       3092211.21
      ],
      [
       356532.251,
       3092209.615
      ],
      [
       356531.047,
       3092208.719
      ],
      [
       356527.286,
       3092208.177
      ],
      [
       356521.237,
       3092206.108
      ],
      [
       356521.07,
       3092205.384
      ],
      [
       356523.379,
       3092199.866
      ],
      [
       356524.9,
       3092199.34
      ],
      [
       356531.913,
       3092201.774
      ],
      [
       356533.137,
       3092203.78
      ],
      [
       356539.04,
       3092206.234
      ],
      [
       356539.472,
       3092206.839
      ],
      [
       356537.648,
       3092211.658
      ]
     ]
    ]
   },
   "properties": {
    "sheet": "01352_1889-0003",
    "kind": "wash_area",
    "colour": "yellow",
    "lab_angle_deg": 98,
    "median_lab": [
     225,
     125,
     144
    ],
    "block_number": null,
    "block_number_inferred": false,
    "number_is_big_numeral": false,
    "lot_numbers": [
     "0",
     "7"
    ],
    "numbers_inside": [
     "0",
     "7"
    ],
    "street_names": [],
    "area_source_px2": 45792,
    "compactness": 0.641,
    "touches_content_border": false,
    "centroid_source_px": [
     4636,
     2915
    ],
    "split_by_numerals": false,
    "streets_matched": [],
    "nearby_text": [
     "TANK."
    ],
    "centroid_map": [
     356530.795,
     3092206.475
    ]
   }
  },
  {
   "type": "Feature",
   "geometry": {
    "type": "Polygon",
    "coordinates": [
     [
      [
       356431.19,
       3092131.918
      ],
      [
       356430.393,
       3092132.277
      ],
      [
       356426.152,
       3092130.672
      ],
      [
       356414.71,
       3092124.8
      ],
      [
       356411.6,
       3092124.284
      ],
      [
       356409.146,
       3092122.033
      ],
      [
       356395.824,
       3092115.889
      ],
      [
       356395.465,
       3092115.091
      ],
      [
       356398.164,
       3092107.959
      ],
      [
       356401.051,
       3092102.66
      ],
      [
       356401.583,
       3092102.421
      ],
      [
       356403.703,
       3092103.223
      ],
      [
       356408.231,
       3092105.818
      ],
      [
       356409.866,
       3092107.319
      ],
      [
       356410.028,
       3092109.804
      ],
      [
       356410.507,
       3092110.867
      ],
      [
       356411.71,
       3092111.763
      ],
      [
       356434.186,
       3092122.253
      ],
      [
       356434.739,
       3092123.124
      ],
      [
       356434.64,
       3092123.968
      ],
      [
       356431.19,
       3092131.918
      ]
     ]
    ]
   },
   "properties": {
    "sheet": "01352_1889-0003",
    "kind": "wash_area",
    "colour": "yellow",
    "lab_angle_deg": 98,
    "median_lab": [
     227,
     125,
     145
    ],
    "block_number": null,
    "block_number_inferred": false,
    "number_is_big_numeral": false,
    "lot_numbers": [
     "2"
    ],
    "numbers_inside": [
     "2"
    ],
    "street_names": [],
    "area_source_px2": 175768,
    "compactness": 0.534,
    "touches_content_border": false,
    "centroid_source_px": [
     1891,
     3745
    ],
    "split_by_numerals": false,
    "streets_matched": [],
    "nearby_text": [],
    "centroid_map": [
     356413.644,
     3092116.407
    ]
   }
  },
  {
   "type": "Feature",
   "geometry": {
    "type": "Polygon",
    "coordinates": [
     [
      [
       356444.372,
       3092120.378
      ],
      [
       356434.494,
       3092116.199
      ],
      [
       356430.233,
       3092113.484
      ],
      [
       356423.246,
       3092110.399
      ],
      [
       356422.767,
       3092109.336
      ],
      [
       356427.332,
       3092099.604
      ],
      [
       356428.275,
       3092098.859
      ],
      [
       356429.916,
       3092098.599
      ],
      [
       356434.23,
       3092100.011
      ],
      [
       356435.751,
       3092099.485
      ],
      [
       356436.767,
       3092098.547
      ],
      [
       356441.551,
       3092088.237
      ],
      [
       356442.083,
       3092087.997
      ],
      [
       356459.692,
       3092096.204
      ],
      [
       356460.484,
       3092097.606
      ],
      [
       356455.164,
       3092109.917
      ],
      [
       356454.22,
       3092110.662
      ],
      [
       356450.412,
       3092109.662
      ],
      [
       356448.672,
       3092110.766
      ],
      [
       356446.415,
       3092114.981
      ],
      [
       356444.372,
       3092120.378
      ]
     ]
    ]
   },
   "properties": {
    "sheet": "01352_1889-0003",
    "kind": "wash_area",
    "colour": "yellow",
    "lab_angle_deg": 98,
    "median_lab": [
     227,
     125,
     144
    ],
    "block_number": null,
    "block_number_inferred": false,
    "number_is_big_numeral": false,
    "lot_numbers": [
     "2",
     "3"
    ],
    "numbers_inside": [
     "2",
     "3"
    ],
    "street_names": [],
    "area_source_px2": 244688,
    "compactness": 0.676,
    "touches_content_border": false,
    "centroid_source_px": [
     2293,
     4143
    ],
    "split_by_numerals": false,
    "streets_matched": [],
    "nearby_text": [
     "Gen't Storage.",
     "Gen't W.Ho"
    ],
    "centroid_map": [
     356440.277,
     3092104.559
    ]
   }
  },
  {
   "type": "Feature",
   "geometry": {
    "type": "Polygon",
    "coordinates": [
     [
      [
       356580.006,
       3092157.387
      ],
      [
       356578.438,
       3092157.454
      ],
      [
       356575.739,
       3092156.433
      ],
      [
       356573.525,
       3092154.713
      ],
      [
       356575.302,
       3092149.436
      ],
      [
       356575.209,
       3092148.519
      ],
      [
       356574.417,
       3092147.117
      ],
      [
       356570.707,
       3092145.272
      ],
      [
       356569.212,
       3092145.147
      ],
      [
       356567.472,
       3092146.252
      ],
      [
       356565.236,
       3092151.576
      ],
      [
       356564.705,
       3092151.816
      ],
      [
       356562.777,
       3092151.086
      ],
      [
       356562.298,
       3092150.023
      ],
      [
       356564.971,
       3092143.542
      ],
      [
       356567.503,
       3092143.839
      ],
      [
       356570.014,
       3092143.027
      ],
      [
       356574.448,
       3092144.705
      ],
      [
       356575.553,
       3092146.445
      ],
      [
       356576.756,
       3092147.341
      ],
      [
       356582.539,
       3092149.53
      ],
      [
       356582.826,
       3092150.52
      ],
      [
       356581.778,
       3092153.87
      ],
      [
       356580.006,
       3092157.387
      ]
     ]
    ]
   },
   "properties": {
    "sheet": "01352_1889-0003",
    "kind": "wash_area",
    "colour": "yellow",
    "lab_angle_deg": 98,
    "median_lab": [
     218,
     125,
     143
    ],
    "block_number": null,
    "block_number_inferred": false,
    "number_is_big_numeral": false,
    "lot_numbers": [
     "1",
     "1",
     "1"
    ],
    "numbers_inside": [
     "1",
     "1",
     "1"
    ],
    "street_names": [],
    "area_source_px2": 40744,
    "compactness": 0.296,
    "touches_content_border": false,
    "centroid_source_px": [
     5004,
     4239
    ],
    "split_by_numerals": false,
    "streets_matched": [],
    "nearby_text": [
     "Creek.",
     "Oils",
     "Paint",
     "Storge",
     "TANK."
    ],
    "centroid_map": [
     356572.679,
     3092149.379
    ]
   }
  },
  {
   "type": "Feature",
   "geometry": {
    "type": "Polygon",
    "coordinates": [
     [
      [
       356520.805,
       3092133.879
      ],
      [
       356520.008,
       3092134.238
      ],
      [
       356513.308,
       3092132.143
      ],
      [
       356493.838,
       3092124.775
      ],
      [
       356492.467,
       3092123.154
      ],
      [
       356493.489,
       3092120.455
      ],
      [
       356492.603,
       3092118.137
      ],
      [
       356476.869,
       3092111.961
      ],
      [
       356475.739,
       3092110.872
      ],
      [
       356475.598,
       3092109.497
      ],
      [
       356479.22,
       3092100.51
      ],
      [
       356481.83,
       3092098.853
      ],
      [
       356482.268,
       3092097.696
      ],
      [
       356481.695,
       3092095.716
      ],
      [
       356483.008,
       3092092.247
      ],
      [
       356488.245,
       3092083.65
      ],
      [
       356490.006,
       3092083.655
      ],
      [
       356493.038,
       3092086.125
      ],
      [
       356493.398,
       3092086.923
      ],
      [
       356491.699,
       3092090.247
      ],
      [
       356486.03,
       3092098.238
      ],
      [
       356485.519,
       3092099.588
      ],
      [
       356486.092,
       3092101.568
      ],
      [
       356487.295,
       3092102.464
      ],
      [
       356496.741,
       3092106.039
      ],
      [
       356497.559,
       3092106.789
      ],
      [
       356496.001,
       3092111.489
      ],
      [
       356496.574,
       3092113.469
      ],
      [
       356497.777,
       3092114.365
      ],
      [
       356502.909,
       3092116.528
      ],
      [
       356514.116,
       3092120.108
      ],
      [
       356523.463,
       3092124.527
      ],
      [
       356523.989,
       3092126.048
      ],
      [
       356520.805,
       3092133.879
      ]
     ]
    ]
   },
   "properties": {
    "sheet": "01352_1889-0003",
    "kind": "wash_area",
    "colour": "yellow",
    "lab_angle_deg": 98,
    "median_lab": [
     223,
     125,
     144
    ],
    "block_number": null,
    "block_number_inferred": false,
    "number_is_big_numeral": false,
    "lot_numbers": [
     "12"
    ],
    "numbers_inside": [
     "12"
    ],
    "street_names": [],
    "area_source_px2": 260992,
    "compactness": 0.307,
    "touches_content_border": false,
    "centroid_source_px": [
     3300,
     4445
    ],
    "split_by_numerals": false,
    "streets_matched": [],
    "nearby_text": [
     "PENCER, HENDERSON MY CO. LIVERY.",
     "SPENCER HENDERS",
     "TANK."
    ],
    "centroid_map": [
     356494.316,
     3092108.372
    ]
   }
  },
  {
   "type": "Feature",
   "geometry": {
    "type": "Polygon",
    "coordinates": [
     [
      [
       356593.054,
       3092142.711
      ],
      [
       356592.887,
       3092141.987
      ],
      [
       356594.326,
       3092137.021
      ],
      [
       356595.415,
       3092135.891
      ],
      [
       356597.514,
       3092135.584
      ],
      [
       356599.255,
       3092134.479
      ],
      [
       356601.105,
       3092129.009
      ],
      [
       356602.991,
       3092127.519
      ],
      [
       356605.789,
       3092127.696
      ],
      [
       356606.867,
       3092130.088
      ],
      [
       356613.202,
       3092133.146
      ],
      [
       356613.39,
       3092134.98
      ],
      [
       356610.862,
       3092141.076
      ],
      [
       356609.414,
       3092141.409
      ],
      [
       356602.787,
       3092139.122
      ],
      [
       356600.588,
       3092140.273
      ],
      [
       356598.717,
       3092144.634
      ],
      [
       356596.185,
       3092144.337
      ],
      [
       356593.054,
       3092142.711
      ]
     ]
    ]
   },
   "properties": {
    "sheet": "01352_1889-0003",
    "kind": "wash_area",
    "colour": "yellow",
    "lab_angle_deg": 98,
    "median_lab": [
     223,
     125,
     145
    ],
    "block_number": null,
    "block_number_inferred": false,
    "number_is_big_numeral": false,
    "lot_numbers": [
     "1",
     "2",
     "2"
    ],
    "numbers_inside": [
     "1",
     "2",
     "2"
    ],
    "street_names": [],
    "area_source_px2": 69952,
    "compactness": 0.597,
    "touches_content_border": false,
    "centroid_source_px": [
     5448,
     4670
    ],
    "split_by_numerals": false,
    "streets_matched": [],
    "nearby_text": [
     "SHEDS",
     "TANK."
    ],
    "centroid_map": [
     356601.938,
     3092136.707
    ]
   }
  },
  {
   "type": "Feature",
   "geometry": {
    "type": "Polygon",
    "coordinates": [
     [
      [
       356414.949,
       3092070.014
      ],
      [
       356421.791,
       3092057.177
      ],
      [
       356422.516,
       3092057.01
      ],
      [
       356429.403,
       3092060.939
      ],
      [
       356427.313,
       3092065.879
      ],
      [
       356427.407,
       3092066.796
      ],
      [
       356428.319,
       3092068.463
      ],
      [
       356433.737,
       3092071.615
      ],
      [
       356435.618,
       3092071.887
      ],
      [
       356437.697,
       3092070.47
      ],
      [
       356441.261,
       3092064.546
      ],
      [
       356455.375,
       3092072.091
      ],
      [
       356457.443,
       3092074.196
      ],
      [
       356458.939,
       3092074.322
      ],
      [
       356460.001,
       3092073.842
      ],
      [
       356461.841,
       3092071.894
      ],
      [
       356472.631,
       3092077.741
      ],
      [
       356473.376,
       3092078.684
      ],
      [
       356470.343,
       3092084.368
      ],
      [
       356468.842,
       3092086.004
      ],
      [
       356461.157,
       3092082.434
      ],
      [
       356459.136,
       3092080.787
      ],
      [
       356457.214,
       3092078.297
      ],
      [
       356455.286,
       3092077.567
      ],
      [
       356452.748,
       3092079.031
      ],
      [
       356450.419,
       3092083.439
      ],
      [
       356448.945,
       3092084.423
      ],
      [
       356440.807,
       3092079.14
      ],
      [
       356433.58,
       3092075.523
      ],
      [
       356426.959,
       3092071.474
      ],
      [
       356425.536,
       3092071.156
      ],
      [
       356424.015,
       3092071.682
      ],
      [
       356421.665,
       3092074.98
      ],
      [
       356415.741,
       3092071.416
      ],
      [
       356414.949,
       3092070.014
      ]
     ]
    ]
   },
   "properties": {
    "sheet": "01352_1889-0003",
    "kind": "wash_area",
    "colour": "yellow",
    "lab_angle_deg": 98,
    "median_lab": [
     227,
     125,
     143
    ],
    "block_number": null,
    "block_number_inferred": false,
    "number_is_big_numeral": false,
    "lot_numbers": [],
    "numbers_inside": [],
    "street_names": [],
    "area_source_px2": 210600,
    "compactness": 0.266,
    "touches_content_border": false,
    "centroid_source_px": [
     2134,
     4727
    ],
    "split_by_numerals": false,
    "streets_matched": [],
    "nearby_text": [
     "DOCK."
    ],
    "centroid_map": [
     356443.266,
     3092073.514
    ]
   }
  },
  {
   "type": "Feature",
   "geometry": {
    "type": "Polygon",
    "coordinates": [
     [
      [
       356507.417,
       3092101.705
      ],
      [
       356507.131,
       3092100.715
      ],
      [
       356508.225,
       3092097.823
      ],
      [
       356510.591,
       3092097.396
      ],
      [
       356512.372,
       3092098.512
      ],
      [
       356513.868,
       3092098.637
      ],
      [
       356516.358,
       3092096.714
      ],
      [
       356521.975,
       3092098.179
      ],
      [
       356523.715,
       3092097.074
      ],
      [
       356525.174,
       3092093.219
      ],
      [
       356526.55,
       3092093.078
      ],
      [
       356528.29,
       3092091.974
      ],
      [
       356528.634,
       3092089.9
      ],
      [
       356527.842,
       3092088.499
      ],
      [
       356526.253,
       3092087.457
      ],
      [
       356526.186,
       3092085.888
      ],
      [
       356532.017,
       3092072.228
      ],
      [
       356536.357,
       3092072.989
      ],
      [
       356543.151,
       3092076.001
      ],
      [
       356543.39,
       3092076.532
      ],
      [
       356537.361,
       3092091.881
      ],
      [
       356535.381,
       3092092.454
      ],
      [
       356534.193,
       3092094.428
      ],
      [
       356535.438,
       3092097.544
      ],
      [
       356533.713,
       3092101.519
      ],
      [
       356532.916,
       3092101.879
      ],
      [
       356527.18,
       3092100.149
      ],
      [
       356525.658,
       3092100.675
      ],
      [
       356524.981,
       3092101.3
      ],
      [
       356523.011,
       3092106.505
      ],
      [
       356521.682,
       3092107.104
      ],
      [
       356507.417,
       3092101.705
      ]
     ]
    ]
   },
   "properties": {
    "sheet": "01352_1889-0003",
    "kind": "wash_area",
    "colour": "yellow",
    "lab_angle_deg": 98,
    "median_lab": [
     226,
     125,
     145
    ],
    "block_number": null,
    "block_number_inferred": false,
    "number_is_big_numeral": false,
    "lot_numbers": [
     "1",
     "2\u00bd",
     "1\u00bd"
    ],
    "numbers_inside": [
     "1",
     "2\u00bd",
     "1\u00bd"
    ],
    "street_names": [],
    "area_source_px2": 163664,
    "compactness": 0.359,
    "touches_content_border": false,
    "centroid_source_px": [
     3770,
     4924
    ],
    "split_by_numerals": false,
    "streets_matched": [],
    "nearby_text": [
     "Dng",
     "Genit S.",
     "TANK."
    ],
    "centroid_map": [
     356525.703,
     3092093.86
    ]
   }
  },
  {
   "type": "Feature",
   "geometry": {
    "type": "Polygon",
    "coordinates": [
     [
      [
       356583.59,
       3092105.41
      ],
      [
       356588.89,
       3092091.989
      ],
      [
       356590.145,
       3092091.583
      ],
      [
       356614.388,
       3092100.317
      ],
      [
       356627.35,
       3092105.664
      ],
      [
       356627.949,
       3092106.992
      ],
      [
       356624.713,
       3092116.126
      ],
      [
       356624.036,
       3092116.751
      ],
      [
       356623.119,
       3092116.845
      ],
      [
       356607.551,
       3092111.393
      ],
      [
       356605.352,
       3092112.545
      ],
      [
       356603.263,
       3092117.484
      ],
      [
       356602.658,
       3092117.916
      ],
      [
       356599.767,
       3092116.822
      ],
      [
       356597.891,
       3092114.79
      ],
      [
       356593.265,
       3092113.039
      ],
      [
       356592.02,
       3092109.923
      ],
      [
       356584.262,
       3092106.546
      ],
      [
       356583.59,
       3092105.41
      ]
     ]
    ]
   },
   "properties": {
    "sheet": "01352_1889-0003",
    "kind": "wash_area",
    "colour": "yellow",
    "lab_angle_deg": 98,
    "median_lab": [
     225,
     125,
     144
    ],
    "block_number": "404",
    "block_number_inferred": false,
    "number_is_big_numeral": true,
    "lot_numbers": [
     "1",
     "12",
     "108",
     "1",
     "2"
    ],
    "numbers_inside": [
     "1",
     "12",
     "108",
     "1",
     "2"
    ],
    "street_names": [],
    "area_source_px2": 245328,
    "compactness": 0.592,
    "touches_content_border": false,
    "centroid_source_px": [
     5317,
     5184
    ],
    "split_by_numerals": false,
    "streets_matched": [],
    "nearby_text": [
     "2 Vac.",
     "Geri t 5.",
     "Mach's",
     "Storg",
     "TANK.",
     "Vac."
    ],
    "centroid_map": [
     356605.0,
     3092109.546
    ]
   }
  },
  {
   "type": "Feature",
   "geometry": {
    "type": "Polygon",
    "coordinates": [
     [
      [
       356461.619,
       3092049.771
      ],
      [
       356461.186,
       3092049.167
      ],
      [
       356462.062,
       3092046.854
      ],
      [
       356463.609,
       3092045.676
      ],
      [
       356464.047,
       3092044.52
      ],
      [
       356463.474,
       3092042.54
      ],
      [
       356461.406,
       3092040.435
      ],
      [
       356470.145,
       3092022.585
      ],
      [
       356471.353,
       3092021.72
      ],
      [
       356472.646,
       3092017.141
      ],
      [
       356476.064,
       3092011.603
      ],
      [
       356477.815,
       3092006.976
      ],
      [
       356478.758,
       3092006.231
      ],
      [
       356479.102,
       3092004.158
      ],
      [
       356478.311,
       3092002.756
      ],
      [
       356476.721,
       3092001.714
      ],
      [
       356481.052,
       3091989.689
      ],
      [
       356491.115,
       3091964.848
      ],
      [
       356492.683,
       3091964.78
      ],
      [
       356495.486,
       3091963.196
      ],
      [
       356506.089,
       3091967.209
      ],
      [
       356507.584,
       3091967.334
      ],
      [
       356509.663,
       3091965.917
      ],
      [
       356511.805,
       3091959.676
      ],
      [
       356517.199,
       3091947.171
      ],
      [
       356519.079,
       3091947.443
      ],
      [
       356519.512,
       3091948.047
      ],
      [
       356519.34,
       3091949.084
      ],
      [
       356510.278,
       3091970.117
      ],
      [
       356509.407,
       3091970.669
      ],
      [
       356503.551,
       3091968.673
      ],
      [
       356501.353,
       3091969.824
      ],
      [
       356500.915,
       3091970.981
      ],
      [
       356501.175,
       3091972.622
      ],
      [
       356496.699,
       3091985.032
      ],
      [
       356497.272,
       3091987.012
      ],
      [
       356498.475,
       3091987.908
      ],
      [
       356509.463,
       3091992.067
      ],
      [
       356511.052,
       3091993.109
      ],
      [
       356511.266,
       3091994.292
      ],
      [
       356508.05,
       3092004.535
      ],
      [
       356507.008,
       3092006.124
      ],
      [
       356504.715,
       3092006.358
      ],
      [
       356501.944,
       3092005.53
      ],
      [
       356495.801,
       3092002.544
      ],
      [
       356491.029,
       3092001.178
      ],
      [
       356489.023,
       3092002.402
      ],
      [
       356487.756,
       3092006.331
      ],
      [
       356485.818,
       3092009.123
      ],
      [
       356486.703,
       3092011.442
      ],
      [
       356489.595,
       3092012.536
      ],
      [
       356490.58,
       3092014.011
      ],
      [
       356497.853,
       3092018.086
      ],
      [
       356500.145,
       3092017.852
      ],
      [
       356502.073,
       3092018.581
      ],
      [
       356502.552,
       3092019.644
      ],
      [
       356501.969,
       3092021.186
      ],
      [
       356500.979,
       3092021.473
      ],
      [
       356498.858,
       3092020.67
      ],
      [
       356497.415,
       3092019.242
      ],
      [
       356495.341,
       3092018.898
      ],
      [
       356491.538,
       3092016.137
      ],
      [
       356485.974,
       3092013.37
      ],
      [
       356480.847,
       3092009.446
      ],
      [
       356479.618,
       3092009.201
      ],
      [
       356477.419,
       3092010.352
      ],
      [
       356474.407,
       3092017.146
      ],
      [
       356475.412,
       3092019.731
      ],
      [
       356478.424,
       3092021.091
      ],
      [
       356484.274,
       3092024.848
      ],
      [
       356484.561,
       3092025.838
      ],
      [
       356483.612,
       3092028.344
      ],
      [
       356483.706,
       3092029.261
      ],
      [
       356484.498,
       3092030.662
      ],
      [
       356487.363,
       3092032.408
      ],
      [
       356488.859,
       3092032.533
      ],
      [
       356490.599,
       3092031.429
      ],
      [
       356491.548,
       3092028.923
      ],
      [
       356492.829,
       3092027.865
      ],
      [
       356496.758,
       3092029.131
      ],
      [
       356498.347,
       3092030.174
      ],
      [
       356498.706,
       3092030.971
      ],
      [
       356496.835,
       3092035.332
      ],
      [
       356496.038,
       3092035.691
      ],
      [
       356492.615,
       3092034.836
      ],
      [
       356490.875,
       3092035.941
      ],
      [
       356489.999,
       3092038.254
      ],
      [
       356490.572,
       3092040.234
      ],
      [
       356493.365,
       3092042.172
      ],
      [
       356493.724,
       3092042.969
      ],
      [
       356493.068,
       3092044.704
      ],
      [
       356491.322,
       3092047.57
      ],
      [
       356490.452,
       3092048.122
      ],
      [
       356487.102,
       3092047.075
      ],
      [
       356485.58,
       3092047.601
      ],
      [
       356481.969,
       3092053.066
      ],
      [
       356480.74,
       3092052.821
      ],
      [
       356478.406,
       3092050.836
      ],
      [
       356471.977,
       3092046.86
      ],
      [
       356466.652,
       3092044.624
      ],
      [
       356464.453,
       3092045.775
      ],
      [
       356464.109,
       3092047.849
      ],
      [
       356462.921,
       3092049.824
      ],
      [
       356461.619,
       3092049.771
      ]
     ]
    ]
   },
   "properties": {
    "sheet": "01352_1889-0003",
    "kind": "wash_area",
    "colour": "yellow",
    "lab_angle_deg": 98,
    "median_lab": [
     226,
     125,
     141
    ],
    "block_number": null,
    "block_number_inferred": false,
    "number_is_big_numeral": false,
    "lot_numbers": [
     "0",
     "1",
     "1"
    ],
    "numbers_inside": [
     "0",
     "1",
     "1"
    ],
    "street_names": [],
    "area_source_px2": 623272,
    "compactness": 0.126,
    "touches_content_border": false,
    "centroid_source_px": [
     2567,
     6134
    ],
    "split_by_numerals": false,
    "streets_matched": [],
    "nearby_text": [
     "DOCK.",
     "DOCKS.",
     "OFF",
     "PIER N\u00ba.",
     "RCIAL COMP.",
     "TAMPA COMMERCIAL COMP",
     "TAMPA WHARF CO.",
     "TANK"
    ],
    "centroid_map": [
     356489.797,
     3092013.604
    ]
   }
  },
  {
   "type": "Feature",
   "geometry": {
    "type": "Polygon",
    "coordinates": [
     [
      [
       356516.702,
       3092039.324
      ],
      [
       356516.222,
       3092038.261
      ],
      [
       356519.823,
       3092028.164
      ],
      [
       356520.501,
       3092027.539
      ],
      [
       356524.888,
       3092028.758
      ],
      [
       356526.669,
       3092029.874
      ],
      [
       356527.435,
       3092031.926
      ],
      [
       356530.639,
       3092033.36
      ],
      [
       356532.135,
       3092033.485
      ],
      [
       356534.552,
       3092031.755
      ],
      [
       356537.809,
       3092023.732
      ],
      [
       356540.133,
       3092021.085
      ],
      [
       356541.17,
       3092021.257
      ],
      [
       356542.082,
       3092022.924
      ],
      [
       356543.285,
       3092023.821
      ],
      [
       356545.937,
       3092024.384
      ],
      [
       356548.667,
       3092022.993
      ],
      [
       356549.814,
       3092018.799
      ],
      [
       356550.418,
       3092018.366
      ],
      [
       356553.768,
       3092019.414
      ],
      [
       356555.821,
       3092018.648
      ],
      [
       356558.4,
       3092019.404
      ],
      [
       356560.599,
       3092018.252
      ],
      [
       356561.037,
       3092017.096
      ],
      [
       356560.464,
       3092015.116
      ],
      [
       356560.808,
       3092013.042
      ],
      [
       356560.016,
       3092011.641
      ],
      [
       356557.849,
       3092010.38
      ],
      [
       356554.618,
       3092009.598
      ],
      [
       356553.556,
       3092010.077
      ],
      [
       356552.513,
       3092011.666
      ],
      [
       356551.716,
       3092012.025
      ],
      [
       356547.282,
       3092010.347
      ],
      [
       356545.407,
       3092008.315
      ],
      [
       356543.912,
       3092008.19
      ],
      [
       356541.374,
       3092009.654
      ],
      [
       356539.832,
       3092009.07
      ],
      [
       356536.727,
       3092006.793
      ],
      [
       356534.346,
       3092004.349
      ],
      [
       356535.972,
       3092001.218
      ],
      [
       356536.769,
       3092000.859
      ],
      [
       356539.806,
       3092001.568
      ],
      [
       356541.547,
       3092000.463
      ],
      [
       356541.985,
       3091999.307
      ],
      [
       356541.771,
       3091998.124
      ],
      [
       356546.221,
       3091986.365
      ],
      [
       356547.337,
       3091984.583
      ],
      [
       356548.592,
       3091984.177
      ],
      [
       356551.916,
       3091985.876
      ],
      [
       356560.351,
       3091988.627
      ],
      [
       356561.143,
       3091990.029
      ],
      [
       356559.611,
       3091994.077
      ],
      [
       356560.184,
       3091996.057
      ],
      [
       356565.436,
       3091998.485
      ],
      [
       356566.373,
       3091999.501
      ],
      [
       356562.189,
       3092011.141
      ],
      [
       356563.074,
       3092013.459
      ],
      [
       356566.591,
       3092015.231
      ],
      [
       356567.07,
       3092016.294
      ],
      [
       356566.294,
       3092017.763
      ],
      [
       356564.798,
       3092017.638
      ],
      [
       356563.058,
       3092018.742
      ],
      [
       356562.62,
       3092019.899
      ],
      [
       356563.48,
       3092022.869
      ],
      [
       356562.167,
       3092026.339
      ],
      [
       356560.645,
       3092026.865
      ],
      [
       356558.983,
       3092026.015
      ],
      [
       356555.102,
       3092025.208
      ],
      [
       356552.903,
       3092026.359
      ],
      [
       356552.392,
       3092027.708
      ],
      [
       356552.533,
       3092029.084
      ],
      [
       356547.598,
       3092041.541
      ],
      [
       356546.728,
       3092042.093
      ],
      [
       356535.255,
       3092038.633
      ],
      [
       356533.056,
       3092039.784
      ],
      [
       356531.743,
       3092043.254
      ],
      [
       356530.946,
       3092043.613
      ],
      [
       356527.934,
       3092042.253
      ],
      [
       356527.289,
       3092040.466
      ],
      [
       356526.085,
       3092039.57
      ],
      [
       356524.59,
       3092039.445
      ],
      [
       356521.714,
       3092041.221
      ],
      [
       356516.702,
       3092039.324
      ]
     ]
    ]
   },
   "properties": {
    "sheet": "01352_1889-0003",
    "kind": "wash_area",
    "colour": "yellow",
    "lab_angle_deg": 98,
    "median_lab": [
     225,
     125,
     143
    ],
    "block_number": null,
    "block_number_inferred": false,
    "number_is_big_numeral": false,
    "lot_numbers": [
     "1",
     "1",
     "0",
     "1\u00bd",
     "9",
     "2\u00bd",
     "2\u00bd"
    ],
    "numbers_inside": [
     "1",
     "1",
     "0",
     "1\u00bd",
     "9",
     "2\u00bd",
     "2\u00bd"
    ],
    "street_names": [
     "WHITING"
    ],
    "area_source_px2": 408568,
    "compactness": 0.205,
    "touches_content_border": false,
    "centroid_source_px": [
     3625,
     6446
    ],
    "split_by_numerals": false,
    "streets_matched": [
     {
      "label": "WHITING",
      "modern": [
       "EAST WHITING ST"
      ],
      "distance_px": 176,
      "residual_m": 5.82
     }
    ],
    "nearby_text": [
     "HOTEL",
     "HOTEL COLLINS.",
     "KITCHEN",
     "RIMS.",
     "TANK",
     "THANK.",
     "Vac"
    ],
    "centroid_map": [
     356546.476,
     3092017.866
    ]
   }
  },
  {
   "type": "Feature",
   "geometry": {
    "type": "Polygon",
    "coordinates": [
     [
      [
       356551.406,
       3092241.107
      ],
      [
       356550.661,
       3092240.164
      ],
      [
       356558.442,
       3092220.189
      ],
      [
       356562.11,
       3092211.66
      ],
      [
       356562.715,
       3092211.228
      ],
      [
       356566.681,
       3092200.167
      ],
      [
       356567.869,
       3092198.192
      ],
      [
       356568.286,
       3092195.926
      ],
      [
       356573.632,
       3092182.963
      ],
      [
       356574.429,
       3092182.604
      ],
      [
       356575.659,
       3092182.849
      ],
      [
       356591.44,
       3092189.482
      ],
      [
       356591.409,
       3092191.895
      ],
      [
       356588.782,
       3092198.835
      ],
      [
       356587.886,
       3092200.038
      ],
      [
       356578.547,
       3092224.713
      ],
      [
       356577.87,
       3092225.338
      ],
      [
       356569.047,
       3092246.902
      ],
      [
       356568.177,
       3092247.454
      ],
      [
       356567.333,
       3092247.355
      ],
      [
       356560.732,
       3092244.416
      ],
      [
       356554.345,
       3092242.66
      ],
      [
       356551.406,
       3092241.107
      ]
     ]
    ]
   },
   "properties": {
    "sheet": "01352_1889-0003",
    "kind": "wash_area",
    "colour": "pink",
    "lab_angle_deg": 357,
    "median_lab": [
     215,
     134,
     132
    ],
    "block_number": null,
    "block_number_inferred": false,
    "number_is_big_numeral": false,
    "lot_numbers": [
     "3",
     "2",
     "2",
     "4",
     "8",
     "2",
     "30",
     "0",
     "2",
     "2",
     "2"
    ],
    "numbers_inside": [
     "3",
     "2",
     "2",
     "4",
     "8",
     "2",
     "30",
     "0",
     "2",
     "2",
     "2"
    ],
    "street_names": [],
    "area_source_px2": 468072,
    "compactness": 0.586,
    "touches_content_border": false,
    "centroid_source_px": [
     5411,
     3035
    ],
    "split_by_numerals": false,
    "streets_matched": [],
    "nearby_text": [
     "ALL",
     "AROUND.",
     "BEING",
     "Banky",
     "CLAD",
     "IRON",
     "OFF.",
     "Sal.",
     "Vac."
    ],
    "centroid_map": [
     356570.333,
     3092214.827
    ]
   }
  },
  {
   "type": "Feature",
   "geometry": {
    "type": "Polygon",
    "coordinates": [
     [
      [
       356511.003,
       3092223.832
      ],
      [
       356514.213,
       3092215.35
      ],
      [
       356515.375,
       3092214.027
      ],
      [
       356516.25,
       3092211.714
      ],
      [
       356517.12,
       3092211.161
      ],
      [
       356540.758,
       3092220.328
      ],
      [
       356545.046,
       3092222.392
      ],
      [
       356545.213,
       3092223.116
      ],
      [
       356539.673,
       3092236.005
      ],
      [
       356517.239,
       3092227.735
      ],
      [
       356511.409,
       3092225.088
      ],
      [
       356511.003,
       3092223.832
      ]
     ]
    ]
   },
   "properties": {
    "sheet": "01352_1889-0003",
    "kind": "wash_area",
    "colour": "pink",
    "lab_angle_deg": 357,
    "median_lab": [
     216,
     134,
     132
    ],
    "block_number": null,
    "block_number_inferred": false,
    "number_is_big_numeral": false,
    "lot_numbers": [
     "0",
     "0",
     "0",
     "1",
     "12",
     "8",
     "0",
     "0",
     "0",
     "1",
     "1",
     "1"
    ],
    "numbers_inside": [
     "0",
     "0",
     "0",
     "1",
     "12",
     "8",
     "0",
     "0",
     "0",
     "1",
     "1",
     "1"
    ],
    "street_names": [],
    "area_source_px2": 178488,
    "compactness": 0.722,
    "touches_content_border": false,
    "centroid_source_px": [
     4628,
     2611
    ],
    "split_by_numerals": false,
    "streets_matched": [],
    "nearby_text": [
     "ALL",
     "AROUND.",
     "BEING",
     "BUILT.",
     "CLAD",
     "IRON",
     "Sal.",
     "TANK."
    ],
    "centroid_map": [
     356524.865,
     3092220.979
    ]
   }
  },
  {
   "type": "Feature",
   "geometry": {
    "type": "Polygon",
    "coordinates": [
     [
      [
       356613.035,
       3092077.106
      ],
      [
       356616.032,
       3092067.441
      ],
      [
       356617.605,
       3092065.612
      ],
      [
       356631.823,
       3092070.553
      ],
      [
       356633.725,
       3092071.934
      ],
      [
       356637.195,
       3092073.247
      ],
      [
       356637.747,
       3092074.117
      ],
      [
       356636.455,
       3092078.697
      ],
      [
       356634.099,
       3092083.755
      ],
      [
       356631.395,
       3092084.495
      ],
      [
       356622.288,
       3092080.608
      ],
      [
       356615.202,
       3092078.367
      ],
      [
       356613.035,
       3092077.106
      ]
     ]
    ]
   },
   "properties": {
    "sheet": "01352_1889-0003",
    "kind": "wash_area",
    "colour": "pink",
    "lab_angle_deg": 357,
    "median_lab": [
     215,
     134,
     132
    ],
    "block_number": null,
    "block_number_inferred": false,
    "number_is_big_numeral": false,
    "lot_numbers": [
     "01",
     "2",
     "2",
     "2"
    ],
    "numbers_inside": [
     "01",
     "2",
     "2",
     "2"
    ],
    "street_names": [],
    "area_source_px2": 106864,
    "compactness": 0.779,
    "touches_content_border": false,
    "centroid_source_px": [
     5486,
     5955
    ],
    "split_by_numerals": false,
    "streets_matched": [],
    "nearby_text": [
     "Bank",
     "Jewelry",
     "TANK."
    ],
    "centroid_map": [
     356627.207,
     3092075.472
    ]
   }
  }
 ]
}