{
 "type": "FeatureCollection",
 "crs": {
  "type": "name",
  "properties": {
   "name": "urn:ogc:def:crs:EPSG::32617"
  }
 },
 "georeference": {
  "rms_m": 63.725038183982456,
  "n_labels": 6,
  "from": "01352_1889-0003_georef.json"
 },
 "source_blocks": "runs/hunyuan/Sanborn_Hillsborough-County/1889/0003/01352_1889-0003_blocks_px.geojson",
 "lot_convention": "numbered",
 "note": "blocks: polygons with lots inside and streets around them; streets_1895 = OCR street labels around the block that matched the modern layer, streets_modern = modern centrelines within --block-street-reach-m of the polygon, nearby_text = other OCR text the tracer saw nearby",
 "features": [
  {
   "type": "Feature",
   "geometry": {
    "type": "Polygon",
    "coordinates": [
     [
      [
       356536.557,
       3092328.819
      ],
      [
       356527.882,
       3092325.536
      ],
      [
       356526.407,
       3092326.521
      ],
      [
       356525.552,
       3092326.307
      ],
      [
       356524.69,
       3092324.218
      ],
      [
       356505.455,
       3092316.663
      ],
      [
       356504.669,
       3092317.577
      ],
      [
       356504.029,
       3092317.666
      ],
      [
       356503.323,
       3092315.746
      ],
      [
       356488.553,
       3092309.935
      ],
      [
       356487.067,
       3092310.805
      ],
      [
       356486.517,
       3092309.055
      ],
      [
       356481.083,
       3092307.108
      ],
      [
       356479.301,
       3092305.993
      ],
      [
       356488.577,
       3092282.066
      ],
      [
       356487.671,
       3092280.676
      ],
      [
       356488.286,
       3092278.76
      ],
      [
       356490.169,
       3092278.151
      ],
      [
       356495.865,
       3092263.392
      ],
      [
       356494.824,
       3092262.502
      ],
      [
       356495.118,
       3092261.291
      ],
      [
       356497.038,
       3092260.585
      ],
      [
       356502.459,
       3092246.989
      ],
      [
       356508.579,
       3092249.306
      ],
      [
       356509.68,
       3092248.29
      ],
      [
       356511.199,
       3092248.644
      ],
      [
       356511.772,
       3092250.624
      ],
      [
       356518.688,
       3092253.022
      ],
      [
       356519.283,
       3092253.632
      ],
      [
       356522.078,
       3092254.69
      ],
      [
       356523.202,
       3092253.904
      ],
      [
       356524.384,
       3092254.13
      ],
      [
       356525.223,
       3092255.991
      ],
      [
       356528.752,
       3092257.437
      ],
      [
       356529.581,
       3092256.703
      ],
      [
       356530.299,
       3092256.7
      ],
      [
       356531.497,
       3092257.318
      ],
      [
       356531.993,
       3092258.773
      ],
      [
       356541.8,
       3092262.705
      ],
      [
       356542.668,
       3092262.593
      ],
      [
       356543.245,
       3092263.252
      ],
      [
       356559.635,
       3092270.171
      ],
      [
       356559.056,
       3092271.991
      ],
      [
       356559.735,
       3092272.964
      ],
      [
       356558.922,
       3092274.53
      ],
      [
       356557.793,
       3092275.039
      ],
      [
       356556.096,
       3092279.521
      ],
      [
       356557.041,
       3092280.374
      ],
      [
       356556.59,
       3092281.856
      ],
      [
       356554.917,
       3092282.491
      ],
      [
       356553.604,
       3092285.96
      ],
      [
       356554.349,
       3092286.904
      ],
      [
       356553.963,
       3092288.796
      ],
      [
       356552.364,
       3092289.238
      ],
      [
       356550.43,
       3092294.346
      ],
      [
       356551.519,
       3092295.254
      ],
      [
       356551.171,
       3092296.61
      ],
      [
       356550.493,
       3092297.675
      ],
      [
       356548.966,
       3092297.924
      ],
      [
       356545.203,
       3092307.574
      ],
      [
       356546.238,
       3092308.627
      ],
      [
       356546.066,
       3092309.664
      ],
      [
       356545.599,
       3092310.314
      ],
      [
       356544.0,
       3092310.755
      ],
      [
       356538.366,
       3092324.766
      ],
      [
       356539.515,
       3092325.807
      ],
      [
       356539.288,
       3092326.988
      ],
      [
       356538.785,
       3092327.735
      ],
      [
       356537.144,
       3092327.995
      ],
      [
       356536.557,
       3092328.819
      ]
     ]
    ]
   },
   "properties": {
    "sheet": "01352_1889-0003",
    "block_id": "01352_1889-0003:block:3",
    "block_number": "3",
    "block_number_inferred": false,
    "lot_numbers": [
     "1",
     "2",
     "7",
     "18",
     "19",
     "2\u00bd",
     "106",
     "321",
     "418",
     "419",
     "420",
     "421",
     "477",
     "321\u00bd"
    ],
    "street_names": [],
    "area_source_px2": 1499937,
    "centroid_source_px": [
     4993,
     1359
    ],
    "n_outlines": 13,
    "compactness": 0.684,
    "streets_through": [],
    "merged_across": null,
    "streets_1895": [],
    "streets_modern": [
     {
      "name": "EAST KENNEDY BLVD",
      "distance_m": 8.9,
      "bearing_deg": 186,
      "side": "S",
      "ring_share": 0.33
     },
     {
      "name": "NORTH FRANKLIN ST",
      "distance_m": 10.4,
      "bearing_deg": 93,
      "side": "E",
      "ring_share": 0.43
     },
     {
      "name": "EAST MADISON ST",
      "distance_m": 11.6,
      "bearing_deg": 2,
      "side": "N",
      "ring_share": 0.26
     },
     {
      "name": "NORTH TAMPA ST",
      "distance_m": 13.4,
      "bearing_deg": 252,
      "side": "W",
      "ring_share": 0.14
     }
    ],
    "nearby_text": [],
    "centroid_map": [
     356519.619,
     3092287.974
    ],
    "is_block": true
   }
  },
  {
   "type": "Feature",
   "geometry": {
    "type": "Polygon",
    "coordinates": [
     [
      [
       356456.946,
       3092297.367
      ],
      [
       356440.428,
       3092291.226
      ],
      [
       356439.063,
       3092291.921
      ],
      [
       356438.404,
       3092290.459
      ],
      [
       356427.489,
       3092286.108
      ],
      [
       356426.039,
       3092286.882
      ],
      [
       356425.416,
       3092285.324
      ],
      [
       356398.382,
       3092274.651
      ],
      [
       356397.148,
       3092275.727
      ],
      [
       356396.425,
       3092275.453
      ],
      [
       356396.647,
       3092273.995
      ],
      [
       356398.413,
       3092274.277
      ],
      [
       356408.572,
       3092247.434
      ],
      [
       356408.364,
       3092246.529
      ],
      [
       356407.447,
       3092246.622
      ],
      [
       356406.985,
       3092245.952
      ],
      [
       356419.11,
       3092215.224
      ],
      [
       356427.183,
       3092218.059
      ],
      [
       356427.97,
       3092217.145
      ],
      [
       356428.609,
       3092217.056
      ],
      [
       356429.729,
       3092217.59
      ],
      [
       356430.267,
       3092219.226
      ],
      [
       356443.098,
       3092224.193
      ],
      [
       356444.162,
       3092223.273
      ],
      [
       356445.525,
       3092223.458
      ],
      [
       356445.946,
       3092223.948
      ],
      [
       356446.001,
       3092225.402
      ],
      [
       356460.604,
       3092230.928
      ],
      [
       356461.668,
       3092230.009
      ],
      [
       356462.958,
       3092230.387
      ],
      [
       356463.736,
       3092232.114
      ],
      [
       356479.615,
       3092238.344
      ],
      [
       356478.288,
       3092242.58
      ],
      [
       356479.112,
       3092243.167
      ],
      [
       356479.261,
       3092243.94
      ],
      [
       356478.64,
       3092245.578
      ],
      [
       356476.853,
       3092246.224
      ],
      [
       356474.573,
       3092252.248
      ],
      [
       356475.235,
       3092252.829
      ],
      [
       356475.467,
       3092253.964
      ],
      [
       356474.865,
       3092255.554
      ],
      [
       356474.005,
       3092256.661
      ],
      [
       356473.04,
       3092256.737
      ],
      [
       356472.562,
       3092257.272
      ],
      [
       356468.914,
       3092266.911
      ],
      [
       356469.81,
       3092267.746
      ],
      [
       356469.375,
       3092270.06
      ],
      [
       356467.564,
       3092270.477
      ],
      [
       356461.735,
       3092285.295
      ],
      [
       356462.583,
       3092286.112
      ],
      [
       356462.282,
       3092287.927
      ],
      [
       356460.623,
       3092288.235
      ],
      [
       356456.946,
       3092297.367
      ]
     ]
    ]
   },
   "properties": {
    "sheet": "01352_1889-0003",
    "block_id": "01352_1889-0003:block:2",
    "block_number": "2",
    "block_number_inferred": false,
    "lot_numbers": [
     "0",
     "1",
     "2",
     "10",
     "30",
     "102",
     "103",
     "104",
     "308",
     "309"
    ],
    "street_names": [
     "MADISON"
    ],
    "area_source_px2": 1543817,
    "centroid_source_px": [
     3306,
     1381
    ],
    "n_outlines": 6,
    "compactness": 0.688,
    "streets_through": [],
    "merged_across": null,
    "streets_1895": [
     {
      "label_1895": "MADISON",
      "modern": [
       "MADISON AVE",
       "EAST MADISON ST"
      ],
      "side": "N",
      "distance_px": 129,
      "residual_m": 1.11
     }
    ],
    "streets_modern": [
     {
      "name": "NORTH TAMPA ST",
      "distance_m": 7.3,
      "bearing_deg": 66,
      "side": "NE",
      "ring_share": 0.43
     },
     {
      "name": "EAST KENNEDY BLVD",
      "distance_m": 8.1,
      "bearing_deg": 189,
      "side": "S",
      "ring_share": 0.36
     },
     {
      "name": "NORTH ASHLEY DR",
      "distance_m": 11.8,
      "bearing_deg": 285,
      "side": "W",
      "ring_share": 0.19
     },
     {
      "name": "EAST MADISON ST",
      "distance_m": 13.5,
      "bearing_deg": 355,
      "side": "N",
      "ring_share": 0.25
     }
    ],
    "nearby_text": [
     "LAFAYETTE"
    ],
    "centroid_map": [
     356438.719,
     3092256.144
    ],
    "is_block": true
   }
  },
  {
   "type": "Feature",
   "geometry": {
    "type": "Polygon",
    "coordinates": [
     [
      [
       356573.154,
       3092266.914
      ],
      [
       356571.872,
       3092265.933
      ],
      [
       356570.328,
       3092262.153
      ],
      [
       356566.261,
       3092257.032
      ],
      [
       356562.615,
       3092253.999
      ],
      [
       356558.094,
       3092251.241
      ],
      [
       356550.306,
       3092247.798
      ],
      [
       356509.699,
       3092231.934
      ],
      [
       356508.406,
       3092232.877
      ],
      [
       356507.218,
       3092232.813
      ],
      [
       356506.683,
       3092232.335
      ],
      [
       356506.822,
       3092230.074
      ],
      [
       356507.673,
       3092230.01
      ],
      [
       356509.383,
       3092230.877
      ],
      [
       356510.011,
       3092230.674
      ],
      [
       356510.85,
       3092228.457
      ],
      [
       356509.827,
       3092227.52
      ],
      [
       356509.662,
       3092226.355
      ],
      [
       356510.575,
       3092225.544
      ],
      [
       356510.976,
       3092224.483
      ],
      [
       356510.743,
       3092223.789
      ],
      [
       356512.645,
       3092219.054
      ],
      [
       356511.739,
       3092217.665
      ],
      [
       356512.633,
       3092215.303
      ],
      [
       356514.347,
       3092214.85
      ],
      [
       356515.788,
       3092211.043
      ],
      [
       356516.519,
       3092210.713
      ],
      [
       356519.812,
       3092202.593
      ],
      [
       356518.868,
       3092201.74
      ],
      [
       356519.211,
       3092200.107
      ],
      [
       356521.046,
       3092199.479
      ],
      [
       356525.634,
       3092187.938
      ],
      [
       356524.642,
       3092187.066
      ],
      [
       356525.033,
       3092185.451
      ],
      [
       356526.856,
       3092184.709
      ],
      [
       356531.919,
       3092171.914
      ],
      [
       356531.041,
       3092171.031
      ],
      [
       356531.359,
       3092169.609
      ],
      [
       356533.05,
       3092168.926
      ],
      [
       356534.372,
       3092166.452
      ],
      [
       356554.125,
       3092174.093
      ],
      [
       356555.374,
       3092173.849
      ],
      [
       356556.052,
       3092174.822
      ],
      [
       356564.98,
       3092178.311
      ],
      [
       356566.707,
       3092177.532
      ],
      [
       356567.401,
       3092179.338
      ],
      [
       356574.112,
       3092181.988
      ],
      [
       356576.215,
       3092182.398
      ],
      [
       356591.654,
       3092188.627
      ],
      [
       356592.134,
       3092189.249
      ],
      [
       356591.953,
       3092191.33
      ],
      [
       356592.969,
       3092192.43
      ],
      [
       356591.978,
       3092193.157
      ],
      [
       356591.631,
       3092194.073
      ],
      [
       356590.841,
       3092194.269
      ],
      [
       356589.741,
       3092196.883
      ],
      [
       356590.782,
       3092197.773
      ],
      [
       356590.331,
       3092199.255
      ],
      [
       356588.701,
       3092199.63
      ],
      [
       356588.744,
       3092201.41
      ],
      [
       356587.76,
       3092201.974
      ],
      [
       356587.486,
       3092202.697
      ],
      [
       356588.598,
       3092203.834
      ],
      [
       356588.051,
       3092205.28
      ],
      [
       356586.337,
       3092205.733
      ],
      [
       356585.584,
       3092207.431
      ],
      [
       356586.54,
       3092208.399
      ],
      [
       356586.355,
       3092209.761
      ],
      [
       356584.562,
       3092210.13
      ],
      [
       356584.179,
       3092211.142
      ],
      [
       356585.104,
       3092212.484
      ],
      [
       356584.227,
       3092213.199
      ],
      [
       356584.328,
       3092213.953
      ],
      [
       356583.684,
       3092215.362
      ],
      [
       356582.163,
       3092215.888
      ],
      [
       356581.318,
       3092217.828
      ],
      [
       356581.141,
       3092218.587
      ],
      [
       356581.947,
       3092219.223
      ],
      [
       356581.975,
       3092220.17
      ],
      [
       356581.641,
       3092220.76
      ],
      [
       356580.175,
       3092221.141
      ],
      [
       356579.846,
       3092222.009
      ],
      [
       356580.753,
       3092223.399
      ],
      [
       356579.755,
       3092226.327
      ],
      [
       356576.181,
       3092233.294
      ],
      [
       356576.128,
       3092235.037
      ],
      [
       356574.505,
       3092235.249
      ],
      [
       356573.921,
       3092236.791
      ],
      [
       356574.576,
       3092237.535
      ],
      [
       356574.282,
       3092239.186
      ],
      [
       356573.189,
       3092239.599
      ],
      [
       356572.117,
       3092241.122
      ],
      [
       356571.46,
       3092242.857
      ],
      [
       356572.26,
       3092243.655
      ],
      [
       356572.002,
       3092245.21
      ],
      [
       356570.384,
       3092245.7
      ],
      [
       356569.667,
       3092247.302
      ],
      [
       356571.879,
       3092249.902
      ],
      [
       356573.106,
       3092248.989
      ],
      [
       356574.311,
       3092249.445
      ],
      [
       356574.526,
       3092250.188
      ],
      [
       356573.641,
       3092251.506
      ],
      [
       356575.393,
       3092252.554
      ],
      [
       356575.966,
       3092254.534
      ],
      [
       356576.022,
       3092255.988
      ],
      [
       356575.178,
       3092257.927
      ],
      [
       356574.676,
       3092258.234
      ],
      [
       356573.682,
       3092261.879
      ],
      [
       356572.738,
       3092263.065
      ],
      [
       356572.794,
       3092264.518
      ],
      [
       356573.7,
       3092265.908
      ],
      [
       356573.154,
       3092266.914
      ]
     ]
    ]
   },
   "properties": {
    "sheet": "01352_1889-0003",
    "block_id": "01352_1889-0003:block:4",
    "block_number": "4",
    "block_number_inferred": false,
    "lot_numbers": [
     "0",
     "1",
     "2",
     "3",
     "4",
     "7",
     "8",
     "12",
     "19",
     "30",
     "108",
     "112",
     "113",
     "116",
     "117",
     "118",
     "119",
     "317",
     "319",
     "411"
    ],
    "street_names": [
     "TAMPA"
    ],
    "area_source_px2": 1730783,
    "centroid_source_px": [
     5041,
     2964
    ],
    "n_outlines": 14,
    "compactness": 0.543,
    "streets_through": [],
    "merged_across": null,
    "streets_1895": [
     {
      "label_1895": "TAMPA",
      "modern": [
       "NORTH TAMPA ST",
       "SOUTH TAMPA ST"
      ],
      "side": "SW",
      "distance_px": 133,
      "residual_m": 2.9
     }
    ],
    "streets_modern": [
     {
      "name": "EAST KENNEDY BLVD",
      "distance_m": 0.1,
      "bearing_deg": 23,
      "side": "NE",
      "ring_share": 0.34
     },
     {
      "name": "NORTH FRANKLIN ST",
      "distance_m": 0.2,
      "bearing_deg": 23,
      "side": "NE",
      "ring_share": 0.62
     },
     {
      "name": "NORTH TAMPA ST",
      "distance_m": 13.3,
      "bearing_deg": 283,
      "side": "W",
      "ring_share": 0.22
     },
     {
      "name": "EAST JACKSON ST",
      "distance_m": 13.4,
      "bearing_deg": 157,
      "side": "SE",
      "ring_share": 0.1
     }
    ],
    "nearby_text": [
     "Creek.",
     "FRANK",
     "TAMPA STEAM STREET RY."
    ],
    "centroid_map": [
     356551.207,
     3092211.5
    ],
    "is_block": true
   }
  },
  {
   "type": "Feature",
   "geometry": {
    "type": "Polygon",
    "coordinates": [
     [
      [
       356428.99,
       3092192.903
      ],
      [
       356437.834,
       3092176.085
      ],
      [
       356437.211,
       3092174.968
      ],
      [
       356437.426,
       3092173.672
      ],
      [
       356438.164,
       3092172.739
      ],
      [
       356439.933,
       3092172.141
      ],
      [
       356451.077,
       3092150.85
      ],
      [
       356450.398,
       3092149.876
      ],
      [
       356451.17,
       3092148.13
      ],
      [
       356452.938,
       3092147.532
      ],
      [
       356458.168,
       3092137.5
      ],
      [
       356458.717,
       3092137.212
      ],
      [
       356467.236,
       3092140.326
      ],
      [
       356468.546,
       3092139.775
      ],
      [
       356470.428,
       3092141.645
      ],
      [
       356482.706,
       3092146.181
      ],
      [
       356483.944,
       3092145.383
      ],
      [
       356485.253,
       3092147.311
      ],
      [
       356502.133,
       3092153.809
      ],
      [
       356503.948,
       3092153.67
      ],
      [
       356504.639,
       3092154.758
      ],
      [
       356511.373,
       3092157.637
      ],
      [
       356503.652,
       3092177.745
      ],
      [
       356504.62,
       3092178.827
      ],
      [
       356503.968,
       3092180.84
      ],
      [
       356502.236,
       3092181.341
      ],
      [
       356490.732,
       3092209.99
      ],
      [
       356491.731,
       3092210.698
      ],
      [
       356491.571,
       3092211.85
      ],
      [
       356490.801,
       3092213.156
      ],
      [
       356489.437,
       3092213.411
      ],
      [
       356488.58,
       3092215.676
      ],
      [
       356488.042,
       3092216.079
      ],
      [
       356467.277,
       3092208.055
      ],
      [
       356465.912,
       3092208.75
      ],
      [
       356465.205,
       3092207.27
      ],
      [
       356462.265,
       3092206.158
      ],
      [
       356461.419,
       3092206.939
      ],
      [
       356460.634,
       3092206.973
      ],
      [
       356460.033,
       3092206.525
      ],
      [
       356459.886,
       3092205.312
      ],
      [
       356440.796,
       3092197.812
      ],
      [
       356440.021,
       3092198.841
      ],
      [
       356438.863,
       3092198.844
      ],
      [
       356438.118,
       3092197.9
      ],
      [
       356438.049,
       3092196.772
      ],
      [
       356428.99,
       3092192.903
      ]
     ]
    ]
   },
   "properties": {
    "sheet": "01352_1889-0003",
    "block_id": "01352_1889-0003:block:5",
    "block_number": "5",
    "block_number_inferred": false,
    "lot_numbers": [
     "0",
     "1",
     "2",
     "15",
     "109",
     "110",
     "219",
     "220",
     "307"
    ],
    "street_names": [
     "ASHLEY",
     "TAMPA"
    ],
    "area_source_px2": 1445889,
    "centroid_source_px": [
     3355,
     3051
    ],
    "n_outlines": 2,
    "compactness": 0.725,
    "streets_through": [],
    "merged_across": null,
    "streets_1895": [
     {
      "label_1895": "ASHLEY",
      "modern": [
       "ASHLEY ST",
       "NORTH ASHLEY ST",
       "SOUTH ASHLEY DR",
       "NORTH ASHLEY DR"
      ],
      "side": "W",
      "distance_px": 87,
      "residual_m": 2.95
     },
     {
      "label_1895": "TAMPA",
      "modern": [
       "NORTH TAMPA ST",
       "SOUTH TAMPA ST"
      ],
      "side": "E",
      "distance_px": 112,
      "residual_m": 2.9
     }
    ],
    "streets_modern": [
     {
      "name": "NORTH TAMPA ST",
      "distance_m": 6.6,
      "bearing_deg": 80,
      "side": "E",
      "ring_share": 0.28
     },
     {
      "name": "NORTH ASHLEY DR",
      "distance_m": 9.6,
      "bearing_deg": 221,
      "side": "SW",
      "ring_share": 0.28
     },
     {
      "name": "EAST JACKSON ST",
      "distance_m": 10.8,
      "bearing_deg": 158,
      "side": "S",
      "ring_share": 0.26
     },
     {
      "name": "EAST KENNEDY BLVD",
      "distance_m": 12.6,
      "bearing_deg": 313,
      "side": "NW",
      "ring_share": 0.36
     }
    ],
    "nearby_text": [
     "JACKSON",
     "LAFAYETTE",
     "TAMPA STEAM STREET RY."
    ],
    "centroid_map": [
     356471.54,
     3092176.556
    ],
    "is_block": true
   }
  },
  {
   "type": "Feature",
   "geometry": {
    "type": "Polygon",
    "coordinates": [
     [
      [
       356431.323,
       3092131.858
      ],
      [
       356430.243,
       3092131.945
      ],
      [
       356410.941,
       3092122.822
      ],
      [
       356409.487,
       3092122.878
      ],
      [
       356393.372,
       3092115.236
      ],
      [
       356393.393,
       3092114.307
      ],
      [
       356399.943,
       3092100.202
      ],
      [
       356401.023,
       3092100.115
      ],
      [
       356402.785,
       3092101.719
      ],
      [
       356410.628,
       3092106.616
      ],
      [
       356410.783,
       3092107.225
      ],
      [
       356409.32,
       3092110.363
      ],
      [
       356409.548,
       3092110.78
      ],
      [
       356435.054,
       3092122.582
      ],
      [
       356433.94,
       3092125.962
      ],
      [
       356434.402,
       3092126.633
      ],
      [
       356434.264,
       3092128.453
      ],
      [
       356432.55,
       3092128.907
      ],
      [
       356431.323,
       3092131.858
      ]
     ]
    ]
   },
   "properties": {
    "sheet": "01352_1889-0003",
    "block_id": "01352_1889-0003:block:fid7",
    "block_number": null,
    "block_number_inferred": false,
    "lot_numbers": [
     "2",
     "213"
    ],
    "street_names": [],
    "area_source_px2": 192115,
    "centroid_source_px": [
     1883,
     3727
    ],
    "n_outlines": 1,
    "compactness": 0.487,
    "streets_through": [],
    "merged_across": null,
    "streets_1895": [],
    "streets_modern": [
     {
      "name": "NORTH ASHLEY DR",
      "distance_m": 3.0,
      "bearing_deg": 62,
      "side": "NE",
      "ring_share": 0.42
     },
     {
      "name": "EAST JACKSON ST",
      "distance_m": 9.9,
      "bearing_deg": 88,
      "side": "E",
      "ring_share": 0.26
     }
    ],
    "nearby_text": [
     "Gen't Storage."
    ],
    "centroid_map": [
     356412.931,
     3092117.129
    ],
    "is_block": true
   }
  },
  {
   "type": "Feature",
   "geometry": {
    "type": "Polygon",
    "coordinates": [
     [
      [
       356444.09,
       3092120.106
      ],
      [
       356424.848,
       3092111.116
      ],
      [
       356422.802,
       3092109.68
      ],
      [
       356427.61,
       3092099.159
      ],
      [
       356424.449,
       3092097.466
      ],
      [
       356425.028,
       3092095.647
      ],
      [
       356424.375,
       3092091.984
      ],
      [
       356424.984,
       3092088.192
      ],
      [
       356426.439,
       3092085.658
      ],
      [
       356429.182,
       3092083.941
      ],
      [
       356431.541,
       3092083.677
      ],
      [
       356434.742,
       3092084.392
      ],
      [
       356438.476,
       3092086.026
      ],
      [
       356441.099,
       3092086.082
      ],
      [
       356441.586,
       3092086.542
      ],
      [
       356441.276,
       3092087.361
      ],
      [
       356441.702,
       3092088.129
      ],
      [
       356442.553,
       3092088.065
      ],
      [
       356461.107,
       3092097.125
      ],
      [
       356460.523,
       3092098.668
      ],
      [
       356461.092,
       3092099.93
      ],
      [
       356460.193,
       3092102.014
      ],
      [
       356458.781,
       3092102.251
      ],
      [
       356457.07,
       3092105.9
      ],
      [
       356457.808,
       3092107.006
      ],
      [
       356456.927,
       3092109.042
      ],
      [
       356455.461,
       3092109.424
      ],
      [
       356454.564,
       3092110.627
      ],
      [
       356449.746,
       3092108.363
      ],
      [
       356449.07,
       3092108.548
      ],
      [
       356449.219,
       3092109.32
      ],
      [
       356447.361,
       3092113.355
      ],
      [
       356448.172,
       3092114.269
      ],
      [
       356447.916,
       3092115.384
      ],
      [
       356446.183,
       3092115.885
      ],
      [
       356444.09,
       3092120.106
      ]
     ]
    ]
   },
   "properties": {
    "sheet": "01352_1889-0003",
    "block_id": "01352_1889-0003:block:fid10",
    "block_number": null,
    "block_number_inferred": false,
    "lot_numbers": [
     "2",
     "3",
     "211",
     "9104",
     "9105"
    ],
    "street_names": [],
    "area_source_px2": 323647,
    "centroid_source_px": [
     2264,
     4204
    ],
    "n_outlines": 2,
    "compactness": 0.657,
    "streets_through": [],
    "merged_across": null,
    "streets_1895": [],
    "streets_modern": [
     {
      "name": "NORTH ASHLEY DR",
      "distance_m": 0.1,
      "bearing_deg": 48,
      "side": "NE",
      "ring_share": 0.53
     },
     {
      "name": "EAST JACKSON ST",
      "distance_m": 1.7,
      "bearing_deg": 15,
      "side": "N",
      "ring_share": 0.36
     }
    ],
    "nearby_text": [
     "DOCK."
    ],
    "centroid_map": [
     356439.992,
     3092101.09
    ],
    "is_block": true
   }
  },
  {
   "type": "Feature",
   "geometry": {
    "type": "Polygon",
    "coordinates": [
     [
      [
       356600.991,
       3092166.431
      ],
      [
       356594.678,
       3092164.041
      ],
      [
       356592.288,
       3092164.679
      ],
      [
       356591.352,
       3092162.783
      ],
      [
       356578.323,
       3092157.466
      ],
      [
       356575.954,
       3092157.175
      ],
      [
       356575.324,
       3092156.221
      ],
      [
       356569.143,
       3092153.771
      ],
      [
       356568.327,
       3092154.619
      ],
      [
       356567.513,
       3092154.587
      ],
      [
       356566.649,
       3092152.938
      ],
      [
       356555.722,
       3092148.472
      ],
      [
       356554.067,
       3092149.498
      ],
      [
       356553.265,
       3092147.541
      ],
      [
       356542.983,
       3092143.264
      ],
      [
       356552.257,
       3092119.777
      ],
      [
       356551.168,
       3092118.869
      ],
      [
       356551.413,
       3092117.64
      ],
      [
       356553.297,
       3092117.03
      ],
      [
       356558.943,
       3092102.694
      ],
      [
       356557.969,
       3092101.774
      ],
      [
       356558.42,
       3092100.292
      ],
      [
       356560.171,
       3092099.742
      ],
      [
       356566.199,
       3092084.834
      ],
      [
       356569.56,
       3092085.996
      ],
      [
       356570.444,
       3092085.118
      ],
      [
       356571.083,
       3092085.03
      ],
      [
       356572.3,
       3092085.6
      ],
      [
       356572.645,
       3092087.163
      ],
      [
       356579.259,
       3092089.777
      ],
      [
       356580.383,
       3092088.99
      ],
      [
       356581.805,
       3092089.308
      ],
      [
       356582.837,
       3092091.241
      ],
      [
       356589.644,
       3092093.927
      ],
      [
       356590.713,
       3092093.285
      ],
      [
       356591.473,
       3092093.463
      ],
      [
       356592.306,
       3092095.045
      ],
      [
       356594.475,
       3092095.866
      ],
      [
       356595.918,
       3092095.255
      ],
      [
       356597.812,
       3092097.239
      ],
      [
       356600.703,
       3092098.334
      ],
      [
       356601.773,
       3092097.691
      ],
      [
       356603.062,
       3092098.069
      ],
      [
       356603.896,
       3092099.652
      ],
      [
       356623.708,
       3092107.426
      ],
      [
       356624.478,
       3092108.158
      ],
      [
       356623.389,
       3092111.327
      ],
      [
       356624.501,
       3092112.464
      ],
      [
       356623.821,
       3092113.97
      ],
      [
       356622.235,
       3092114.086
      ],
      [
       356613.331,
       3092136.446
      ],
      [
       356614.372,
       3092137.336
      ],
      [
       356613.805,
       3092139.27
      ],
      [
       356611.787,
       3092140.379
      ],
      [
       356605.036,
       3092157.053
      ],
      [
       356605.939,
       3092157.725
      ],
      [
       356605.911,
       3092158.816
      ],
      [
       356605.208,
       3092160.093
      ],
      [
       356603.572,
       3092160.631
      ],
      [
       356600.991,
       3092166.431
      ]
     ]
    ]
   },
   "properties": {
    "sheet": "01352_1889-0003",
    "block_id": "01352_1889-0003:block:7",
    "block_number": "7",
    "block_number_inferred": false,
    "lot_numbers": [
     "1",
     "2",
     "12",
     "22",
     "23",
     "25",
     "36",
     "104",
     "105",
     "108",
     "406"
    ],
    "street_names": [],
    "area_source_px2": 1512234,
    "centroid_source_px": [
     5042,
     4748
    ],
    "n_outlines": 10,
    "compactness": 0.701,
    "streets_through": [],
    "merged_across": null,
    "streets_1895": [],
    "streets_modern": [
     {
      "name": "EAST JACKSON ST",
      "distance_m": 7.4,
      "bearing_deg": 7,
      "side": "N",
      "ring_share": 0.28
     }
    ],
    "nearby_text": [
     "Creek.",
     "STREET",
     "TAMPA STERM S",
     "WOODEN BRIDGE."
    ],
    "centroid_map": [
     356583.794,
     3092125.542
    ],
    "is_block": true
   }
  },
  {
   "type": "Feature",
   "geometry": {
    "type": "Polygon",
    "coordinates": [
     [
      [
       356472.758,
       3092117.292
      ],
      [
       356477.258,
       3092105.111
      ],
      [
       356476.355,
       3092104.439
      ],
      [
       356476.661,
       3092102.902
      ],
      [
       356478.339,
       3092102.545
      ],
      [
       356481.13,
       3092095.172
      ],
      [
       356484.282,
       3092089.754
      ],
      [
       356483.428,
       3092089.1
      ],
      [
       356483.412,
       3092088.267
      ],
      [
       356484.066,
       3092087.413
      ],
      [
       356486.076,
       3092086.906
      ],
      [
       356491.157,
       3092078.141
      ],
      [
       356490.478,
       3092077.168
      ],
      [
       356490.989,
       3092075.818
      ],
      [
       356492.932,
       3092075.342
      ],
      [
       356502.002,
       3092059.821
      ],
      [
       356503.461,
       3092060.043
      ],
      [
       356504.681,
       3092059.292
      ],
      [
       356505.572,
       3092059.85
      ],
      [
       356506.027,
       3092061.124
      ],
      [
       356516.942,
       3092065.475
      ],
      [
       356518.656,
       3092065.022
      ],
      [
       356520.107,
       3092065.847
      ],
      [
       356520.556,
       3092066.843
      ],
      [
       356536.772,
       3092073.201
      ],
      [
       356537.818,
       3092072.33
      ],
      [
       356539.319,
       3092072.732
      ],
      [
       356539.905,
       3092074.387
      ],
      [
       356543.387,
       3092075.814
      ],
      [
       356543.56,
       3092076.376
      ],
      [
       356535.244,
       3092097.912
      ],
      [
       356536.002,
       3092098.529
      ],
      [
       356536.21,
       3092099.434
      ],
      [
       356535.343,
       3092101.144
      ],
      [
       356533.816,
       3092101.393
      ],
      [
       356531.804,
       3092106.417
      ],
      [
       356532.893,
       3092107.325
      ],
      [
       356532.471,
       3092109.314
      ],
      [
       356530.345,
       3092110.272
      ],
      [
       356520.694,
       3092134.608
      ],
      [
       356506.356,
       3092129.402
      ],
      [
       356505.203,
       3092129.682
      ],
      [
       356504.428,
       3092128.673
      ],
      [
       356493.007,
       3092124.35
      ],
      [
       356491.444,
       3092124.695
      ],
      [
       356482.89,
       3092121.237
      ],
      [
       356481.568,
       3092121.674
      ],
      [
       356480.721,
       3092120.417
      ],
      [
       356472.758,
       3092117.292
      ]
     ]
    ]
   },
   "properties": {
    "sheet": "01352_1889-0003",
    "block_id": "01352_1889-0003:block:6",
    "block_number": "6",
    "block_number_inferred": false,
    "lot_numbers": [
     "1",
     "12",
     "1\u00bd",
     "2\u00bd",
     "101",
     "102",
     "103",
     "207",
     "210",
     "216",
     "304",
     "305"
    ],
    "street_names": [
     "WASHINGTON"
    ],
    "area_source_px2": 1191530,
    "centroid_source_px": [
     3487,
     4746
    ],
    "n_outlines": 15,
    "compactness": 0.717,
    "streets_through": [],
    "merged_across": null,
    "streets_1895": [
     {
      "label_1895": "WASHINGTON",
      "modern": [
       "EAST WASHINGTON ST",
       "WEST WASHINGTON ST"
      ],
      "side": "S",
      "distance_px": 132,
      "residual_m": 5.18
     }
    ],
    "streets_modern": [
     {
      "name": "NORTH TAMPA ST",
      "distance_m": 5.3,
      "bearing_deg": 64,
      "side": "NE",
      "ring_share": 0.33
     },
     {
      "name": "EAST WASHINGTON ST",
      "distance_m": 6.1,
      "bearing_deg": 133,
      "side": "SE",
      "ring_share": 0.31
     },
     {
      "name": "NORTH ASHLEY DR",
      "distance_m": 8.7,
      "bearing_deg": 248,
      "side": "W",
      "ring_share": 0.35
     },
     {
      "name": "EAST JACKSON ST",
      "distance_m": 10.5,
      "bearing_deg": 318,
      "side": "NW",
      "ring_share": 0.22
     }
    ],
    "nearby_text": [
     "WOODEN BRIDGE."
    ],
    "centroid_map": [
     356508.818,
     3092097.276
    ],
    "is_block": true
   }
  },
  {
   "type": "Feature",
   "geometry": {
    "type": "Polygon",
    "coordinates": [
     [
      [
       356469.161,
       3092086.179
      ],
      [
       356458.981,
       3092080.178
      ],
      [
       356457.491,
       3092080.33
      ],
      [
       356456.836,
       3092079.586
      ],
      [
       356458.522,
       3092076.588
      ],
      [
       356457.577,
       3092075.735
      ],
      [
       356457.646,
       3092074.824
      ],
      [
       356462.671,
       3092066.643
      ],
      [
       356462.289,
       3092065.177
      ],
      [
       356462.902,
       3092064.141
      ],
      [
       356463.692,
       3092063.945
      ],
      [
       356466.781,
       3092065.83
      ],
      [
       356466.984,
       3092066.457
      ],
      [
       356466.069,
       3092067.709
      ],
      [
       356464.931,
       3092067.223
      ],
      [
       356464.369,
       3092067.396
      ],
      [
       356462.15,
       3092071.515
      ],
      [
       356465.093,
       3092073.345
      ],
      [
       356468.966,
       3092073.158
      ],
      [
       356471.968,
       3092071.484
      ],
      [
       356473.676,
       3092069.156
      ],
      [
       356474.825,
       3092066.119
      ],
      [
       356475.254,
       3092061.929
      ],
      [
       356476.44,
       3092058.797
      ],
      [
       356478.16,
       3092056.142
      ],
      [
       356478.555,
       3092053.206
      ],
      [
       356478.266,
       3092051.058
      ],
      [
       356470.995,
       3092046.543
      ],
      [
       356466.214,
       3092047.819
      ],
      [
       356464.797,
       3092047.779
      ],
      [
       356462.691,
       3092050.287
      ],
      [
       356460.746,
       3092049.166
      ],
      [
       356461.293,
       3092047.72
      ],
      [
       356460.929,
       3092044.607
      ],
      [
       356461.506,
       3092041.189
      ],
      [
       356460.816,
       3092040.101
      ],
      [
       356469.506,
       3092022.234
      ],
      [
       356470.154,
       3092021.542
      ],
      [
       356481.442,
       3092027.963
      ],
      [
       356482.133,
       3092029.051
      ],
      [
       356489.248,
       3092033.397
      ],
      [
       356489.984,
       3092033.345
      ],
      [
       356492.504,
       3092027.852
      ],
      [
       356498.865,
       3092030.26
      ],
      [
       356498.589,
       3092031.863
      ],
      [
       356499.519,
       3092033.482
      ],
      [
       356498.742,
       3092034.951
      ],
      [
       356497.687,
       3092034.827
      ],
      [
       356496.635,
       3092035.862
      ],
      [
       356490.827,
       3092033.884
      ],
      [
       356491.083,
       3092034.807
      ],
      [
       356490.713,
       3092035.494
      ],
      [
       356491.616,
       3092036.166
      ],
      [
       356491.753,
       3092036.824
      ],
      [
       356491.146,
       3092038.137
      ],
      [
       356489.395,
       3092038.686
      ],
      [
       356489.194,
       3092039.216
      ],
      [
       356494.088,
       3092042.446
      ],
      [
       356493.352,
       3092044.536
      ],
      [
       356493.97,
       3092045.377
      ],
      [
       356493.835,
       3092046.317
      ],
      [
       356491.254,
       3092048.04
      ],
      [
       356481.614,
       3092064.777
      ],
      [
       356481.734,
       3092067.081
      ],
      [
       356481.055,
       3092068.147
      ],
      [
       356479.492,
       3092068.492
      ],
      [
       356472.774,
       3092080.274
      ],
      [
       356473.18,
       3092081.53
      ],
      [
       356472.857,
       3092082.675
      ],
      [
       356471.954,
       3092084.041
      ],
      [
       356470.615,
       3092084.085
      ],
      [
       356469.161,
       3092086.179
      ]
     ]
    ]
   },
   "properties": {
    "sheet": "01352_1889-0003",
    "block_id": "01352_1889-0003:block:fid14",
    "block_number": null,
    "block_number_inferred": false,
    "lot_numbers": [
     "1",
     "205",
     "206",
     "207",
     "208",
     "209"
    ],
    "street_names": [],
    "area_source_px2": 397011,
    "centroid_source_px": [
     2562,
     5396
    ],
    "n_outlines": 7,
    "compactness": 0.22,
    "streets_through": [],
    "merged_across": null,
    "streets_1895": [],
    "streets_modern": [
     {
      "name": "NORTH ASHLEY DR",
      "distance_m": 0.2,
      "bearing_deg": 354,
      "side": "N",
      "ring_share": 0.85
     },
     {
      "name": "EAST WASHINGTON ST",
      "distance_m": 0.7,
      "bearing_deg": 96,
      "side": "E",
      "ring_share": 0.31
     },
     {
      "name": "WEST WASHINGTON ST",
      "distance_m": 1.7,
      "bearing_deg": 99,
      "side": "E",
      "ring_share": 0.46
     }
    ],
    "nearby_text": [
     "DOCK.",
     "DOCKS."
    ],
    "centroid_map": [
     356476.095,
     3092049.08
    ],
    "is_block": true
   }
  },
  {
   "type": "Feature",
   "geometry": {
    "type": "Polygon",
    "coordinates": [
     [
      [
       356633.329,
       3092085.062
      ],
      [
       356632.51,
       3092084.752
      ],
      [
       356631.514,
       3092085.201
      ],
      [
       356630.05,
       3092084.702
      ],
      [
       356629.462,
       3092085.527
      ],
      [
       356628.774,
       3092085.597
      ],
      [
       356628.124,
       3092085.13
      ],
      [
       356627.754,
       3092083.778
      ],
      [
       356623.887,
       3092082.205
      ],
      [
       356623.089,
       3092083.004
      ],
      [
       356622.353,
       3092083.056
      ],
      [
       356621.703,
       3092082.59
      ],
      [
       356621.321,
       3092081.123
      ],
      [
       356617.406,
       3092079.531
      ],
      [
       356616.608,
       3092080.331
      ],
      [
       356615.872,
       3092080.383
      ],
      [
       356615.27,
       3092079.935
      ],
      [
       356615.045,
       3092078.638
      ],
      [
       356613.426,
       3092077.529
      ],
      [
       356610.39,
       3092076.38
      ],
      [
       356608.903,
       3092077.25
      ],
      [
       356608.253,
       3092076.783
      ],
      [
       356607.872,
       3092075.317
      ],
      [
       356602.173,
       3092073.05
      ],
      [
       356601.146,
       3092073.873
      ],
      [
       356600.193,
       3092073.623
      ],
      [
       356599.415,
       3092071.896
      ],
      [
       356591.692,
       3092068.863
      ],
      [
       356590.875,
       3092069.711
      ],
      [
       356589.965,
       3092069.641
      ],
      [
       356588.789,
       3092067.654
      ],
      [
       356582.608,
       3092065.204
      ],
      [
       356580.767,
       3092065.995
      ],
      [
       356580.006,
       3092064.219
      ],
      [
       356575.23,
       3092062.136
      ],
      [
       356577.035,
       3092057.365
      ],
      [
       356576.164,
       3092056.319
      ],
      [
       356576.439,
       3092055.156
      ],
      [
       356578.463,
       3092053.884
      ],
      [
       356583.441,
       3092041.167
      ],
      [
       356582.563,
       3092040.284
      ],
      [
       356582.743,
       3092038.644
      ],
      [
       356584.645,
       3092037.987
      ],
      [
       356589.434,
       3092025.915
      ],
      [
       356588.332,
       3092025.333
      ],
      [
       356588.476,
       3092023.789
      ],
      [
       356590.492,
       3092023.12
      ],
      [
       356595.385,
       3092010.482
      ],
      [
       356594.67,
       3092009.605
      ],
      [
       356594.775,
       3092009.038
      ],
      [
       356596.266,
       3092008.446
      ],
      [
       356598.477,
       3092003.332
      ],
      [
       356606.043,
       3092006.196
      ],
      [
       356607.57,
       3092005.947
      ],
      [
       356608.995,
       3092007.423
      ],
      [
       356616.061,
       3092010.152
      ],
      [
       356617.607,
       3092009.415
      ],
      [
       356618.193,
       3092011.069
      ],
      [
       356628.144,
       3092015.056
      ],
      [
       356628.591,
       3092014.895
      ],
      [
       356628.763,
       3092013.858
      ],
      [
       356629.554,
       3092013.661
      ],
      [
       356630.112,
       3092014.368
      ],
      [
       356630.265,
       3092015.859
      ],
      [
       356641.143,
       3092020.306
      ],
      [
       356641.638,
       3092020.163
      ],
      [
       356642.112,
       3092018.91
      ],
      [
       356642.848,
       3092018.858
      ],
      [
       356643.485,
       3092019.65
      ],
      [
       356643.084,
       3092020.71
      ],
      [
       356643.661,
       3092021.369
      ],
      [
       356655.498,
       3092025.905
      ],
      [
       356656.509,
       3092026.728
      ],
      [
       356655.672,
       3092030.103
      ],
      [
       356654.156,
       3092032.945
      ],
      [
       356647.099,
       3092051.155
      ],
      [
       356647.126,
       3092052.102
      ],
      [
       356646.624,
       3092052.408
      ],
      [
       356639.253,
       3092070.72
      ],
      [
       356637.76,
       3092075.83
      ],
      [
       356634.448,
       3092083.998
      ],
      [
       356633.329,
       3092085.062
      ]
     ]
    ]
   },
   "properties": {
    "sheet": "01352_1889-0003",
    "block_id": "01352_1889-0003:block:8",
    "block_number": "8",
    "block_number_inferred": false,
    "lot_numbers": [
     "2",
     "01",
     "18",
     "19",
     "113",
     "114",
     "115",
     "116",
     "117",
     "118",
     "311",
     "312"
    ],
    "street_names": [],
    "area_source_px2": 1520789,
    "centroid_source_px": [
     5068,
     6439
    ],
    "n_outlines": 3,
    "compactness": 0.677,
    "streets_through": [],
    "merged_across": null,
    "streets_1895": [],
    "streets_modern": [
     {
      "name": "EAST WHITING ST",
      "distance_m": 12.6,
      "bearing_deg": 157,
      "side": "SE",
      "ring_share": 0.27
     }
    ],
    "nearby_text": [],
    "centroid_map": [
     356615.89,
     3092044.523
    ],
    "is_block": true
   }
  },
  {
   "type": "Feature",
   "geometry": {
    "type": "Polygon",
    "coordinates": [
     [
      [
       356552.266,
       3092053.225
      ],
      [
       356543.748,
       3092050.111
      ],
      [
       356543.112,
       3092050.918
      ],
      [
       356542.491,
       3092050.958
      ],
      [
       356541.652,
       3092049.098
      ],
      [
       356530.797,
       3092044.879
      ],
      [
       356530.017,
       3092045.631
      ],
      [
       356529.07,
       3092045.658
      ],
      [
       356528.402,
       3092045.24
      ],
      [
       356528.098,
       3092043.858
      ],
      [
       356521.099,
       3092041.099
      ],
      [
       356519.486,
       3092041.866
      ],
      [
       356518.343,
       3092041.102
      ],
      [
       356517.966,
       3092039.913
      ],
      [
       356516.328,
       3092039.293
      ],
      [
       356515.865,
       3092038.622
      ],
      [
       356521.246,
       3092024.405
      ],
      [
       356520.592,
       3092023.221
      ],
      [
       356520.837,
       3092021.991
      ],
      [
       356522.505,
       3092021.08
      ],
      [
       356533.301,
       3092004.781
      ],
      [
       356533.028,
       3092003.465
      ],
      [
       356533.806,
       3092001.555
      ],
      [
       356535.507,
       3092001.428
      ],
      [
       356547.593,
       3091983.468
      ],
      [
       356549.449,
       3091983.95
      ],
      [
       356550.297,
       3091982.728
      ],
      [
       356551.02,
       3091983.002
      ],
      [
       356550.872,
       3091984.268
      ],
      [
       356551.69,
       3091985.018
      ],
      [
       356565.955,
       3091990.417
      ],
      [
       356567.174,
       3091990.107
      ],
      [
       356567.834,
       3091991.129
      ],
      [
       356575.304,
       3091993.956
      ],
      [
       356575.766,
       3091994.627
      ],
      [
       356571.548,
       3092005.482
      ],
      [
       356572.517,
       3092006.124
      ],
      [
       356572.46,
       3092007.149
      ],
      [
       356571.847,
       3092008.185
      ],
      [
       356570.302,
       3092008.481
      ],
      [
       356564.323,
       3092023.408
      ],
      [
       356565.249,
       3092024.31
      ],
      [
       356564.98,
       3092025.31
      ],
      [
       356563.392,
       3092025.866
      ],
      [
       356558.688,
       3092037.859
      ],
      [
       356559.282,
       3092038.911
      ],
      [
       356558.763,
       3092040.863
      ],
      [
       356557.132,
       3092041.678
      ],
      [
       356553.352,
       3092051.377
      ],
      [
       356552.266,
       3092053.225
      ]
     ]
    ]
   },
   "properties": {
    "sheet": "01352_1889-0003",
    "block_id": "01352_1889-0003:block:9",
    "block_number": "9",
    "block_number_inferred": false,
    "lot_numbers": [
     "0",
     "1",
     "9",
     "16",
     "1\u00bd",
     "2\u00bd",
     "109",
     "110",
     "111",
     "265",
     "301",
     "309"
    ],
    "street_names": [
     "WASHINGTON",
     "WHITING"
    ],
    "area_source_px2": 881717,
    "centroid_source_px": [
     3631,
     6433
    ],
    "n_outlines": 8,
    "compactness": 0.67,
    "streets_through": [],
    "merged_across": null,
    "streets_1895": [
     {
      "label_1895": "WHITING",
      "modern": [
       "EAST WHITING ST"
      ],
      "side": "S",
      "distance_px": 84,
      "residual_m": 5.82
     },
     {
      "label_1895": "WASHINGTON",
      "modern": [
       "EAST WASHINGTON ST",
       "WEST WASHINGTON ST"
      ],
      "side": "N",
      "distance_px": 119,
      "residual_m": 5.18
     }
    ],
    "streets_modern": [
     {
      "name": "NORTH TAMPA ST",
      "distance_m": 4.9,
      "bearing_deg": 108,
      "side": "E",
      "ring_share": 0.4
     },
     {
      "name": "EAST WHITING ST",
      "distance_m": 12.0,
      "bearing_deg": 171,
      "side": "S",
      "ring_share": 0.22
     },
     {
      "name": "EAST WASHINGTON ST",
      "distance_m": 15.3,
      "bearing_deg": 348,
      "side": "N",
      "ring_share": 0.14
     }
    ],
    "nearby_text": [],
    "centroid_map": [
     356546.528,
     3092018.602
    ],
    "is_block": true
   }
  },
  {
   "type": "Feature",
   "geometry": {
    "type": "Polygon",
    "coordinates": [
     [
      [
       356496.498,
       3092017.298
      ],
      [
       356478.15,
       3092005.946
      ],
      [
       356478.697,
       3092004.5
      ],
      [
       356478.537,
       3092003.613
      ],
      [
       356476.418,
       3092002.37
      ],
      [
       356476.052,
       3092001.736
      ],
      [
       356485.827,
       3091976.345
      ],
      [
       356488.186,
       3091976.081
      ],
      [
       356488.763,
       3091976.74
      ],
      [
       356489.572,
       3091976.495
      ],
      [
       356491.054,
       3091976.946
      ],
      [
       356491.729,
       3091975.163
      ],
      [
       356490.778,
       3091974.472
      ],
      [
       356490.602,
       3091972.753
      ],
      [
       356491.268,
       3091972.013
      ],
      [
       356492.153,
       3091968.656
      ],
      [
       356492.673,
       3091968.302
      ],
      [
       356494.11,
       3091969.452
      ],
      [
       356501.037,
       3091972.404
      ],
      [
       356499.304,
       3091976.983
      ],
      [
       356500.159,
       3091977.637
      ],
      [
       356500.344,
       3091978.313
      ],
      [
       356499.567,
       3091979.782
      ],
      [
       356498.137,
       3091980.067
      ],
      [
       356495.716,
       3091986.754
      ],
      [
       356511.113,
       3091992.802
      ],
      [
       356511.576,
       3091993.473
      ],
      [
       356509.911,
       3091997.581
      ],
      [
       356510.759,
       3091998.398
      ],
      [
       356510.541,
       3092000.574
      ],
      [
       356508.652,
       3092000.906
      ],
      [
       356506.071,
       3092006.706
      ],
      [
       356489.42,
       3092000.625
      ],
      [
       356489.32,
       3092001.909
      ],
      [
       356491.46,
       3092002.223
      ],
      [
       356498.311,
       3092006.248
      ],
      [
       356499.318,
       3092008.392
      ],
      [
       356499.493,
       3092010.112
      ],
      [
       356498.766,
       3092013.197
      ],
      [
       356496.498,
       3092017.298
      ]
     ]
    ]
   },
   "properties": {
    "sheet": "01352_1889-0003",
    "block_id": "01352_1889-0003:block:fid17",
    "block_number": null,
    "block_number_inferred": false,
    "lot_numbers": [
     "0",
     "1"
    ],
    "street_names": [],
    "area_source_px2": 325823,
    "centroid_source_px": [
     2491,
     6499
    ],
    "n_outlines": 3,
    "compactness": 0.373,
    "streets_through": [],
    "merged_across": null,
    "streets_1895": [],
    "streets_modern": [
     {
      "name": "NORTH ASHLEY DR",
      "distance_m": 3.2,
      "bearing_deg": 70,
      "side": "E",
      "ring_share": 0.33
     }
    ],
    "nearby_text": [
     "DOCKS.",
     "OFF"
    ],
    "centroid_map": [
     356492.792,
     3091994.628
    ],
    "is_block": true
   }
  }
 ]
}